<?xml version="1.0" encoding="UTF-8"?>
<gpx version="1.1" creator="plain route" xmlns="http://www.topografix.com/GPX/1/1">
  <trk>
    <name>Plain Route Area 2 5 kmh</name>
    <trkseg>
      <trkpt lat="9.018231" lon="38.747769">
        <ele>2396.166748046875</ele>
      </trkpt>
      <trkpt lat="9.018169" lon="38.7477791">
        <ele>2396.353515625</ele>
      </trkpt>
      <trkpt lat="9.018107" lon="38.7477892">
        <ele>2396.37890625</ele>
      </trkpt>
      <trkpt lat="9.018045" lon="38.7477993">
        <ele>2396.63623046875</ele>
      </trkpt>
      <trkpt lat="9.0179831" lon="38.7478094">
        <ele>2396.988037109375</ele>
      </trkpt>
      <trkpt lat="9.0179211" lon="38.7478195">
        <ele>2397.2958984375</ele>
      </trkpt>
      <trkpt lat="9.0178591" lon="38.7478296">
        <ele>2397.36181640625</ele>
      </trkpt>
      <trkpt lat="9.0179187" lon="38.7478097">
        <ele>2397.586669921875</ele>
      </trkpt>
      <trkpt lat="9.0179783" lon="38.7477897">
        <ele>2397.651123046875</ele>
      </trkpt>
      <trkpt lat="9.0180378" lon="38.7477698">
        <ele>2397.316162109375</ele>
      </trkpt>
      <trkpt lat="9.0180974" lon="38.7477498">
        <ele>2396.9443359375</ele>
      </trkpt>
      <trkpt lat="9.018157" lon="38.7477299">
        <ele>2397.325927734375</ele>
      </trkpt>
      <trkpt lat="9.0182166" lon="38.74771">
        <ele>2397.18701171875</ele>
      </trkpt>
      <trkpt lat="9.0182762" lon="38.74769">
        <ele>2396.787109375</ele>
      </trkpt>
      <trkpt lat="9.0183357" lon="38.7476701">
        <ele>2397.17578125</ele>
      </trkpt>
      <trkpt lat="9.0183953" lon="38.7476502">
        <ele>2397.447265625</ele>
      </trkpt>
      <trkpt lat="9.0184549" lon="38.7476302">
        <ele>2397.1044921875</ele>
      </trkpt>
      <trkpt lat="9.0185145" lon="38.7476103">
        <ele>2397.001953125</ele>
      </trkpt>
      <trkpt lat="9.0185741" lon="38.7475903">
        <ele>2397.21533203125</ele>
      </trkpt>
      <trkpt lat="9.0186337" lon="38.7475704">
        <ele>2397.3095703125</ele>
      </trkpt>
      <trkpt lat="9.0185717" lon="38.7475805">
        <ele>2397.566162109375</ele>
      </trkpt>
      <trkpt lat="9.0185097" lon="38.7475906">
        <ele>2397.61083984375</ele>
      </trkpt>
      <trkpt lat="9.0184477" lon="38.7476007">
        <ele>2397.9296875</ele>
      </trkpt>
      <trkpt lat="9.0183857" lon="38.7476108">
        <ele>2397.6884765625</ele>
      </trkpt>
      <trkpt lat="9.0183237" lon="38.7476209">
        <ele>2397.5458984375</ele>
      </trkpt>
      <trkpt lat="9.0182618" lon="38.747631">
        <ele>2397.221923828125</ele>
      </trkpt>
      <trkpt lat="9.0183237" lon="38.7476411">
        <ele>2397.52392578125</ele>
      </trkpt>
      <trkpt lat="9.0183857" lon="38.7476512">
        <ele>2397.716064453125</ele>
      </trkpt>
      <trkpt lat="9.0184477" lon="38.7476613">
        <ele>2397.515869140625</ele>
      </trkpt>
      <trkpt lat="9.0185097" lon="38.7476714">
        <ele>2397.38525390625</ele>
      </trkpt>
      <trkpt lat="9.0185717" lon="38.7476815">
        <ele>2397.42236328125</ele>
      </trkpt>
      <trkpt lat="9.0186337" lon="38.7476916">
        <ele>2397.67822265625</ele>
      </trkpt>
      <trkpt lat="9.0185717" lon="38.7476815">
        <ele>2397.5498046875</ele>
      </trkpt>
      <trkpt lat="9.0185097" lon="38.7476714">
        <ele>2397.722412109375</ele>
      </trkpt>
      <trkpt lat="9.0184477" lon="38.7476613">
        <ele>2398.078125</ele>
      </trkpt>
      <trkpt lat="9.0183857" lon="38.7476512">
        <ele>2397.683837890625</ele>
      </trkpt>
      <trkpt lat="9.0183237" lon="38.7476411">
        <ele>2397.402587890625</ele>
      </trkpt>
      <trkpt lat="9.0182618" lon="38.747631">
        <ele>2397.237060546875</ele>
      </trkpt>
      <trkpt lat="9.0181998" lon="38.7476209">
        <ele>2396.91357421875</ele>
      </trkpt>
      <trkpt lat="9.0181378" lon="38.7476108">
        <ele>2397.090576171875</ele>
      </trkpt>
      <trkpt lat="9.0180758" lon="38.7476007">
        <ele>2396.9912109375</ele>
      </trkpt>
      <trkpt lat="9.0180138" lon="38.7475906">
        <ele>2396.722900390625</ele>
      </trkpt>
      <trkpt lat="9.0179518" lon="38.7475805">
        <ele>2396.449462890625</ele>
      </trkpt>
      <trkpt lat="9.0179619" lon="38.7476429">
        <ele>2396.5556640625</ele>
      </trkpt>
      <trkpt lat="9.0179719" lon="38.7477052">
        <ele>2396.279052734375</ele>
      </trkpt>
      <trkpt lat="9.0179819" lon="38.7477676">
        <ele>2396.078369140625</ele>
      </trkpt>
      <trkpt lat="9.017992" lon="38.7478299">
        <ele>2395.733154296875</ele>
      </trkpt>
      <trkpt lat="9.018002" lon="38.7478923">
        <ele>2395.9580078125</ele>
      </trkpt>
      <trkpt lat="9.0180121" lon="38.7479546">
        <ele>2396.044677734375</ele>
      </trkpt>
      <trkpt lat="9.0180741" lon="38.7479445">
        <ele>2395.755859375</ele>
      </trkpt>
      <trkpt lat="9.018136" lon="38.7479344">
        <ele>2395.376953125</ele>
      </trkpt>
      <trkpt lat="9.018198" lon="38.7479243">
        <ele>2395.340576171875</ele>
      </trkpt>
      <trkpt lat="9.01826" lon="38.7479142">
        <ele>2395.610595703125</ele>
      </trkpt>
      <trkpt lat="9.018322" lon="38.7479041">
        <ele>2395.562744140625</ele>
      </trkpt>
      <trkpt lat="9.018384" lon="38.747894">
        <ele>2395.745849609375</ele>
      </trkpt>
      <trkpt lat="9.018322" lon="38.7478839">
        <ele>2395.641845703125</ele>
      </trkpt>
      <trkpt lat="9.01826" lon="38.7478738">
        <ele>2395.95458984375</ele>
      </trkpt>
      <trkpt lat="9.018198" lon="38.7478637">
        <ele>2395.865234375</ele>
      </trkpt>
      <trkpt lat="9.018136" lon="38.7478536">
        <ele>2396.130859375</ele>
      </trkpt>
      <trkpt lat="9.0180741" lon="38.7478435">
        <ele>2395.876220703125</ele>
      </trkpt>
      <trkpt lat="9.0180121" lon="38.7478334">
        <ele>2395.733154296875</ele>
      </trkpt>
      <trkpt lat="9.0179501" lon="38.7478233">
        <ele>2395.76318359375</ele>
      </trkpt>
      <trkpt lat="9.0178881" lon="38.7478132">
        <ele>2396.14794921875</ele>
      </trkpt>
      <trkpt lat="9.0179501" lon="38.7478031">
        <ele>2395.83837890625</ele>
      </trkpt>
      <trkpt lat="9.0180121" lon="38.747793">
        <ele>2396.16552734375</ele>
      </trkpt>
      <trkpt lat="9.0180741" lon="38.7477829">
        <ele>2396.22802734375</ele>
      </trkpt>
      <trkpt lat="9.018136" lon="38.7477728">
        <ele>2395.8896484375</ele>
      </trkpt>
      <trkpt lat="9.018198" lon="38.7477627">
        <ele>2395.8232421875</ele>
      </trkpt>
      <trkpt lat="9.01826" lon="38.7477526">
        <ele>2396.183349609375</ele>
      </trkpt>
      <trkpt lat="9.018322" lon="38.7477425">
        <ele>2396.26025390625</ele>
      </trkpt>
      <trkpt lat="9.018384" lon="38.7477324">
        <ele>2396.36865234375</ele>
      </trkpt>
      <trkpt lat="9.018446" lon="38.7477223">
        <ele>2396.72900390625</ele>
      </trkpt>
      <trkpt lat="9.0185079" lon="38.7477122">
        <ele>2396.712158203125</ele>
      </trkpt>
      <trkpt lat="9.0185699" lon="38.7477021">
        <ele>2396.3369140625</ele>
      </trkpt>
      <trkpt lat="9.0185079" lon="38.747692">
        <ele>2396.261474609375</ele>
      </trkpt>
      <trkpt lat="9.018446" lon="38.7476819">
        <ele>2396.439453125</ele>
      </trkpt>
      <trkpt lat="9.018384" lon="38.7476718">
        <ele>2396.591064453125</ele>
      </trkpt>
      <trkpt lat="9.018322" lon="38.7476617">
        <ele>2396.81689453125</ele>
      </trkpt>
      <trkpt lat="9.01826" lon="38.7476517">
        <ele>2396.635009765625</ele>
      </trkpt>
      <trkpt lat="9.018198" lon="38.7476416">
        <ele>2396.939453125</ele>
      </trkpt>
      <trkpt lat="9.018136" lon="38.7476315">
        <ele>2397.085693359375</ele>
      </trkpt>
      <trkpt lat="9.0181631" lon="38.7476884">
        <ele>2397.439453125</ele>
      </trkpt>
      <trkpt lat="9.0181903" lon="38.7477454">
        <ele>2397.713623046875</ele>
      </trkpt>
      <trkpt lat="9.0182174" lon="38.7478024">
        <ele>2398.023681640625</ele>
      </trkpt>
      <trkpt lat="9.0182445" lon="38.7478593">
        <ele>2397.714111328125</ele>
      </trkpt>
      <trkpt lat="9.0182716" lon="38.7479163">
        <ele>2397.530029296875</ele>
      </trkpt>
      <trkpt lat="9.0182987" lon="38.7479733">
        <ele>2397.40185546875</ele>
      </trkpt>
      <trkpt lat="9.0183258" lon="38.7480303">
        <ele>2397.493408203125</ele>
      </trkpt>
      <trkpt lat="9.0183158" lon="38.7479679">
        <ele>2397.312255859375</ele>
      </trkpt>
      <trkpt lat="9.0183057" lon="38.7479056">
        <ele>2397.060546875</ele>
      </trkpt>
      <trkpt lat="9.0182957" lon="38.7478432">
        <ele>2397.3310546875</ele>
      </trkpt>
      <trkpt lat="9.0182857" lon="38.7477809">
        <ele>2397.2333984375</ele>
      </trkpt>
      <trkpt lat="9.0182756" lon="38.7477185">
        <ele>2396.859130859375</ele>
      </trkpt>
      <trkpt lat="9.0182656" lon="38.7476562">
        <ele>2397.00732421875</ele>
      </trkpt>
      <trkpt lat="9.0182555" lon="38.7475938">
        <ele>2397.0654296875</ele>
      </trkpt>
      <trkpt lat="9.0182455" lon="38.7475315">
        <ele>2397.220703125</ele>
      </trkpt>
      <trkpt lat="9.0182355" lon="38.7474691">
        <ele>2397.263671875</ele>
      </trkpt>
      <trkpt lat="9.0182799" lon="38.7475138">
        <ele>2396.954833984375</ele>
      </trkpt>
      <trkpt lat="9.0183243" lon="38.7475584">
        <ele>2396.890625</ele>
      </trkpt>
      <trkpt lat="9.0183687" lon="38.7476031">
        <ele>2397.16455078125</ele>
      </trkpt>
      <trkpt lat="9.0184131" lon="38.7476478">
        <ele>2397.007080078125</ele>
      </trkpt>
      <trkpt lat="9.0184575" lon="38.7476924">
        <ele>2397.326416015625</ele>
      </trkpt>
      <trkpt lat="9.0185019" lon="38.7477371">
        <ele>2397.43310546875</ele>
      </trkpt>
      <trkpt lat="9.0185463" lon="38.7477817">
        <ele>2397.286376953125</ele>
      </trkpt>
      <trkpt lat="9.0184843" lon="38.7477716">
        <ele>2397.02587890625</ele>
      </trkpt>
      <trkpt lat="9.0184223" lon="38.7477615">
        <ele>2397.09326171875</ele>
      </trkpt>
      <trkpt lat="9.0183603" lon="38.7477514">
        <ele>2397.17822265625</ele>
      </trkpt>
      <trkpt lat="9.0182983" lon="38.7477413">
        <ele>2397.310302734375</ele>
      </trkpt>
      <trkpt lat="9.0182363" lon="38.7477313">
        <ele>2397.66162109375</ele>
      </trkpt>
      <trkpt lat="9.0181744" lon="38.7477212">
        <ele>2397.546875</ele>
      </trkpt>
      <trkpt lat="9.0181124" lon="38.7477111">
        <ele>2397.71630859375</ele>
      </trkpt>
      <trkpt lat="9.0180504" lon="38.747701">
        <ele>2397.50537109375</ele>
      </trkpt>
      <trkpt lat="9.0179884" lon="38.7476909">
        <ele>2397.3837890625</ele>
      </trkpt>
      <trkpt lat="9.0179264" lon="38.7476808">
        <ele>2397.733154296875</ele>
      </trkpt>
      <trkpt lat="9.0178644" lon="38.7476707">
        <ele>2398.08203125</ele>
      </trkpt>
      <trkpt lat="9.0179264" lon="38.7476808">
        <ele>2398.24560546875</ele>
      </trkpt>
      <trkpt lat="9.0179884" lon="38.7476909">
        <ele>2397.9736328125</ele>
      </trkpt>
      <trkpt lat="9.0180504" lon="38.747701">
        <ele>2397.6181640625</ele>
      </trkpt>
      <trkpt lat="9.0181124" lon="38.7477111">
        <ele>2397.578857421875</ele>
      </trkpt>
      <trkpt lat="9.0181744" lon="38.7477212">
        <ele>2397.606201171875</ele>
      </trkpt>
      <trkpt lat="9.0182363" lon="38.7477313">
        <ele>2397.540771484375</ele>
      </trkpt>
      <trkpt lat="9.0182983" lon="38.7477413">
        <ele>2397.618896484375</ele>
      </trkpt>
      <trkpt lat="9.0182447" lon="38.7477743">
        <ele>2397.683349609375</ele>
      </trkpt>
      <trkpt lat="9.0181911" lon="38.7478072">
        <ele>2397.2880859375</ele>
      </trkpt>
      <trkpt lat="9.0181376" lon="38.7478401">
        <ele>2397.343017578125</ele>
      </trkpt>
      <trkpt lat="9.018084" lon="38.747873">
        <ele>2397.090087890625</ele>
      </trkpt>
      <trkpt lat="9.0180304" lon="38.7479059">
        <ele>2397.4189453125</ele>
      </trkpt>
      <trkpt lat="9.0179768" lon="38.7479388">
        <ele>2397.779541015625</ele>
      </trkpt>
      <trkpt lat="9.0179232" lon="38.7479718">
        <ele>2397.49853515625</ele>
      </trkpt>
      <trkpt lat="9.0178696" lon="38.7480047">
        <ele>2397.465576171875</ele>
      </trkpt>
      <trkpt lat="9.017816" lon="38.7480376">
        <ele>2397.853759765625</ele>
      </trkpt>
      <trkpt lat="9.017826" lon="38.7479752">
        <ele>2397.97802734375</ele>
      </trkpt>
      <trkpt lat="9.0178361" lon="38.7479129">
        <ele>2397.938232421875</ele>
      </trkpt>
      <trkpt lat="9.0178461" lon="38.7478505">
        <ele>2397.9609375</ele>
      </trkpt>
      <trkpt lat="9.0178562" lon="38.7477882">
        <ele>2397.921142578125</ele>
      </trkpt>
      <trkpt lat="9.0178662" lon="38.7477258">
        <ele>2397.56005859375</ele>
      </trkpt>
      <trkpt lat="9.0178762" lon="38.7476635">
        <ele>2397.651123046875</ele>
      </trkpt>
      <trkpt lat="9.0178863" lon="38.7476011">
        <ele>2397.63818359375</ele>
      </trkpt>
      <trkpt lat="9.0179483" lon="38.7476112">
        <ele>2397.665283203125</ele>
      </trkpt>
      <trkpt lat="9.0180102" lon="38.7476213">
        <ele>2397.525390625</ele>
      </trkpt>
      <trkpt lat="9.0180722" lon="38.7476314">
        <ele>2397.508544921875</ele>
      </trkpt>
      <trkpt lat="9.0181342" lon="38.7476415">
        <ele>2397.314208984375</ele>
      </trkpt>
      <trkpt lat="9.0181962" lon="38.7476516">
        <ele>2397.01513671875</ele>
      </trkpt>
      <trkpt lat="9.0182582" lon="38.7476617">
        <ele>2397.1748046875</ele>
      </trkpt>
      <trkpt lat="9.0183202" lon="38.7476718">
        <ele>2397.271728515625</ele>
      </trkpt>
      <trkpt lat="9.0182582" lon="38.7476617">
        <ele>2397.070068359375</ele>
      </trkpt>
      <trkpt lat="9.0181962" lon="38.7476516">
        <ele>2397.212890625</ele>
      </trkpt>
      <trkpt lat="9.0181342" lon="38.7476415">
        <ele>2397.458984375</ele>
      </trkpt>
      <trkpt lat="9.0180722" lon="38.7476314">
        <ele>2397.475341796875</ele>
      </trkpt>
      <trkpt lat="9.0180102" lon="38.7476213">
        <ele>2397.6044921875</ele>
      </trkpt>
      <trkpt lat="9.0179483" lon="38.7476112">
        <ele>2397.622802734375</ele>
      </trkpt>
      <trkpt lat="9.0178863" lon="38.7476011">
        <ele>2397.77880859375</ele>
      </trkpt>
      <trkpt lat="9.0178243" lon="38.747591">
        <ele>2397.896240234375</ele>
      </trkpt>
      <trkpt lat="9.0178863" lon="38.7476011">
        <ele>2397.682373046875</ele>
      </trkpt>
      <trkpt lat="9.0179483" lon="38.7476112">
        <ele>2397.401611328125</ele>
      </trkpt>
      <trkpt lat="9.0180102" lon="38.7476213">
        <ele>2397.566162109375</ele>
      </trkpt>
      <trkpt lat="9.0180722" lon="38.7476314">
        <ele>2397.283203125</ele>
      </trkpt>
      <trkpt lat="9.0181342" lon="38.7476415">
        <ele>2397.40185546875</ele>
      </trkpt>
      <trkpt lat="9.0181962" lon="38.7476516">
        <ele>2397.524658203125</ele>
      </trkpt>
      <trkpt lat="9.0182043" lon="38.7477143">
        <ele>2397.128173828125</ele>
      </trkpt>
      <trkpt lat="9.0182124" lon="38.7477769">
        <ele>2397.03173828125</ele>
      </trkpt>
      <trkpt lat="9.0182205" lon="38.7478395">
        <ele>2396.750244140625</ele>
      </trkpt>
      <trkpt lat="9.0182286" lon="38.7479022">
        <ele>2396.360595703125</ele>
      </trkpt>
      <trkpt lat="9.0182367" lon="38.7479648">
        <ele>2396.067626953125</ele>
      </trkpt>
      <trkpt lat="9.0182448" lon="38.7480274">
        <ele>2396.421142578125</ele>
      </trkpt>
      <trkpt lat="9.0182548" lon="38.7479651">
        <ele>2396.629150390625</ele>
      </trkpt>
      <trkpt lat="9.0182648" lon="38.7479027">
        <ele>2396.912353515625</ele>
      </trkpt>
      <trkpt lat="9.0182749" lon="38.7478404">
        <ele>2396.735107421875</ele>
      </trkpt>
      <trkpt lat="9.0182849" lon="38.747778">
        <ele>2396.507568359375</ele>
      </trkpt>
      <trkpt lat="9.018295" lon="38.7477157">
        <ele>2396.802978515625</ele>
      </trkpt>
      <trkpt lat="9.018305" lon="38.7476533">
        <ele>2397.0458984375</ele>
      </trkpt>
      <trkpt lat="9.018315" lon="38.747591">
        <ele>2396.891357421875</ele>
      </trkpt>
      <trkpt lat="9.018305" lon="38.7476533">
        <ele>2396.979248046875</ele>
      </trkpt>
      <trkpt lat="9.018295" lon="38.7477157">
        <ele>2396.85986328125</ele>
      </trkpt>
      <trkpt lat="9.0182849" lon="38.747778">
        <ele>2396.855712890625</ele>
      </trkpt>
      <trkpt lat="9.0182749" lon="38.7478404">
        <ele>2397.24560546875</ele>
      </trkpt>
      <trkpt lat="9.0182648" lon="38.7479027">
        <ele>2396.948486328125</ele>
      </trkpt>
      <trkpt lat="9.0182548" lon="38.7479651">
        <ele>2397.16552734375</ele>
      </trkpt>
      <trkpt lat="9.0182448" lon="38.7480274">
        <ele>2397.177978515625</ele>
      </trkpt>
      <trkpt lat="9.0182548" lon="38.7479651">
        <ele>2397.39794921875</ele>
      </trkpt>
      <trkpt lat="9.0182648" lon="38.7479027">
        <ele>2397.636962890625</ele>
      </trkpt>
      <trkpt lat="9.0182749" lon="38.7478404">
        <ele>2397.6328125</ele>
      </trkpt>
      <trkpt lat="9.0182849" lon="38.747778">
        <ele>2397.397216796875</ele>
      </trkpt>
      <trkpt lat="9.018295" lon="38.7477157">
        <ele>2397.304931640625</ele>
      </trkpt>
      <trkpt lat="9.018305" lon="38.7476533">
        <ele>2397.448486328125</ele>
      </trkpt>
      <trkpt lat="9.018315" lon="38.747591">
        <ele>2397.488525390625</ele>
      </trkpt>
      <trkpt lat="9.0183251" lon="38.7475286">
        <ele>2397.3330078125</ele>
      </trkpt>
      <trkpt lat="9.0183351" lon="38.7474663">
        <ele>2396.98046875</ele>
      </trkpt>
      <trkpt lat="9.0183251" lon="38.7475286">
        <ele>2396.838623046875</ele>
      </trkpt>
      <trkpt lat="9.018315" lon="38.747591">
        <ele>2397.00244140625</ele>
      </trkpt>
      <trkpt lat="9.018305" lon="38.7476533">
        <ele>2396.71240234375</ele>
      </trkpt>
      <trkpt lat="9.018295" lon="38.7477157">
        <ele>2396.4150390625</ele>
      </trkpt>
      <trkpt lat="9.0182849" lon="38.747778">
        <ele>2396.08203125</ele>
      </trkpt>
      <trkpt lat="9.0182749" lon="38.7478404">
        <ele>2396.38037109375</ele>
      </trkpt>
      <trkpt lat="9.0182648" lon="38.7479027">
        <ele>2396.576904296875</ele>
      </trkpt>
      <trkpt lat="9.0182029" lon="38.7478926">
        <ele>2396.78125</ele>
      </trkpt>
      <trkpt lat="9.0181409" lon="38.7478825">
        <ele>2396.567626953125</ele>
      </trkpt>
      <trkpt lat="9.0180789" lon="38.7478725">
        <ele>2396.3642578125</ele>
      </trkpt>
      <trkpt lat="9.0180169" lon="38.7478624">
        <ele>2396.760986328125</ele>
      </trkpt>
      <trkpt lat="9.0179549" lon="38.7478523">
        <ele>2396.63623046875</ele>
      </trkpt>
      <trkpt lat="9.0178929" lon="38.7478422">
        <ele>2397.033203125</ele>
      </trkpt>
      <trkpt lat="9.0179549" lon="38.7478321">
        <ele>2396.710693359375</ele>
      </trkpt>
      <trkpt lat="9.0180169" lon="38.747822">
        <ele>2396.956787109375</ele>
      </trkpt>
      <trkpt lat="9.0180789" lon="38.7478119">
        <ele>2396.71826171875</ele>
      </trkpt>
      <trkpt lat="9.0181409" lon="38.7478018">
        <ele>2396.489990234375</ele>
      </trkpt>
      <trkpt lat="9.0182029" lon="38.7477917">
        <ele>2396.817138671875</ele>
      </trkpt>
      <trkpt lat="9.0182648" lon="38.7477816">
        <ele>2397.086181640625</ele>
      </trkpt>
      <trkpt lat="9.0183268" lon="38.7477715">
        <ele>2397.1181640625</ele>
      </trkpt>
      <trkpt lat="9.0183888" lon="38.7477614">
        <ele>2397.218994140625</ele>
      </trkpt>
      <trkpt lat="9.0184508" lon="38.7477513">
        <ele>2397.365234375</ele>
      </trkpt>
      <trkpt lat="9.0185128" lon="38.7477412">
        <ele>2397.436767578125</ele>
      </trkpt>
      <trkpt lat="9.0185748" lon="38.7477311">
        <ele>2397.70166015625</ele>
      </trkpt>
      <trkpt lat="9.0185128" lon="38.747721">
        <ele>2397.818603515625</ele>
      </trkpt>
      <trkpt lat="9.0184508" lon="38.7477109">
        <ele>2397.4462890625</ele>
      </trkpt>
      <trkpt lat="9.0183888" lon="38.7477008">
        <ele>2397.15625</ele>
      </trkpt>
      <trkpt lat="9.0183268" lon="38.7476907">
        <ele>2397.10205078125</ele>
      </trkpt>
      <trkpt lat="9.0182648" lon="38.7476806">
        <ele>2396.798095703125</ele>
      </trkpt>
      <trkpt lat="9.0182029" lon="38.7476705">
        <ele>2396.896484375</ele>
      </trkpt>
      <trkpt lat="9.0181409" lon="38.7476604">
        <ele>2397.08154296875</ele>
      </trkpt>
      <trkpt lat="9.0180789" lon="38.7476503">
        <ele>2396.889892578125</ele>
      </trkpt>
      <trkpt lat="9.0180169" lon="38.7476402">
        <ele>2397.134033203125</ele>
      </trkpt>
      <trkpt lat="9.0179549" lon="38.7476301">
        <ele>2397.4794921875</ele>
      </trkpt>
      <trkpt lat="9.0178929" lon="38.74762">
        <ele>2397.84228515625</ele>
      </trkpt>
      <trkpt lat="9.0179549" lon="38.7476099">
        <ele>2398.1953125</ele>
      </trkpt>
      <trkpt lat="9.0180169" lon="38.7475998">
        <ele>2397.947265625</ele>
      </trkpt>
      <trkpt lat="9.0180789" lon="38.7475897">
        <ele>2398.27880859375</ele>
      </trkpt>
      <trkpt lat="9.0181409" lon="38.7475796">
        <ele>2398.14453125</ele>
      </trkpt>
      <trkpt lat="9.0182029" lon="38.7475695">
        <ele>2398.199462890625</ele>
      </trkpt>
      <trkpt lat="9.0182648" lon="38.7475594">
        <ele>2398.314208984375</ele>
      </trkpt>
      <trkpt lat="9.0183268" lon="38.7475493">
        <ele>2398.41748046875</ele>
      </trkpt>
      <trkpt lat="9.0183888" lon="38.7475392">
        <ele>2398.54150390625</ele>
      </trkpt>
      <trkpt lat="9.0184508" lon="38.7475291">
        <ele>2398.434326171875</ele>
      </trkpt>
      <trkpt lat="9.0185128" lon="38.747519">
        <ele>2398.567138671875</ele>
      </trkpt>
      <trkpt lat="9.0185748" lon="38.7475089">
        <ele>2398.3486328125</ele>
      </trkpt>
      <trkpt lat="9.0185128" lon="38.747519">
        <ele>2398.1669921875</ele>
      </trkpt>
      <trkpt lat="9.0184508" lon="38.7475291">
        <ele>2398.51025390625</ele>
      </trkpt>
      <trkpt lat="9.0183888" lon="38.7475392">
        <ele>2398.1123046875</ele>
      </trkpt>
      <trkpt lat="9.0183268" lon="38.7475493">
        <ele>2397.945556640625</ele>
      </trkpt>
      <trkpt lat="9.0182648" lon="38.7475594">
        <ele>2398.140380859375</ele>
      </trkpt>
      <trkpt lat="9.0182029" lon="38.7475695">
        <ele>2398.143798828125</ele>
      </trkpt>
      <trkpt lat="9.0181409" lon="38.7475796">
        <ele>2397.900146484375</ele>
      </trkpt>
      <trkpt lat="9.0180789" lon="38.7475897">
        <ele>2397.548095703125</ele>
      </trkpt>
      <trkpt lat="9.0180169" lon="38.7475998">
        <ele>2397.946044921875</ele>
      </trkpt>
      <trkpt lat="9.018027" lon="38.7476621">
        <ele>2398.267578125</ele>
      </trkpt>
      <trkpt lat="9.018037" lon="38.7477245">
        <ele>2397.911865234375</ele>
      </trkpt>
      <trkpt lat="9.018047" lon="38.7477868">
        <ele>2398.299560546875</ele>
      </trkpt>
      <trkpt lat="9.0180571" lon="38.7478492">
        <ele>2397.993896484375</ele>
      </trkpt>
      <trkpt lat="9.0180671" lon="38.7479115">
        <ele>2398.285400390625</ele>
      </trkpt>
      <trkpt lat="9.0180771" lon="38.7479739">
        <ele>2398.181396484375</ele>
      </trkpt>
      <trkpt lat="9.0180872" lon="38.7480362">
        <ele>2398.23291015625</ele>
      </trkpt>
      <trkpt lat="9.0181316" lon="38.7479916">
        <ele>2398.244873046875</ele>
      </trkpt>
      <trkpt lat="9.018176" lon="38.7479469">
        <ele>2398.08251953125</ele>
      </trkpt>
      <trkpt lat="9.0182204" lon="38.7479023">
        <ele>2397.925048828125</ele>
      </trkpt>
      <trkpt lat="9.0182648" lon="38.7478576">
        <ele>2398.193603515625</ele>
      </trkpt>
      <trkpt lat="9.0183092" lon="38.7478129">
        <ele>2398.42236328125</ele>
      </trkpt>
      <trkpt lat="9.0183536" lon="38.7477683">
        <ele>2398.11279296875</ele>
      </trkpt>
      <trkpt lat="9.018398" lon="38.7477236">
        <ele>2398.2314453125</ele>
      </trkpt>
      <trkpt lat="9.0184424" lon="38.7476789">
        <ele>2398.437744140625</ele>
      </trkpt>
      <trkpt lat="9.0184868" lon="38.7476343">
        <ele>2398.268798828125</ele>
      </trkpt>
      <trkpt lat="9.0185312" lon="38.7475896">
        <ele>2398.078857421875</ele>
      </trkpt>
      <trkpt lat="9.0185756" lon="38.747545">
        <ele>2397.84375</ele>
      </trkpt>
      <trkpt lat="9.01862" lon="38.7475003">
        <ele>2397.81787109375</ele>
      </trkpt>
      <trkpt lat="9.018558" lon="38.7475104">
        <ele>2397.56494140625</ele>
      </trkpt>
      <trkpt lat="9.018496" lon="38.7475205">
        <ele>2397.5361328125</ele>
      </trkpt>
      <trkpt lat="9.018434" lon="38.7475306">
        <ele>2397.151611328125</ele>
      </trkpt>
      <trkpt lat="9.0183721" lon="38.7475407">
        <ele>2397.128173828125</ele>
      </trkpt>
      <trkpt lat="9.0183101" lon="38.7475508">
        <ele>2396.806884765625</ele>
      </trkpt>
      <trkpt lat="9.0182481" lon="38.7475609">
        <ele>2396.69873046875</ele>
      </trkpt>
      <trkpt lat="9.0181861" lon="38.747571">
        <ele>2396.467041015625</ele>
      </trkpt>
      <trkpt lat="9.0181241" lon="38.7475811">
        <ele>2396.267822265625</ele>
      </trkpt>
      <trkpt lat="9.0181861" lon="38.7475912">
        <ele>2396.21728515625</ele>
      </trkpt>
      <trkpt lat="9.0182481" lon="38.7476013">
        <ele>2396.036865234375</ele>
      </trkpt>
      <trkpt lat="9.0183101" lon="38.7476114">
        <ele>2396.212158203125</ele>
      </trkpt>
      <trkpt lat="9.0183721" lon="38.7476215">
        <ele>2395.974365234375</ele>
      </trkpt>
      <trkpt lat="9.018434" lon="38.7476316">
        <ele>2396.1943359375</ele>
      </trkpt>
      <trkpt lat="9.018496" lon="38.7476417">
        <ele>2396.474609375</ele>
      </trkpt>
      <trkpt lat="9.018434" lon="38.7476518">
        <ele>2396.143798828125</ele>
      </trkpt>
      <trkpt lat="9.0183721" lon="38.7476619">
        <ele>2396.180908203125</ele>
      </trkpt>
      <trkpt lat="9.0183101" lon="38.747672">
        <ele>2395.98828125</ele>
      </trkpt>
      <trkpt lat="9.0182481" lon="38.7476821">
        <ele>2395.77294921875</ele>
      </trkpt>
      <trkpt lat="9.0181861" lon="38.7476922">
        <ele>2395.412109375</ele>
      </trkpt>
      <trkpt lat="9.0181241" lon="38.7477023">
        <ele>2395.11376953125</ele>
      </trkpt>
      <trkpt lat="9.0180621" lon="38.7477124">
        <ele>2395.484130859375</ele>
      </trkpt>
      <trkpt lat="9.0181241" lon="38.7477023">
        <ele>2395.4990234375</ele>
      </trkpt>
      <trkpt lat="9.0181861" lon="38.7476922">
        <ele>2395.23779296875</ele>
      </trkpt>
      <trkpt lat="9.0182481" lon="38.7476821">
        <ele>2395.4775390625</ele>
      </trkpt>
      <trkpt lat="9.0183101" lon="38.747672">
        <ele>2395.8232421875</ele>
      </trkpt>
      <trkpt lat="9.0183721" lon="38.7476619">
        <ele>2395.82373046875</ele>
      </trkpt>
      <trkpt lat="9.018434" lon="38.7476518">
        <ele>2395.5390625</ele>
      </trkpt>
      <trkpt lat="9.018496" lon="38.7476417">
        <ele>2395.533935546875</ele>
      </trkpt>
      <trkpt lat="9.018558" lon="38.7476316">
        <ele>2395.765625</ele>
      </trkpt>
      <trkpt lat="9.018496" lon="38.7476417">
        <ele>2395.77978515625</ele>
      </trkpt>
      <trkpt lat="9.018434" lon="38.7476518">
        <ele>2395.60107421875</ele>
      </trkpt>
      <trkpt lat="9.0183721" lon="38.7476619">
        <ele>2395.547119140625</ele>
      </trkpt>
      <trkpt lat="9.0183101" lon="38.747672">
        <ele>2395.689697265625</ele>
      </trkpt>
      <trkpt lat="9.0182481" lon="38.7476821">
        <ele>2395.29736328125</ele>
      </trkpt>
      <trkpt lat="9.0181861" lon="38.7476922">
        <ele>2395.213623046875</ele>
      </trkpt>
      <trkpt lat="9.0181241" lon="38.7477023">
        <ele>2395.39306640625</ele>
      </trkpt>
      <trkpt lat="9.0180621" lon="38.7477124">
        <ele>2395.665771484375</ele>
      </trkpt>
      <trkpt lat="9.0181241" lon="38.7477225">
        <ele>2395.865234375</ele>
      </trkpt>
      <trkpt lat="9.0181861" lon="38.7477326">
        <ele>2396.047119140625</ele>
      </trkpt>
      <trkpt lat="9.0182481" lon="38.7477427">
        <ele>2395.691162109375</ele>
      </trkpt>
      <trkpt lat="9.0183101" lon="38.7477528">
        <ele>2395.691650390625</ele>
      </trkpt>
      <trkpt lat="9.0183721" lon="38.7477629">
        <ele>2395.375244140625</ele>
      </trkpt>
      <trkpt lat="9.018434" lon="38.7477729">
        <ele>2395.4609375</ele>
      </trkpt>
      <trkpt lat="9.018496" lon="38.747783">
        <ele>2395.237060546875</ele>
      </trkpt>
      <trkpt lat="9.0184336" lon="38.7477899">
        <ele>2395.50732421875</ele>
      </trkpt>
      <trkpt lat="9.0183712" lon="38.7477967">
        <ele>2395.5673828125</ele>
      </trkpt>
      <trkpt lat="9.0183087" lon="38.7478035">
        <ele>2395.829345703125</ele>
      </trkpt>
      <trkpt lat="9.0182463" lon="38.7478103">
        <ele>2395.884765625</ele>
      </trkpt>
      <trkpt lat="9.0181839" lon="38.7478171">
        <ele>2395.69580078125</ele>
      </trkpt>
      <trkpt lat="9.0181215" lon="38.7478239">
        <ele>2395.659423828125</ele>
      </trkpt>
      <trkpt lat="9.018059" lon="38.7478307">
        <ele>2395.309814453125</ele>
      </trkpt>
      <trkpt lat="9.0179966" lon="38.7478375">
        <ele>2395.39404296875</ele>
      </trkpt>
      <trkpt lat="9.0179342" lon="38.7478443">
        <ele>2395.142578125</ele>
      </trkpt>
      <trkpt lat="9.0178718" lon="38.7478511">
        <ele>2395.435791015625</ele>
      </trkpt>
      <trkpt lat="9.0178818" lon="38.7477887">
        <ele>2395.528564453125</ele>
      </trkpt>
      <trkpt lat="9.0178918" lon="38.7477264">
        <ele>2395.75439453125</ele>
      </trkpt>
      <trkpt lat="9.0179019" lon="38.747664">
        <ele>2395.499267578125</ele>
      </trkpt>
      <trkpt lat="9.0179119" lon="38.7476017">
        <ele>2395.197509765625</ele>
      </trkpt>
      <trkpt lat="9.017922" lon="38.7475393">
        <ele>2395.456298828125</ele>
      </trkpt>
      <trkpt lat="9.017932" lon="38.747477">
        <ele>2395.2626953125</ele>
      </trkpt>
      <trkpt lat="9.017942" lon="38.7475393">
        <ele>2395.3134765625</ele>
      </trkpt>
      <trkpt lat="9.0179521" lon="38.7476017">
        <ele>2395.5556640625</ele>
      </trkpt>
      <trkpt lat="9.0179621" lon="38.747664">
        <ele>2395.947265625</ele>
      </trkpt>
      <trkpt lat="9.0179722" lon="38.7477264">
        <ele>2395.975830078125</ele>
      </trkpt>
      <trkpt lat="9.0179822" lon="38.7477887">
        <ele>2396.190673828125</ele>
      </trkpt>
      <trkpt lat="9.0179922" lon="38.7478511">
        <ele>2395.793701171875</ele>
      </trkpt>
      <trkpt lat="9.0180023" lon="38.7479134">
        <ele>2396.061279296875</ele>
      </trkpt>
      <trkpt lat="9.0180123" lon="38.7479758">
        <ele>2395.716552734375</ele>
      </trkpt>
      <trkpt lat="9.0180223" lon="38.7480381">
        <ele>2395.62109375</ele>
      </trkpt>
      <trkpt lat="9.0180123" lon="38.7479758">
        <ele>2395.96435546875</ele>
      </trkpt>
      <trkpt lat="9.0180023" lon="38.7479134">
        <ele>2395.9111328125</ele>
      </trkpt>
      <trkpt lat="9.0179922" lon="38.7478511">
        <ele>2396.203857421875</ele>
      </trkpt>
      <trkpt lat="9.0179822" lon="38.7477887">
        <ele>2396.0205078125</ele>
      </trkpt>
      <trkpt lat="9.0179722" lon="38.7477264">
        <ele>2395.80078125</ele>
      </trkpt>
      <trkpt lat="9.0179621" lon="38.747664">
        <ele>2395.5830078125</ele>
      </trkpt>
      <trkpt lat="9.0180241" lon="38.7476741">
        <ele>2395.618408203125</ele>
      </trkpt>
      <trkpt lat="9.0180861" lon="38.7476842">
        <ele>2395.390380859375</ele>
      </trkpt>
      <trkpt lat="9.0181481" lon="38.7476943">
        <ele>2395.725830078125</ele>
      </trkpt>
      <trkpt lat="9.01821" lon="38.7477044">
        <ele>2396.107666015625</ele>
      </trkpt>
      <trkpt lat="9.018272" lon="38.7477145">
        <ele>2395.894775390625</ele>
      </trkpt>
      <trkpt lat="9.018334" lon="38.7477246">
        <ele>2395.635986328125</ele>
      </trkpt>
      <trkpt lat="9.018396" lon="38.7477347">
        <ele>2395.828857421875</ele>
      </trkpt>
      <trkpt lat="9.018458" lon="38.7477448">
        <ele>2395.807861328125</ele>
      </trkpt>
      <trkpt lat="9.01852" lon="38.7477549">
        <ele>2396.1142578125</ele>
      </trkpt>
      <trkpt lat="9.018458" lon="38.7477448">
        <ele>2396.13720703125</ele>
      </trkpt>
      <trkpt lat="9.018396" lon="38.7477347">
        <ele>2396.15234375</ele>
      </trkpt>
      <trkpt lat="9.018334" lon="38.7477246">
        <ele>2396.524169921875</ele>
      </trkpt>
      <trkpt lat="9.018272" lon="38.7477145">
        <ele>2396.642822265625</ele>
      </trkpt>
      <trkpt lat="9.01821" lon="38.7477044">
        <ele>2396.775390625</ele>
      </trkpt>
      <trkpt lat="9.0181481" lon="38.7476943">
        <ele>2397.127685546875</ele>
      </trkpt>
      <trkpt lat="9.0180861" lon="38.7476842">
        <ele>2396.924072265625</ele>
      </trkpt>
      <trkpt lat="9.0181481" lon="38.7476741">
        <ele>2397.0888671875</ele>
      </trkpt>
      <trkpt lat="9.01821" lon="38.747664">
        <ele>2397.4482421875</ele>
      </trkpt>
      <trkpt lat="9.018272" lon="38.7476539">
        <ele>2397.189453125</ele>
      </trkpt>
      <trkpt lat="9.018334" lon="38.7476438">
        <ele>2397.16015625</ele>
      </trkpt>
      <trkpt lat="9.018396" lon="38.7476337">
        <ele>2396.9169921875</ele>
      </trkpt>
      <trkpt lat="9.018458" lon="38.7476236">
        <ele>2397.165771484375</ele>
      </trkpt>
      <trkpt lat="9.01852" lon="38.7476135">
        <ele>2397.33740234375</ele>
      </trkpt>
      <trkpt lat="9.018582" lon="38.7476034">
        <ele>2397.01220703125</ele>
      </trkpt>
      <trkpt lat="9.0186439" lon="38.7475933">
        <ele>2396.92041015625</ele>
      </trkpt>
      <trkpt lat="9.0186339" lon="38.7476557">
        <ele>2396.587646484375</ele>
      </trkpt>
      <trkpt lat="9.0186239" lon="38.747718">
        <ele>2396.29638671875</ele>
      </trkpt>
      <trkpt lat="9.0186138" lon="38.7477804">
        <ele>2396.22119140625</ele>
      </trkpt>
      <trkpt lat="9.0186038" lon="38.7478427">
        <ele>2396.257568359375</ele>
      </trkpt>
      <trkpt lat="9.0185937" lon="38.7479051">
        <ele>2396.4150390625</ele>
      </trkpt>
      <trkpt lat="9.0185837" lon="38.7479674">
        <ele>2396.453857421875</ele>
      </trkpt>
      <trkpt lat="9.0185217" lon="38.7479573">
        <ele>2396.096923828125</ele>
      </trkpt>
      <trkpt lat="9.0184597" lon="38.7479472">
        <ele>2395.81201171875</ele>
      </trkpt>
      <trkpt lat="9.0183978" lon="38.7479371">
        <ele>2396.1689453125</ele>
      </trkpt>
      <trkpt lat="9.0183358" lon="38.7479271">
        <ele>2396.376220703125</ele>
      </trkpt>
      <trkpt lat="9.0182738" lon="38.747917">
        <ele>2396.53271484375</ele>
      </trkpt>
      <trkpt lat="9.0182118" lon="38.7479069">
        <ele>2396.4306640625</ele>
      </trkpt>
      <trkpt lat="9.0181674" lon="38.7478622">
        <ele>2396.141357421875</ele>
      </trkpt>
      <trkpt lat="9.018123" lon="38.7478175">
        <ele>2396.056884765625</ele>
      </trkpt>
      <trkpt lat="9.0180786" lon="38.7477729">
        <ele>2395.78466796875</ele>
      </trkpt>
      <trkpt lat="9.0180342" lon="38.7477282">
        <ele>2395.677490234375</ele>
      </trkpt>
      <trkpt lat="9.0179898" lon="38.7476835">
        <ele>2395.73779296875</ele>
      </trkpt>
      <trkpt lat="9.0179454" lon="38.7476389">
        <ele>2395.767578125</ele>
      </trkpt>
      <trkpt lat="9.0179554" lon="38.7477012">
        <ele>2395.93798828125</ele>
      </trkpt>
      <trkpt lat="9.0179655" lon="38.7477636">
        <ele>2395.865478515625</ele>
      </trkpt>
      <trkpt lat="9.0179755" lon="38.7478259">
        <ele>2395.5546875</ele>
      </trkpt>
      <trkpt lat="9.0179856" lon="38.7478883">
        <ele>2395.4111328125</ele>
      </trkpt>
      <trkpt lat="9.0179956" lon="38.7479506">
        <ele>2395.42529296875</ele>
      </trkpt>
      <trkpt lat="9.0180056" lon="38.748013">
        <ele>2395.71044921875</ele>
      </trkpt>
      <trkpt lat="9.01805" lon="38.7479683">
        <ele>2395.562744140625</ele>
      </trkpt>
      <trkpt lat="9.0180944" lon="38.7479237">
        <ele>2395.81005859375</ele>
      </trkpt>
      <trkpt lat="9.0181388" lon="38.747879">
        <ele>2395.6484375</ele>
      </trkpt>
      <trkpt lat="9.0181832" lon="38.7478343">
        <ele>2395.552490234375</ele>
      </trkpt>
      <trkpt lat="9.0182276" lon="38.7477897">
        <ele>2395.798828125</ele>
      </trkpt>
      <trkpt lat="9.018272" lon="38.747745">
        <ele>2395.412353515625</ele>
      </trkpt>
      <trkpt lat="9.0183164" lon="38.7477003">
        <ele>2395.1650390625</ele>
      </trkpt>
      <trkpt lat="9.0183608" lon="38.7476557">
        <ele>2395.3671875</ele>
      </trkpt>
      <trkpt lat="9.0184052" lon="38.747611">
        <ele>2395.422119140625</ele>
      </trkpt>
      <trkpt lat="9.0184496" lon="38.7475664">
        <ele>2395.058349609375</ele>
      </trkpt>
      <trkpt lat="9.0184597" lon="38.7476287">
        <ele>2394.91796875</ele>
      </trkpt>
      <trkpt lat="9.0184697" lon="38.7476911">
        <ele>2394.69189453125</ele>
      </trkpt>
      <trkpt lat="9.0184798" lon="38.7477534">
        <ele>2394.881591796875</ele>
      </trkpt>
      <trkpt lat="9.0184898" lon="38.7478158">
        <ele>2394.6474609375</ele>
      </trkpt>
      <trkpt lat="9.0184998" lon="38.7478781">
        <ele>2394.55029296875</ele>
      </trkpt>
      <trkpt lat="9.0185099" lon="38.7479405">
        <ele>2394.358642578125</ele>
      </trkpt>
      <trkpt lat="9.0185199" lon="38.7480028">
        <ele>2394.181640625</ele>
      </trkpt>
      <trkpt lat="9.01853" lon="38.7480652">
        <ele>2393.958251953125</ele>
      </trkpt>
      <trkpt lat="9.018468" lon="38.7480551">
        <ele>2393.69580078125</ele>
      </trkpt>
      <trkpt lat="9.018406" lon="38.748045">
        <ele>2393.998779296875</ele>
      </trkpt>
      <trkpt lat="9.018344" lon="38.7480349">
        <ele>2393.729736328125</ele>
      </trkpt>
      <trkpt lat="9.018282" lon="38.7480248">
        <ele>2393.979248046875</ele>
      </trkpt>
      <trkpt lat="9.01822" lon="38.7480147">
        <ele>2394.074951171875</ele>
      </trkpt>
      <trkpt lat="9.018158" lon="38.7480046">
        <ele>2394.008056640625</ele>
      </trkpt>
      <trkpt lat="9.0180961" lon="38.7479945">
        <ele>2394.2724609375</ele>
      </trkpt>
      <trkpt lat="9.0180341" lon="38.7479844">
        <ele>2394.267822265625</ele>
      </trkpt>
      <trkpt lat="9.0180834" lon="38.7479453">
        <ele>2394.0517578125</ele>
      </trkpt>
      <trkpt lat="9.0181328" lon="38.7479063">
        <ele>2393.67431640625</ele>
      </trkpt>
      <trkpt lat="9.0181821" lon="38.7478672">
        <ele>2393.680419921875</ele>
      </trkpt>
      <trkpt lat="9.0182315" lon="38.7478281">
        <ele>2393.96484375</ele>
      </trkpt>
      <trkpt lat="9.0182808" lon="38.7477891">
        <ele>2393.837646484375</ele>
      </trkpt>
      <trkpt lat="9.0183302" lon="38.74775">
        <ele>2393.816162109375</ele>
      </trkpt>
      <trkpt lat="9.0183795" lon="38.747711">
        <ele>2394.092041015625</ele>
      </trkpt>
      <trkpt lat="9.0184289" lon="38.7476719">
        <ele>2394.273193359375</ele>
      </trkpt>
      <trkpt lat="9.0184782" lon="38.7476329">
        <ele>2394.119140625</ele>
      </trkpt>
      <trkpt lat="9.0185276" lon="38.7475938">
        <ele>2394.514892578125</ele>
      </trkpt>
      <trkpt lat="9.0184656" lon="38.7475837">
        <ele>2394.201171875</ele>
      </trkpt>
      <trkpt lat="9.0184036" lon="38.7475736">
        <ele>2393.910888671875</ele>
      </trkpt>
      <trkpt lat="9.0183416" lon="38.7475635">
        <ele>2393.8623046875</ele>
      </trkpt>
      <trkpt lat="9.0182796" lon="38.7475534">
        <ele>2393.94775390625</ele>
      </trkpt>
      <trkpt lat="9.0182177" lon="38.7475433">
        <ele>2394.17236328125</ele>
      </trkpt>
      <trkpt lat="9.0181557" lon="38.7475332">
        <ele>2394.503173828125</ele>
      </trkpt>
      <trkpt lat="9.0182177" lon="38.7475231">
        <ele>2394.81396484375</ele>
      </trkpt>
      <trkpt lat="9.0182796" lon="38.747513">
        <ele>2395.048828125</ele>
      </trkpt>
      <trkpt lat="9.0183416" lon="38.7475029">
        <ele>2394.925537109375</ele>
      </trkpt>
      <trkpt lat="9.0184036" lon="38.7474928">
        <ele>2394.58447265625</ele>
      </trkpt>
      <trkpt lat="9.0184656" lon="38.7474827">
        <ele>2394.374755859375</ele>
      </trkpt>
      <trkpt lat="9.0185276" lon="38.7474726">
        <ele>2394.62646484375</ele>
      </trkpt>
      <trkpt lat="9.0185175" lon="38.747535">
        <ele>2394.334228515625</ele>
      </trkpt>
      <trkpt lat="9.0185075" lon="38.7475973">
        <ele>2394.449462890625</ele>
      </trkpt>
      <trkpt lat="9.0184975" lon="38.7476597">
        <ele>2394.34375</ele>
      </trkpt>
      <trkpt lat="9.0184874" lon="38.747722">
        <ele>2394.35009765625</ele>
      </trkpt>
      <trkpt lat="9.0184774" lon="38.7477844">
        <ele>2394.2138671875</ele>
      </trkpt>
      <trkpt lat="9.0184673" lon="38.7478467">
        <ele>2393.8798828125</ele>
      </trkpt>
      <trkpt lat="9.0184573" lon="38.7479091">
        <ele>2393.738037109375</ele>
      </trkpt>
      <trkpt lat="9.0183993" lon="38.747885">
        <ele>2393.75</ele>
      </trkpt>
      <trkpt lat="9.0183412" lon="38.7478609">
        <ele>2393.90576171875</ele>
      </trkpt>
      <trkpt lat="9.0182832" lon="38.7478369">
        <ele>2393.6923828125</ele>
      </trkpt>
      <trkpt lat="9.0182251" lon="38.7478128">
        <ele>2393.785400390625</ele>
      </trkpt>
      <trkpt lat="9.0181671" lon="38.7477887">
        <ele>2393.689453125</ele>
      </trkpt>
      <trkpt lat="9.018109" lon="38.7477646">
        <ele>2393.8525390625</ele>
      </trkpt>
      <trkpt lat="9.018051" lon="38.7477405">
        <ele>2393.71875</ele>
      </trkpt>
      <trkpt lat="9.0179929" lon="38.7477165">
        <ele>2393.912109375</ele>
      </trkpt>
      <trkpt lat="9.0179348" lon="38.7476924">
        <ele>2393.726318359375</ele>
      </trkpt>
      <trkpt lat="9.0178768" lon="38.7476683">
        <ele>2393.797607421875</ele>
      </trkpt>
      <trkpt lat="9.0178187" lon="38.7476442">
        <ele>2393.895263671875</ele>
      </trkpt>
      <trkpt lat="9.0178807" lon="38.7476543">
        <ele>2393.79736328125</ele>
      </trkpt>
      <trkpt lat="9.0179427" lon="38.7476644">
        <ele>2393.791259765625</ele>
      </trkpt>
      <trkpt lat="9.0180047" lon="38.7476745">
        <ele>2393.86279296875</ele>
      </trkpt>
      <trkpt lat="9.0180667" lon="38.7476846">
        <ele>2394.03662109375</ele>
      </trkpt>
      <trkpt lat="9.0181287" lon="38.7476947">
        <ele>2393.671875</ele>
      </trkpt>
      <trkpt lat="9.0181907" lon="38.7477048">
        <ele>2393.7861328125</ele>
      </trkpt>
      <trkpt lat="9.0182526" lon="38.7477149">
        <ele>2393.87353515625</ele>
      </trkpt>
      <trkpt lat="9.0183146" lon="38.747725">
        <ele>2393.779541015625</ele>
      </trkpt>
      <trkpt lat="9.0183766" lon="38.7477351">
        <ele>2393.84228515625</ele>
      </trkpt>
      <trkpt lat="9.0184386" lon="38.7477452">
        <ele>2393.720703125</ele>
      </trkpt>
      <trkpt lat="9.0185006" lon="38.7477553">
        <ele>2394.1162109375</ele>
      </trkpt>
      <trkpt lat="9.0184386" lon="38.7477654">
        <ele>2394.485595703125</ele>
      </trkpt>
      <trkpt lat="9.0183766" lon="38.7477755">
        <ele>2394.289306640625</ele>
      </trkpt>
      <trkpt lat="9.0183146" lon="38.7477856">
        <ele>2394.356201171875</ele>
      </trkpt>
      <trkpt lat="9.0182526" lon="38.7477957">
        <ele>2394.36767578125</ele>
      </trkpt>
      <trkpt lat="9.0181907" lon="38.7478058">
        <ele>2394.000244140625</ele>
      </trkpt>
      <trkpt lat="9.0181287" lon="38.7478159">
        <ele>2393.77880859375</ele>
      </trkpt>
      <trkpt lat="9.0180667" lon="38.747826">
        <ele>2393.926513671875</ele>
      </trkpt>
      <trkpt lat="9.0180047" lon="38.7478361">
        <ele>2393.949951171875</ele>
      </trkpt>
      <trkpt lat="9.0180667" lon="38.7478462">
        <ele>2394.111083984375</ele>
      </trkpt>
      <trkpt lat="9.0181287" lon="38.7478563">
        <ele>2394.0146484375</ele>
      </trkpt>
      <trkpt lat="9.0181907" lon="38.7478664">
        <ele>2393.914306640625</ele>
      </trkpt>
      <trkpt lat="9.0182526" lon="38.7478765">
        <ele>2393.746337890625</ele>
      </trkpt>
      <trkpt lat="9.0183146" lon="38.7478866">
        <ele>2393.739501953125</ele>
      </trkpt>
      <trkpt lat="9.0183766" lon="38.7478967">
        <ele>2393.73046875</ele>
      </trkpt>
      <trkpt lat="9.0184386" lon="38.7479068">
        <ele>2393.690185546875</ele>
      </trkpt>
      <trkpt lat="9.0183766" lon="38.7479169">
        <ele>2393.876708984375</ele>
      </trkpt>
      <trkpt lat="9.0183146" lon="38.747927">
        <ele>2394.156982421875</ele>
      </trkpt>
      <trkpt lat="9.0182526" lon="38.7479371">
        <ele>2393.8486328125</ele>
      </trkpt>
      <trkpt lat="9.0181907" lon="38.7479472">
        <ele>2393.732177734375</ele>
      </trkpt>
      <trkpt lat="9.0181287" lon="38.7479573">
        <ele>2394.12548828125</ele>
      </trkpt>
      <trkpt lat="9.0180667" lon="38.7479674">
        <ele>2393.980224609375</ele>
      </trkpt>
      <trkpt lat="9.0180767" lon="38.747905">
        <ele>2393.68212890625</ele>
      </trkpt>
      <trkpt lat="9.0180868" lon="38.7478427">
        <ele>2393.667724609375</ele>
      </trkpt>
      <trkpt lat="9.0180968" lon="38.7477803">
        <ele>2393.9287109375</ele>
      </trkpt>
      <trkpt lat="9.0181068" lon="38.747718">
        <ele>2393.837890625</ele>
      </trkpt>
      <trkpt lat="9.0181169" lon="38.7476556">
        <ele>2393.745361328125</ele>
      </trkpt>
      <trkpt lat="9.0181269" lon="38.7475933">
        <ele>2393.948486328125</ele>
      </trkpt>
      <trkpt lat="9.0181169" lon="38.7476556">
        <ele>2394.192138671875</ele>
      </trkpt>
      <trkpt lat="9.0181068" lon="38.747718">
        <ele>2394.5732421875</ele>
      </trkpt>
      <trkpt lat="9.0180968" lon="38.7477803">
        <ele>2394.28564453125</ele>
      </trkpt>
      <trkpt lat="9.0180868" lon="38.7478427">
        <ele>2394.339111328125</ele>
      </trkpt>
      <trkpt lat="9.0180767" lon="38.747905">
        <ele>2394.17919921875</ele>
      </trkpt>
      <trkpt lat="9.0180667" lon="38.7479674">
        <ele>2394.481201171875</ele>
      </trkpt>
      <trkpt lat="9.0181141" lon="38.7479259">
        <ele>2394.21484375</ele>
      </trkpt>
      <trkpt lat="9.0181615" lon="38.7478845">
        <ele>2393.97314453125</ele>
      </trkpt>
      <trkpt lat="9.0182089" lon="38.7478431">
        <ele>2394.194091796875</ele>
      </trkpt>
      <trkpt lat="9.0182562" lon="38.7478016">
        <ele>2394.457275390625</ele>
      </trkpt>
    </trkseg>
  </trk>
</gpx>
