<?xml version="1.0" encoding="UTF-8"?>
<gpx version="1.1" creator="plain route" xmlns="http://www.topografix.com/GPX/1/1">
  <trk>
    <name>Plain Route Area 4 3.1 kmh</name>
    <trkseg>
      <trkpt lat="9.018581" lon="38.747791">
        <ele>2387.800048828125</ele>
      </trkpt>
      <trkpt lat="9.0186194" lon="38.7477973">
        <ele>2387.69091796875</ele>
      </trkpt>
      <trkpt lat="9.0186577" lon="38.7478035">
        <ele>2388.010498046875</ele>
      </trkpt>
      <trkpt lat="9.0186961" lon="38.7478098">
        <ele>2388.323486328125</ele>
      </trkpt>
      <trkpt lat="9.0187345" lon="38.747816">
        <ele>2388.5478515625</ele>
      </trkpt>
      <trkpt lat="9.0187729" lon="38.7478223">
        <ele>2388.67431640625</ele>
      </trkpt>
      <trkpt lat="9.0188112" lon="38.7478285">
        <ele>2388.476806640625</ele>
      </trkpt>
      <trkpt lat="9.0188496" lon="38.7478348">
        <ele>2388.34814453125</ele>
      </trkpt>
      <trkpt lat="9.018888" lon="38.747841">
        <ele>2388.279296875</ele>
      </trkpt>
      <trkpt lat="9.0188496" lon="38.7478473">
        <ele>2387.9111328125</ele>
      </trkpt>
      <trkpt lat="9.0188112" lon="38.7478535">
        <ele>2388.11865234375</ele>
      </trkpt>
      <trkpt lat="9.0187729" lon="38.7478598">
        <ele>2388.470947265625</ele>
      </trkpt>
      <trkpt lat="9.0187345" lon="38.747866">
        <ele>2388.091064453125</ele>
      </trkpt>
      <trkpt lat="9.0186961" lon="38.7478723">
        <ele>2388.169189453125</ele>
      </trkpt>
      <trkpt lat="9.0186577" lon="38.7478785">
        <ele>2388.497314453125</ele>
      </trkpt>
      <trkpt lat="9.0186194" lon="38.7478848">
        <ele>2388.304443359375</ele>
      </trkpt>
      <trkpt lat="9.018581" lon="38.747891">
        <ele>2388.669677734375</ele>
      </trkpt>
      <trkpt lat="9.0185535" lon="38.7478634">
        <ele>2388.968505859375</ele>
      </trkpt>
      <trkpt lat="9.018526" lon="38.7478357">
        <ele>2388.851806640625</ele>
      </trkpt>
      <trkpt lat="9.0184985" lon="38.7478081">
        <ele>2388.47216796875</ele>
      </trkpt>
      <trkpt lat="9.0184711" lon="38.7477804">
        <ele>2388.181396484375</ele>
      </trkpt>
      <trkpt lat="9.0184436" lon="38.7477528">
        <ele>2388.263427734375</ele>
      </trkpt>
      <trkpt lat="9.0184161" lon="38.7477251">
        <ele>2388.474853515625</ele>
      </trkpt>
      <trkpt lat="9.0183886" lon="38.7476975">
        <ele>2388.44189453125</ele>
      </trkpt>
      <trkpt lat="9.0183611" lon="38.7476698">
        <ele>2388.757568359375</ele>
      </trkpt>
      <trkpt lat="9.0183336" lon="38.7476422">
        <ele>2388.623046875</ele>
      </trkpt>
      <trkpt lat="9.0183061" lon="38.7476145">
        <ele>2388.655029296875</ele>
      </trkpt>
      <trkpt lat="9.0182787" lon="38.7475869">
        <ele>2388.9140625</ele>
      </trkpt>
      <trkpt lat="9.0182724" lon="38.7476255">
        <ele>2388.79345703125</ele>
      </trkpt>
      <trkpt lat="9.0182662" lon="38.7476641">
        <ele>2388.737060546875</ele>
      </trkpt>
      <trkpt lat="9.01826" lon="38.7477027">
        <ele>2388.489013671875</ele>
      </trkpt>
      <trkpt lat="9.0182538" lon="38.7477413">
        <ele>2388.6650390625</ele>
      </trkpt>
      <trkpt lat="9.0182476" lon="38.7477799">
        <ele>2388.4091796875</ele>
      </trkpt>
      <trkpt lat="9.0182414" lon="38.7478185">
        <ele>2388.576416015625</ele>
      </trkpt>
      <trkpt lat="9.0182352" lon="38.7478571">
        <ele>2388.363525390625</ele>
      </trkpt>
      <trkpt lat="9.0182289" lon="38.7478957">
        <ele>2388.063720703125</ele>
      </trkpt>
      <trkpt lat="9.0182227" lon="38.7479343">
        <ele>2388.33154296875</ele>
      </trkpt>
      <trkpt lat="9.0182165" lon="38.7479729">
        <ele>2387.99853515625</ele>
      </trkpt>
      <trkpt lat="9.0182103" lon="38.7480115">
        <ele>2388.1875</ele>
      </trkpt>
      <trkpt lat="9.0182041" lon="38.7480501">
        <ele>2388.07763671875</ele>
      </trkpt>
      <trkpt lat="9.0182316" lon="38.7480224">
        <ele>2388.02294921875</ele>
      </trkpt>
      <trkpt lat="9.0182591" lon="38.7479948">
        <ele>2387.8046875</ele>
      </trkpt>
      <trkpt lat="9.0182865" lon="38.7479671">
        <ele>2388.079833984375</ele>
      </trkpt>
      <trkpt lat="9.018314" lon="38.7479395">
        <ele>2388.216064453125</ele>
      </trkpt>
      <trkpt lat="9.0183415" lon="38.7479118">
        <ele>2387.939453125</ele>
      </trkpt>
      <trkpt lat="9.018369" lon="38.7478842">
        <ele>2388.33056640625</ele>
      </trkpt>
      <trkpt lat="9.0183965" lon="38.7478565">
        <ele>2388.280029296875</ele>
      </trkpt>
      <trkpt lat="9.018424" lon="38.7478289">
        <ele>2388.252685546875</ele>
      </trkpt>
      <trkpt lat="9.0184515" lon="38.7478012">
        <ele>2388.16796875</ele>
      </trkpt>
      <trkpt lat="9.0184789" lon="38.7477736">
        <ele>2388.23876953125</ele>
      </trkpt>
      <trkpt lat="9.0185064" lon="38.7477459">
        <ele>2388.052001953125</ele>
      </trkpt>
      <trkpt lat="9.0185339" lon="38.7477183">
        <ele>2388.32373046875</ele>
      </trkpt>
      <trkpt lat="9.0185614" lon="38.7476906">
        <ele>2388.54638671875</ele>
      </trkpt>
      <trkpt lat="9.0185889" lon="38.747663">
        <ele>2388.882080078125</ele>
      </trkpt>
      <trkpt lat="9.0186164" lon="38.7476353">
        <ele>2389.281982421875</ele>
      </trkpt>
      <trkpt lat="9.0186439" lon="38.7476077">
        <ele>2389.443603515625</ele>
      </trkpt>
      <trkpt lat="9.0186713" lon="38.74758">
        <ele>2389.2216796875</ele>
      </trkpt>
      <trkpt lat="9.0186988" lon="38.7475524">
        <ele>2389.381103515625</ele>
      </trkpt>
      <trkpt lat="9.0187263" lon="38.7475247">
        <ele>2389.534423828125</ele>
      </trkpt>
      <trkpt lat="9.0187538" lon="38.7474971">
        <ele>2389.53173828125</ele>
      </trkpt>
      <trkpt lat="9.0187476" lon="38.7475357">
        <ele>2389.5634765625</ele>
      </trkpt>
      <trkpt lat="9.0187414" lon="38.7475743">
        <ele>2389.324462890625</ele>
      </trkpt>
      <trkpt lat="9.0187352" lon="38.7476129">
        <ele>2389.034912109375</ele>
      </trkpt>
      <trkpt lat="9.0187289" lon="38.7476515">
        <ele>2389.064697265625</ele>
      </trkpt>
      <trkpt lat="9.0187227" lon="38.7476901">
        <ele>2388.98583984375</ele>
      </trkpt>
      <trkpt lat="9.0187165" lon="38.7477287">
        <ele>2388.787109375</ele>
      </trkpt>
      <trkpt lat="9.0187103" lon="38.7477673">
        <ele>2389.178955078125</ele>
      </trkpt>
      <trkpt lat="9.0187041" lon="38.7478059">
        <ele>2388.984619140625</ele>
      </trkpt>
      <trkpt lat="9.0187103" lon="38.7478445">
        <ele>2389.25</ele>
      </trkpt>
      <trkpt lat="9.0187165" lon="38.7478831">
        <ele>2389.174072265625</ele>
      </trkpt>
      <trkpt lat="9.0187227" lon="38.7479217">
        <ele>2388.846435546875</ele>
      </trkpt>
      <trkpt lat="9.0187289" lon="38.7479603">
        <ele>2388.638671875</ele>
      </trkpt>
      <trkpt lat="9.0187352" lon="38.7479989">
        <ele>2388.374755859375</ele>
      </trkpt>
      <trkpt lat="9.0187414" lon="38.7480375">
        <ele>2388.599853515625</ele>
      </trkpt>
      <trkpt lat="9.0187476" lon="38.7480761">
        <ele>2388.282470703125</ele>
      </trkpt>
      <trkpt lat="9.0187538" lon="38.7480375">
        <ele>2388.461181640625</ele>
      </trkpt>
      <trkpt lat="9.01876" lon="38.7479989">
        <ele>2388.603271484375</ele>
      </trkpt>
      <trkpt lat="9.0187662" lon="38.7479603">
        <ele>2388.23974609375</ele>
      </trkpt>
      <trkpt lat="9.0187724" lon="38.7479217">
        <ele>2388.24951171875</ele>
      </trkpt>
      <trkpt lat="9.0187787" lon="38.7478831">
        <ele>2388.6220703125</ele>
      </trkpt>
      <trkpt lat="9.0187849" lon="38.7478445">
        <ele>2388.620849609375</ele>
      </trkpt>
      <trkpt lat="9.0187911" lon="38.7478059">
        <ele>2388.46728515625</ele>
      </trkpt>
      <trkpt lat="9.0187973" lon="38.7477673">
        <ele>2388.619873046875</ele>
      </trkpt>
      <trkpt lat="9.0187589" lon="38.7477735">
        <ele>2388.882568359375</ele>
      </trkpt>
      <trkpt lat="9.0187206" lon="38.7477798">
        <ele>2388.488525390625</ele>
      </trkpt>
      <trkpt lat="9.0186822" lon="38.747786">
        <ele>2388.2060546875</ele>
      </trkpt>
      <trkpt lat="9.0186438" lon="38.7477923">
        <ele>2388.434326171875</ele>
      </trkpt>
      <trkpt lat="9.0186054" lon="38.7477985">
        <ele>2388.43017578125</ele>
      </trkpt>
      <trkpt lat="9.0185671" lon="38.7478048">
        <ele>2388.74658203125</ele>
      </trkpt>
      <trkpt lat="9.0185287" lon="38.747811">
        <ele>2389.133056640625</ele>
      </trkpt>
      <trkpt lat="9.0184903" lon="38.7478173">
        <ele>2389.347412109375</ele>
      </trkpt>
      <trkpt lat="9.018452" lon="38.7478235">
        <ele>2389.066162109375</ele>
      </trkpt>
      <trkpt lat="9.0184136" lon="38.7478298">
        <ele>2388.716064453125</ele>
      </trkpt>
      <trkpt lat="9.0183752" lon="38.747836">
        <ele>2389.02099609375</ele>
      </trkpt>
      <trkpt lat="9.0183368" lon="38.7478423">
        <ele>2388.814453125</ele>
      </trkpt>
      <trkpt lat="9.0182985" lon="38.7478485">
        <ele>2389.076416015625</ele>
      </trkpt>
      <trkpt lat="9.0182601" lon="38.7478548">
        <ele>2389.34765625</ele>
      </trkpt>
      <trkpt lat="9.0182539" lon="38.7478162">
        <ele>2388.974609375</ele>
      </trkpt>
      <trkpt lat="9.0182477" lon="38.7477776">
        <ele>2388.62841796875</ele>
      </trkpt>
      <trkpt lat="9.0182415" lon="38.747739">
        <ele>2388.547119140625</ele>
      </trkpt>
      <trkpt lat="9.0182352" lon="38.7477004">
        <ele>2388.614013671875</ele>
      </trkpt>
      <trkpt lat="9.018229" lon="38.7476618">
        <ele>2388.51220703125</ele>
      </trkpt>
      <trkpt lat="9.0182228" lon="38.7476232">
        <ele>2388.53173828125</ele>
      </trkpt>
      <trkpt lat="9.0182166" lon="38.7475846">
        <ele>2388.137939453125</ele>
      </trkpt>
      <trkpt lat="9.0182104" lon="38.747546">
        <ele>2387.774658203125</ele>
      </trkpt>
      <trkpt lat="9.0182042" lon="38.7475074">
        <ele>2388.169677734375</ele>
      </trkpt>
      <trkpt lat="9.0182425" lon="38.7475137">
        <ele>2387.969482421875</ele>
      </trkpt>
      <trkpt lat="9.0182809" lon="38.7475199">
        <ele>2387.660888671875</ele>
      </trkpt>
      <trkpt lat="9.0183193" lon="38.7475262">
        <ele>2387.49169921875</ele>
      </trkpt>
      <trkpt lat="9.0183577" lon="38.7475324">
        <ele>2387.69580078125</ele>
      </trkpt>
      <trkpt lat="9.018396" lon="38.7475387">
        <ele>2388.05419921875</ele>
      </trkpt>
      <trkpt lat="9.0184344" lon="38.7475449">
        <ele>2388.18603515625</ele>
      </trkpt>
      <trkpt lat="9.0184728" lon="38.7475512">
        <ele>2388.550537109375</ele>
      </trkpt>
      <trkpt lat="9.0185111" lon="38.7475574">
        <ele>2388.436767578125</ele>
      </trkpt>
      <trkpt lat="9.0185495" lon="38.7475637">
        <ele>2388.326416015625</ele>
      </trkpt>
      <trkpt lat="9.0185879" lon="38.7475699">
        <ele>2388.00390625</ele>
      </trkpt>
      <trkpt lat="9.0186263" lon="38.7475762">
        <ele>2387.93896484375</ele>
      </trkpt>
      <trkpt lat="9.0186646" lon="38.7475824">
        <ele>2388.17529296875</ele>
      </trkpt>
      <trkpt lat="9.018703" lon="38.7475887">
        <ele>2387.77685546875</ele>
      </trkpt>
      <trkpt lat="9.0187414" lon="38.7475949">
        <ele>2388.08203125</ele>
      </trkpt>
      <trkpt lat="9.0187797" lon="38.7476012">
        <ele>2387.70166015625</ele>
      </trkpt>
      <trkpt lat="9.0188181" lon="38.7476074">
        <ele>2388.0322265625</ele>
      </trkpt>
      <trkpt lat="9.0188565" lon="38.7476137">
        <ele>2387.937255859375</ele>
      </trkpt>
      <trkpt lat="9.0188949" lon="38.7476199">
        <ele>2388.047607421875</ele>
      </trkpt>
      <trkpt lat="9.0189332" lon="38.7476262">
        <ele>2388.318603515625</ele>
      </trkpt>
      <trkpt lat="9.0188949" lon="38.7476199">
        <ele>2388.518310546875</ele>
      </trkpt>
      <trkpt lat="9.0188565" lon="38.7476137">
        <ele>2388.21728515625</ele>
      </trkpt>
      <trkpt lat="9.0188181" lon="38.7476074">
        <ele>2388.13525390625</ele>
      </trkpt>
      <trkpt lat="9.0187797" lon="38.7476012">
        <ele>2387.978759765625</ele>
      </trkpt>
      <trkpt lat="9.0187414" lon="38.7475949">
        <ele>2387.97412109375</ele>
      </trkpt>
      <trkpt lat="9.018703" lon="38.7475887">
        <ele>2387.63427734375</ele>
      </trkpt>
      <trkpt lat="9.0186646" lon="38.7475824">
        <ele>2387.484130859375</ele>
      </trkpt>
      <trkpt lat="9.0186263" lon="38.7475762">
        <ele>2387.697509765625</ele>
      </trkpt>
      <trkpt lat="9.0185879" lon="38.7475699">
        <ele>2387.825927734375</ele>
      </trkpt>
      <trkpt lat="9.0185495" lon="38.7475637">
        <ele>2387.678466796875</ele>
      </trkpt>
      <trkpt lat="9.0185111" lon="38.7475699">
        <ele>2387.324462890625</ele>
      </trkpt>
      <trkpt lat="9.0184728" lon="38.7475762">
        <ele>2387.5830078125</ele>
      </trkpt>
      <trkpt lat="9.0184344" lon="38.7475824">
        <ele>2387.290771484375</ele>
      </trkpt>
      <trkpt lat="9.018396" lon="38.7475887">
        <ele>2387.03515625</ele>
      </trkpt>
      <trkpt lat="9.0183577" lon="38.7475949">
        <ele>2386.858642578125</ele>
      </trkpt>
      <trkpt lat="9.0183193" lon="38.7476012">
        <ele>2387.245849609375</ele>
      </trkpt>
      <trkpt lat="9.0183577" lon="38.7475949">
        <ele>2387.36572265625</ele>
      </trkpt>
      <trkpt lat="9.018396" lon="38.7475887">
        <ele>2387.067138671875</ele>
      </trkpt>
      <trkpt lat="9.0184344" lon="38.7475824">
        <ele>2387.010498046875</ele>
      </trkpt>
      <trkpt lat="9.0184728" lon="38.7475762">
        <ele>2387.401123046875</ele>
      </trkpt>
      <trkpt lat="9.0185111" lon="38.7475699">
        <ele>2387.3662109375</ele>
      </trkpt>
      <trkpt lat="9.0185495" lon="38.7475637">
        <ele>2387.4912109375</ele>
      </trkpt>
      <trkpt lat="9.0185557" lon="38.7476023">
        <ele>2387.688720703125</ele>
      </trkpt>
      <trkpt lat="9.0185619" lon="38.7476409">
        <ele>2387.376220703125</ele>
      </trkpt>
      <trkpt lat="9.0185682" lon="38.7476795">
        <ele>2387.73193359375</ele>
      </trkpt>
      <trkpt lat="9.0185744" lon="38.7477181">
        <ele>2387.39111328125</ele>
      </trkpt>
      <trkpt lat="9.0185806" lon="38.7477567">
        <ele>2387.387451171875</ele>
      </trkpt>
      <trkpt lat="9.0185868" lon="38.7477953">
        <ele>2387.606689453125</ele>
      </trkpt>
      <trkpt lat="9.018593" lon="38.7478339">
        <ele>2387.532470703125</ele>
      </trkpt>
      <trkpt lat="9.0185992" lon="38.7478725">
        <ele>2387.74658203125</ele>
      </trkpt>
      <trkpt lat="9.0186054" lon="38.7479111">
        <ele>2387.865478515625</ele>
      </trkpt>
      <trkpt lat="9.0186117" lon="38.7479497">
        <ele>2388.043212890625</ele>
      </trkpt>
      <trkpt lat="9.0186179" lon="38.7479883">
        <ele>2387.818115234375</ele>
      </trkpt>
      <trkpt lat="9.0185795" lon="38.747982">
        <ele>2387.85302734375</ele>
      </trkpt>
      <trkpt lat="9.0185411" lon="38.7479758">
        <ele>2387.89599609375</ele>
      </trkpt>
      <trkpt lat="9.0185028" lon="38.7479695">
        <ele>2387.88916015625</ele>
      </trkpt>
      <trkpt lat="9.0184644" lon="38.7479633">
        <ele>2387.885009765625</ele>
      </trkpt>
      <trkpt lat="9.018426" lon="38.747957">
        <ele>2388.2314453125</ele>
      </trkpt>
      <trkpt lat="9.0183876" lon="38.7479507">
        <ele>2387.938720703125</ele>
      </trkpt>
      <trkpt lat="9.0183493" lon="38.7479445">
        <ele>2388.303955078125</ele>
      </trkpt>
      <trkpt lat="9.0183109" lon="38.7479382">
        <ele>2388.611572265625</ele>
      </trkpt>
      <trkpt lat="9.0182725" lon="38.747932">
        <ele>2388.41357421875</ele>
      </trkpt>
      <trkpt lat="9.0183109" lon="38.7479257">
        <ele>2388.056884765625</ele>
      </trkpt>
      <trkpt lat="9.0183493" lon="38.7479195">
        <ele>2388.021728515625</ele>
      </trkpt>
      <trkpt lat="9.0183876" lon="38.7479132">
        <ele>2387.94189453125</ele>
      </trkpt>
      <trkpt lat="9.018426" lon="38.747907">
        <ele>2387.647705078125</ele>
      </trkpt>
      <trkpt lat="9.0184644" lon="38.7479007">
        <ele>2387.977294921875</ele>
      </trkpt>
      <trkpt lat="9.0185028" lon="38.7478945">
        <ele>2388.152587890625</ele>
      </trkpt>
      <trkpt lat="9.0185411" lon="38.7478882">
        <ele>2387.96044921875</ele>
      </trkpt>
      <trkpt lat="9.0185795" lon="38.747882">
        <ele>2387.898193359375</ele>
      </trkpt>
      <trkpt lat="9.0186179" lon="38.7478757">
        <ele>2388.037109375</ele>
      </trkpt>
      <trkpt lat="9.0186562" lon="38.7478695">
        <ele>2388.257568359375</ele>
      </trkpt>
      <trkpt lat="9.0186179" lon="38.7478632">
        <ele>2388.628662109375</ele>
      </trkpt>
      <trkpt lat="9.0185795" lon="38.747857">
        <ele>2388.273681640625</ele>
      </trkpt>
      <trkpt lat="9.0185411" lon="38.7478507">
        <ele>2387.936767578125</ele>
      </trkpt>
      <trkpt lat="9.0185028" lon="38.7478445">
        <ele>2388.218994140625</ele>
      </trkpt>
      <trkpt lat="9.0184644" lon="38.7478382">
        <ele>2387.959716796875</ele>
      </trkpt>
      <trkpt lat="9.018426" lon="38.747832">
        <ele>2387.8837890625</ele>
      </trkpt>
      <trkpt lat="9.0184198" lon="38.7477934">
        <ele>2387.892578125</ele>
      </trkpt>
      <trkpt lat="9.0184136" lon="38.7477548">
        <ele>2387.680419921875</ele>
      </trkpt>
      <trkpt lat="9.0184074" lon="38.7477162">
        <ele>2387.794189453125</ele>
      </trkpt>
      <trkpt lat="9.0184012" lon="38.7476776">
        <ele>2388.02197265625</ele>
      </trkpt>
      <trkpt lat="9.0183949" lon="38.747639">
        <ele>2387.798828125</ele>
      </trkpt>
      <trkpt lat="9.0183887" lon="38.7476004">
        <ele>2387.797119140625</ele>
      </trkpt>
      <trkpt lat="9.0183825" lon="38.7475618">
        <ele>2387.545166015625</ele>
      </trkpt>
      <trkpt lat="9.0183763" lon="38.7476004">
        <ele>2387.650146484375</ele>
      </trkpt>
      <trkpt lat="9.0183701" lon="38.747639">
        <ele>2387.661376953125</ele>
      </trkpt>
      <trkpt lat="9.0183639" lon="38.7476776">
        <ele>2387.97802734375</ele>
      </trkpt>
      <trkpt lat="9.0183577" lon="38.7477162">
        <ele>2388.29638671875</ele>
      </trkpt>
      <trkpt lat="9.0183514" lon="38.7477548">
        <ele>2388.511474609375</ele>
      </trkpt>
      <trkpt lat="9.0183452" lon="38.7477934">
        <ele>2388.290283203125</ele>
      </trkpt>
      <trkpt lat="9.018339" lon="38.747832">
        <ele>2387.896240234375</ele>
      </trkpt>
      <trkpt lat="9.0183328" lon="38.7478706">
        <ele>2387.65478515625</ele>
      </trkpt>
      <trkpt lat="9.0183266" lon="38.7479092">
        <ele>2387.332763671875</ele>
      </trkpt>
      <trkpt lat="9.0183204" lon="38.7479478">
        <ele>2387.3720703125</ele>
      </trkpt>
      <trkpt lat="9.0183142" lon="38.7479864">
        <ele>2387.2705078125</ele>
      </trkpt>
      <trkpt lat="9.0183079" lon="38.748025">
        <ele>2386.880126953125</ele>
      </trkpt>
      <trkpt lat="9.0183017" lon="38.7480636">
        <ele>2386.977783203125</ele>
      </trkpt>
      <trkpt lat="9.0183401" lon="38.7480573">
        <ele>2386.942138671875</ele>
      </trkpt>
      <trkpt lat="9.0183785" lon="38.7480511">
        <ele>2387.1708984375</ele>
      </trkpt>
      <trkpt lat="9.0184168" lon="38.7480448">
        <ele>2387.156982421875</ele>
      </trkpt>
      <trkpt lat="9.0184552" lon="38.7480386">
        <ele>2386.777099609375</ele>
      </trkpt>
      <trkpt lat="9.0184936" lon="38.7480323">
        <ele>2386.866455078125</ele>
      </trkpt>
      <trkpt lat="9.018532" lon="38.748026">
        <ele>2387.181640625</ele>
      </trkpt>
      <trkpt lat="9.0185703" lon="38.7480198">
        <ele>2387.427001953125</ele>
      </trkpt>
      <trkpt lat="9.0186087" lon="38.7480135">
        <ele>2387.636962890625</ele>
      </trkpt>
      <trkpt lat="9.0186471" lon="38.7480073">
        <ele>2387.759521484375</ele>
      </trkpt>
      <trkpt lat="9.0186854" lon="38.748001">
        <ele>2387.686767578125</ele>
      </trkpt>
      <trkpt lat="9.0187238" lon="38.7479948">
        <ele>2387.36181640625</ele>
      </trkpt>
      <trkpt lat="9.0186854" lon="38.748001">
        <ele>2387.26025390625</ele>
      </trkpt>
      <trkpt lat="9.0186471" lon="38.7480073">
        <ele>2387.476806640625</ele>
      </trkpt>
      <trkpt lat="9.0186087" lon="38.7480135">
        <ele>2387.73193359375</ele>
      </trkpt>
      <trkpt lat="9.0185703" lon="38.7480198">
        <ele>2387.709716796875</ele>
      </trkpt>
      <trkpt lat="9.018532" lon="38.748026">
        <ele>2387.906982421875</ele>
      </trkpt>
      <trkpt lat="9.0184936" lon="38.7480323">
        <ele>2387.672607421875</ele>
      </trkpt>
      <trkpt lat="9.0184552" lon="38.7480386">
        <ele>2387.649169921875</ele>
      </trkpt>
      <trkpt lat="9.0184168" lon="38.7480448">
        <ele>2387.6826171875</ele>
      </trkpt>
      <trkpt lat="9.0183785" lon="38.7480511">
        <ele>2387.758544921875</ele>
      </trkpt>
      <trkpt lat="9.0183401" lon="38.7480573">
        <ele>2387.8349609375</ele>
      </trkpt>
      <trkpt lat="9.0183463" lon="38.7480187">
        <ele>2387.485595703125</ele>
      </trkpt>
      <trkpt lat="9.0183525" lon="38.7479801">
        <ele>2387.1650390625</ele>
      </trkpt>
      <trkpt lat="9.0183587" lon="38.7479415">
        <ele>2386.769287109375</ele>
      </trkpt>
      <trkpt lat="9.018365" lon="38.7479029">
        <ele>2386.98828125</ele>
      </trkpt>
      <trkpt lat="9.0183712" lon="38.7478643">
        <ele>2386.793701171875</ele>
      </trkpt>
      <trkpt lat="9.0183774" lon="38.7478257">
        <ele>2386.744140625</ele>
      </trkpt>
      <trkpt lat="9.0183836" lon="38.7477871">
        <ele>2386.61962890625</ele>
      </trkpt>
      <trkpt lat="9.0183898" lon="38.7477485">
        <ele>2386.9384765625</ele>
      </trkpt>
      <trkpt lat="9.018396" lon="38.7477099">
        <ele>2386.747314453125</ele>
      </trkpt>
      <trkpt lat="9.0184022" lon="38.7476713">
        <ele>2386.6669921875</ele>
      </trkpt>
      <trkpt lat="9.0184085" lon="38.7476327">
        <ele>2386.405029296875</ele>
      </trkpt>
      <trkpt lat="9.0184468" lon="38.7476265">
        <ele>2386.569580078125</ele>
      </trkpt>
      <trkpt lat="9.0184852" lon="38.7476202">
        <ele>2386.51904296875</ele>
      </trkpt>
      <trkpt lat="9.0185236" lon="38.747614">
        <ele>2386.77197265625</ele>
      </trkpt>
      <trkpt lat="9.0185619" lon="38.7476077">
        <ele>2386.492431640625</ele>
      </trkpt>
      <trkpt lat="9.0186003" lon="38.7476015">
        <ele>2386.825439453125</ele>
      </trkpt>
      <trkpt lat="9.0186387" lon="38.7475952">
        <ele>2386.935546875</ele>
      </trkpt>
      <trkpt lat="9.0186771" lon="38.747589">
        <ele>2387.06787109375</ele>
      </trkpt>
      <trkpt lat="9.0187154" lon="38.7475827">
        <ele>2387.292724609375</ele>
      </trkpt>
      <trkpt lat="9.0187538" lon="38.7475765">
        <ele>2387.05419921875</ele>
      </trkpt>
      <trkpt lat="9.0187922" lon="38.7475702">
        <ele>2386.803466796875</ele>
      </trkpt>
      <trkpt lat="9.0188305" lon="38.747564">
        <ele>2387.144775390625</ele>
      </trkpt>
      <trkpt lat="9.0188689" lon="38.7475577">
        <ele>2387.177490234375</ele>
      </trkpt>
      <trkpt lat="9.0188305" lon="38.747564">
        <ele>2386.82177734375</ele>
      </trkpt>
      <trkpt lat="9.0187922" lon="38.7475702">
        <ele>2386.455810546875</ele>
      </trkpt>
      <trkpt lat="9.0187538" lon="38.7475765">
        <ele>2386.795166015625</ele>
      </trkpt>
      <trkpt lat="9.0187154" lon="38.7475827">
        <ele>2386.77294921875</ele>
      </trkpt>
      <trkpt lat="9.0186771" lon="38.747589">
        <ele>2386.90185546875</ele>
      </trkpt>
      <trkpt lat="9.0186387" lon="38.7475952">
        <ele>2386.761962890625</ele>
      </trkpt>
      <trkpt lat="9.0186003" lon="38.7476015">
        <ele>2386.7734375</ele>
      </trkpt>
      <trkpt lat="9.0185619" lon="38.7476077">
        <ele>2386.90771484375</ele>
      </trkpt>
      <trkpt lat="9.0185236" lon="38.747614">
        <ele>2387.087890625</ele>
      </trkpt>
      <trkpt lat="9.0184852" lon="38.7476202">
        <ele>2387.022216796875</ele>
      </trkpt>
      <trkpt lat="9.0184468" lon="38.7476265">
        <ele>2386.96337890625</ele>
      </trkpt>
      <trkpt lat="9.0184193" lon="38.7476541">
        <ele>2386.738037109375</ele>
      </trkpt>
      <trkpt lat="9.0183919" lon="38.7476818">
        <ele>2387.135498046875</ele>
      </trkpt>
      <trkpt lat="9.0183644" lon="38.7477094">
        <ele>2387.49658203125</ele>
      </trkpt>
      <trkpt lat="9.0183369" lon="38.7477371">
        <ele>2387.18505859375</ele>
      </trkpt>
      <trkpt lat="9.0183094" lon="38.7477647">
        <ele>2387.329345703125</ele>
      </trkpt>
      <trkpt lat="9.0182819" lon="38.7477924">
        <ele>2387.08447265625</ele>
      </trkpt>
      <trkpt lat="9.0182544" lon="38.74782">
        <ele>2386.996337890625</ele>
      </trkpt>
      <trkpt lat="9.0182269" lon="38.7478477">
        <ele>2387.00927734375</ele>
      </trkpt>
      <trkpt lat="9.0181995" lon="38.7478753">
        <ele>2386.6298828125</ele>
      </trkpt>
      <trkpt lat="9.018172" lon="38.747903">
        <ele>2386.843505859375</ele>
      </trkpt>
      <trkpt lat="9.0182103" lon="38.7478967">
        <ele>2386.79541015625</ele>
      </trkpt>
      <trkpt lat="9.0182487" lon="38.7478905">
        <ele>2386.628173828125</ele>
      </trkpt>
      <trkpt lat="9.0182871" lon="38.7478842">
        <ele>2386.357421875</ele>
      </trkpt>
      <trkpt lat="9.0183255" lon="38.747878">
        <ele>2386.1796875</ele>
      </trkpt>
      <trkpt lat="9.0183638" lon="38.7478717">
        <ele>2385.882080078125</ele>
      </trkpt>
      <trkpt lat="9.0184022" lon="38.7478655">
        <ele>2386.20556640625</ele>
      </trkpt>
      <trkpt lat="9.0184406" lon="38.7478592">
        <ele>2386.3720703125</ele>
      </trkpt>
      <trkpt lat="9.0184789" lon="38.747853">
        <ele>2386.105712890625</ele>
      </trkpt>
      <trkpt lat="9.0185173" lon="38.7478467">
        <ele>2386.3251953125</ele>
      </trkpt>
      <trkpt lat="9.0185557" lon="38.7478405">
        <ele>2385.9638671875</ele>
      </trkpt>
      <trkpt lat="9.0185941" lon="38.7478342">
        <ele>2386.05517578125</ele>
      </trkpt>
      <trkpt lat="9.0186324" lon="38.7478279">
        <ele>2386.250244140625</ele>
      </trkpt>
      <trkpt lat="9.0186708" lon="38.7478217">
        <ele>2386.4287109375</ele>
      </trkpt>
      <trkpt lat="9.0186646" lon="38.7478603">
        <ele>2386.46875</ele>
      </trkpt>
      <trkpt lat="9.0186584" lon="38.7478989">
        <ele>2386.254638671875</ele>
      </trkpt>
      <trkpt lat="9.0186521" lon="38.7479375">
        <ele>2386.3974609375</ele>
      </trkpt>
      <trkpt lat="9.0186459" lon="38.7479761">
        <ele>2386.13134765625</ele>
      </trkpt>
      <trkpt lat="9.0186397" lon="38.7480147">
        <ele>2386.464599609375</ele>
      </trkpt>
      <trkpt lat="9.0186335" lon="38.7480533">
        <ele>2386.123779296875</ele>
      </trkpt>
      <trkpt lat="9.0186273" lon="38.7480919">
        <ele>2385.994384765625</ele>
      </trkpt>
      <trkpt lat="9.0186211" lon="38.7480533">
        <ele>2386.278076171875</ele>
      </trkpt>
      <trkpt lat="9.0186149" lon="38.7480147">
        <ele>2386.591552734375</ele>
      </trkpt>
      <trkpt lat="9.0186086" lon="38.7479761">
        <ele>2386.824462890625</ele>
      </trkpt>
      <trkpt lat="9.0186024" lon="38.7479375">
        <ele>2386.473388671875</ele>
      </trkpt>
      <trkpt lat="9.0185962" lon="38.7478989">
        <ele>2386.67333984375</ele>
      </trkpt>
      <trkpt lat="9.01859" lon="38.7478603">
        <ele>2386.85107421875</ele>
      </trkpt>
      <trkpt lat="9.0185838" lon="38.7478217">
        <ele>2386.636962890625</ele>
      </trkpt>
      <trkpt lat="9.0185776" lon="38.7477831">
        <ele>2386.34228515625</ele>
      </trkpt>
      <trkpt lat="9.0186051" lon="38.7478107">
        <ele>2386.33935546875</ele>
      </trkpt>
      <trkpt lat="9.0186325" lon="38.7478384">
        <ele>2386.414306640625</ele>
      </trkpt>
      <trkpt lat="9.01866" lon="38.747866">
        <ele>2386.09423828125</ele>
      </trkpt>
      <trkpt lat="9.0186875" lon="38.7478937">
        <ele>2386.058837890625</ele>
      </trkpt>
      <trkpt lat="9.018715" lon="38.7479213">
        <ele>2385.731689453125</ele>
      </trkpt>
      <trkpt lat="9.0187425" lon="38.747949">
        <ele>2385.9501953125</ele>
      </trkpt>
      <trkpt lat="9.01877" lon="38.7479766">
        <ele>2386.3486328125</ele>
      </trkpt>
      <trkpt lat="9.0187316" lon="38.7479704">
        <ele>2386.011474609375</ele>
      </trkpt>
      <trkpt lat="9.0186932" lon="38.7479641">
        <ele>2385.745849609375</ele>
      </trkpt>
      <trkpt lat="9.0186549" lon="38.7479579">
        <ele>2385.95947265625</ele>
      </trkpt>
      <trkpt lat="9.0186165" lon="38.7479516">
        <ele>2385.826416015625</ele>
      </trkpt>
      <trkpt lat="9.0185781" lon="38.7479454">
        <ele>2385.5595703125</ele>
      </trkpt>
      <trkpt lat="9.0185397" lon="38.7479391">
        <ele>2385.601318359375</ele>
      </trkpt>
      <trkpt lat="9.0185014" lon="38.7479329">
        <ele>2385.581298828125</ele>
      </trkpt>
      <trkpt lat="9.018463" lon="38.7479266">
        <ele>2385.844482421875</ele>
      </trkpt>
      <trkpt lat="9.0184246" lon="38.7479204">
        <ele>2385.624267578125</ele>
      </trkpt>
      <trkpt lat="9.0183863" lon="38.7479141">
        <ele>2385.38330078125</ele>
      </trkpt>
      <trkpt lat="9.0184137" lon="38.7478865">
        <ele>2385.685546875</ele>
      </trkpt>
      <trkpt lat="9.0184412" lon="38.7478588">
        <ele>2385.3671875</ele>
      </trkpt>
      <trkpt lat="9.0184687" lon="38.7478312">
        <ele>2385.61962890625</ele>
      </trkpt>
      <trkpt lat="9.0184962" lon="38.7478035">
        <ele>2385.304443359375</ele>
      </trkpt>
      <trkpt lat="9.0185237" lon="38.7477759">
        <ele>2385.44091796875</ele>
      </trkpt>
      <trkpt lat="9.0185512" lon="38.7477482">
        <ele>2385.340087890625</ele>
      </trkpt>
      <trkpt lat="9.0185787" lon="38.7477206">
        <ele>2385.352294921875</ele>
      </trkpt>
      <trkpt lat="9.0185724" lon="38.7477592">
        <ele>2385.591796875</ele>
      </trkpt>
      <trkpt lat="9.0185662" lon="38.7477978">
        <ele>2385.6923828125</ele>
      </trkpt>
      <trkpt lat="9.01856" lon="38.7478364">
        <ele>2385.8134765625</ele>
      </trkpt>
      <trkpt lat="9.0185538" lon="38.747875">
        <ele>2385.423583984375</ele>
      </trkpt>
      <trkpt lat="9.0185476" lon="38.7479136">
        <ele>2385.46044921875</ele>
      </trkpt>
      <trkpt lat="9.0185414" lon="38.7479522">
        <ele>2385.667724609375</ele>
      </trkpt>
      <trkpt lat="9.0185352" lon="38.7479908">
        <ele>2385.973388671875</ele>
      </trkpt>
      <trkpt lat="9.0185077" lon="38.7479631">
        <ele>2385.579833984375</ele>
      </trkpt>
      <trkpt lat="9.0184802" lon="38.7479355">
        <ele>2385.679931640625</ele>
      </trkpt>
      <trkpt lat="9.0184527" lon="38.7479078">
        <ele>2385.64501953125</ele>
      </trkpt>
      <trkpt lat="9.0184252" lon="38.7478802">
        <ele>2385.589599609375</ele>
      </trkpt>
      <trkpt lat="9.0183977" lon="38.7478525">
        <ele>2385.489013671875</ele>
      </trkpt>
      <trkpt lat="9.0183702" lon="38.7478249">
        <ele>2385.382080078125</ele>
      </trkpt>
      <trkpt lat="9.0184086" lon="38.7478311">
        <ele>2385.412841796875</ele>
      </trkpt>
      <trkpt lat="9.018447" lon="38.7478374">
        <ele>2385.397705078125</ele>
      </trkpt>
      <trkpt lat="9.0184854" lon="38.7478436">
        <ele>2385.44921875</ele>
      </trkpt>
      <trkpt lat="9.0185237" lon="38.7478499">
        <ele>2385.3515625</ele>
      </trkpt>
      <trkpt lat="9.0185621" lon="38.7478561">
        <ele>2385.330322265625</ele>
      </trkpt>
      <trkpt lat="9.0186005" lon="38.7478624">
        <ele>2385.40869140625</ele>
      </trkpt>
      <trkpt lat="9.0186388" lon="38.7478686">
        <ele>2385.4052734375</ele>
      </trkpt>
      <trkpt lat="9.0186772" lon="38.7478749">
        <ele>2385.60791015625</ele>
      </trkpt>
      <trkpt lat="9.0187156" lon="38.7478811">
        <ele>2385.889404296875</ele>
      </trkpt>
      <trkpt lat="9.018754" lon="38.7478874">
        <ele>2385.4970703125</ele>
      </trkpt>
      <trkpt lat="9.0187923" lon="38.7478936">
        <ele>2385.760498046875</ele>
      </trkpt>
      <trkpt lat="9.0188307" lon="38.7478999">
        <ele>2385.5654296875</ele>
      </trkpt>
      <trkpt lat="9.0188691" lon="38.7479061">
        <ele>2385.42236328125</ele>
      </trkpt>
      <trkpt lat="9.0188307" lon="38.7478999">
        <ele>2385.37890625</ele>
      </trkpt>
      <trkpt lat="9.0187923" lon="38.7478936">
        <ele>2385.696533203125</ele>
      </trkpt>
      <trkpt lat="9.018754" lon="38.7478874">
        <ele>2385.597412109375</ele>
      </trkpt>
      <trkpt lat="9.0187156" lon="38.7478811">
        <ele>2385.344482421875</ele>
      </trkpt>
      <trkpt lat="9.0186772" lon="38.7478749">
        <ele>2385.60693359375</ele>
      </trkpt>
      <trkpt lat="9.0186388" lon="38.7478686">
        <ele>2386.00146484375</ele>
      </trkpt>
      <trkpt lat="9.0186005" lon="38.7478624">
        <ele>2386.025390625</ele>
      </trkpt>
      <trkpt lat="9.0185621" lon="38.7478561">
        <ele>2386.24560546875</ele>
      </trkpt>
      <trkpt lat="9.0185346" lon="38.7478285">
        <ele>2385.9697265625</ele>
      </trkpt>
      <trkpt lat="9.0185071" lon="38.7478008">
        <ele>2386.1083984375</ele>
      </trkpt>
      <trkpt lat="9.0184796" lon="38.7477732">
        <ele>2386.46142578125</ele>
      </trkpt>
      <trkpt lat="9.0184522" lon="38.7477455">
        <ele>2386.125</ele>
      </trkpt>
      <trkpt lat="9.0184247" lon="38.7477179">
        <ele>2386.146484375</ele>
      </trkpt>
      <trkpt lat="9.0183972" lon="38.7476902">
        <ele>2386.32470703125</ele>
      </trkpt>
      <trkpt lat="9.0183697" lon="38.7476626">
        <ele>2386.48486328125</ele>
      </trkpt>
      <trkpt lat="9.0183422" lon="38.7476349">
        <ele>2386.408203125</ele>
      </trkpt>
      <trkpt lat="9.0183147" lon="38.7476073">
        <ele>2386.161376953125</ele>
      </trkpt>
      <trkpt lat="9.0183531" lon="38.747601">
        <ele>2386.511474609375</ele>
      </trkpt>
      <trkpt lat="9.0183915" lon="38.7475948">
        <ele>2386.259033203125</ele>
      </trkpt>
      <trkpt lat="9.0184298" lon="38.7475885">
        <ele>2386.5625</ele>
      </trkpt>
      <trkpt lat="9.0184682" lon="38.7475823">
        <ele>2386.52392578125</ele>
      </trkpt>
      <trkpt lat="9.0185066" lon="38.747576">
        <ele>2386.55908203125</ele>
      </trkpt>
      <trkpt lat="9.018545" lon="38.7475698">
        <ele>2386.955810546875</ele>
      </trkpt>
      <trkpt lat="9.0185833" lon="38.7475635">
        <ele>2387.15673828125</ele>
      </trkpt>
      <trkpt lat="9.0186217" lon="38.7475573">
        <ele>2387.3974609375</ele>
      </trkpt>
      <trkpt lat="9.0186601" lon="38.747551">
        <ele>2387.22900390625</ele>
      </trkpt>
      <trkpt lat="9.0186984" lon="38.7475448">
        <ele>2387.0634765625</ele>
      </trkpt>
      <trkpt lat="9.0187368" lon="38.7475385">
        <ele>2387.188232421875</ele>
      </trkpt>
      <trkpt lat="9.0187306" lon="38.7475771">
        <ele>2386.859130859375</ele>
      </trkpt>
      <trkpt lat="9.0187244" lon="38.7476157">
        <ele>2387.229248046875</ele>
      </trkpt>
      <trkpt lat="9.0187182" lon="38.7476543">
        <ele>2387.134765625</ele>
      </trkpt>
      <trkpt lat="9.0187119" lon="38.7476929">
        <ele>2387.14501953125</ele>
      </trkpt>
      <trkpt lat="9.0187057" lon="38.7477315">
        <ele>2387.495361328125</ele>
      </trkpt>
      <trkpt lat="9.0186995" lon="38.7477701">
        <ele>2387.178466796875</ele>
      </trkpt>
      <trkpt lat="9.0186933" lon="38.7478087">
        <ele>2386.932373046875</ele>
      </trkpt>
      <trkpt lat="9.0186871" lon="38.7478473">
        <ele>2387.11328125</ele>
      </trkpt>
      <trkpt lat="9.0186487" lon="38.7478411">
        <ele>2387.12158203125</ele>
      </trkpt>
      <trkpt lat="9.0186103" lon="38.7478348">
        <ele>2387.475341796875</ele>
      </trkpt>
      <trkpt lat="9.018572" lon="38.7478286">
        <ele>2387.377685546875</ele>
      </trkpt>
      <trkpt lat="9.0185336" lon="38.7478223">
        <ele>2387.07177734375</ele>
      </trkpt>
      <trkpt lat="9.0184952" lon="38.7478161">
        <ele>2386.944091796875</ele>
      </trkpt>
      <trkpt lat="9.0184569" lon="38.7478098">
        <ele>2386.754638671875</ele>
      </trkpt>
      <trkpt lat="9.0184631" lon="38.7477712">
        <ele>2386.4990234375</ele>
      </trkpt>
      <trkpt lat="9.0184693" lon="38.7477326">
        <ele>2386.78662109375</ele>
      </trkpt>
      <trkpt lat="9.0184755" lon="38.747694">
        <ele>2386.52392578125</ele>
      </trkpt>
      <trkpt lat="9.0184817" lon="38.7476554">
        <ele>2386.9111328125</ele>
      </trkpt>
      <trkpt lat="9.0184879" lon="38.7476168">
        <ele>2387.2490234375</ele>
      </trkpt>
      <trkpt lat="9.0184942" lon="38.7475782">
        <ele>2387.060791015625</ele>
      </trkpt>
      <trkpt lat="9.0185004" lon="38.7475396">
        <ele>2387.10009765625</ele>
      </trkpt>
      <trkpt lat="9.0185066" lon="38.747501">
        <ele>2387.18115234375</ele>
      </trkpt>
      <trkpt lat="9.0185004" lon="38.7475396">
        <ele>2387.441162109375</ele>
      </trkpt>
      <trkpt lat="9.0184942" lon="38.7475782">
        <ele>2387.12939453125</ele>
      </trkpt>
      <trkpt lat="9.0184879" lon="38.7476168">
        <ele>2387.056640625</ele>
      </trkpt>
      <trkpt lat="9.0184817" lon="38.7476554">
        <ele>2387.381591796875</ele>
      </trkpt>
      <trkpt lat="9.0184755" lon="38.747694">
        <ele>2387.274169921875</ele>
      </trkpt>
      <trkpt lat="9.0184693" lon="38.7477326">
        <ele>2387.190673828125</ele>
      </trkpt>
      <trkpt lat="9.0184631" lon="38.7477712">
        <ele>2386.952880859375</ele>
      </trkpt>
      <trkpt lat="9.0184569" lon="38.7478098">
        <ele>2386.585205078125</ele>
      </trkpt>
      <trkpt lat="9.0184952" lon="38.7478161">
        <ele>2386.747802734375</ele>
      </trkpt>
      <trkpt lat="9.0185336" lon="38.7478223">
        <ele>2386.5185546875</ele>
      </trkpt>
      <trkpt lat="9.018572" lon="38.7478286">
        <ele>2386.579833984375</ele>
      </trkpt>
      <trkpt lat="9.0186103" lon="38.7478348">
        <ele>2386.64111328125</ele>
      </trkpt>
      <trkpt lat="9.0186487" lon="38.7478411">
        <ele>2386.366943359375</ele>
      </trkpt>
      <trkpt lat="9.0186871" lon="38.7478473">
        <ele>2386.235595703125</ele>
      </trkpt>
      <trkpt lat="9.0187255" lon="38.7478536">
        <ele>2386.395263671875</ele>
      </trkpt>
      <trkpt lat="9.0187638" lon="38.7478598">
        <ele>2386.4150390625</ele>
      </trkpt>
      <trkpt lat="9.01877" lon="38.7478212">
        <ele>2386.05029296875</ele>
      </trkpt>
      <trkpt lat="9.0187763" lon="38.7477826">
        <ele>2385.717529296875</ele>
      </trkpt>
      <trkpt lat="9.0187825" lon="38.747744">
        <ele>2385.951416015625</ele>
      </trkpt>
      <trkpt lat="9.0187887" lon="38.7477054">
        <ele>2385.68212890625</ele>
      </trkpt>
      <trkpt lat="9.0187949" lon="38.7476668">
        <ele>2385.46484375</ele>
      </trkpt>
      <trkpt lat="9.0188011" lon="38.7476282">
        <ele>2385.52001953125</ele>
      </trkpt>
      <trkpt lat="9.0187736" lon="38.7476559">
        <ele>2385.435546875</ele>
      </trkpt>
      <trkpt lat="9.0187461" lon="38.7476835">
        <ele>2385.472412109375</ele>
      </trkpt>
      <trkpt lat="9.0187187" lon="38.7477112">
        <ele>2385.330078125</ele>
      </trkpt>
      <trkpt lat="9.0186912" lon="38.7477388">
        <ele>2385.705078125</ele>
      </trkpt>
      <trkpt lat="9.0186637" lon="38.7477665">
        <ele>2385.60400390625</ele>
      </trkpt>
      <trkpt lat="9.0186362" lon="38.7477941">
        <ele>2385.978271484375</ele>
      </trkpt>
      <trkpt lat="9.0186087" lon="38.7478218">
        <ele>2385.953369140625</ele>
      </trkpt>
      <trkpt lat="9.0185812" lon="38.7478494">
        <ele>2386.00634765625</ele>
      </trkpt>
      <trkpt lat="9.0185537" lon="38.7478771">
        <ele>2385.68798828125</ele>
      </trkpt>
      <trkpt lat="9.0185263" lon="38.7479047">
        <ele>2386.049072265625</ele>
      </trkpt>
      <trkpt lat="9.0184988" lon="38.7479324">
        <ele>2386.062255859375</ele>
      </trkpt>
      <trkpt lat="9.0184713" lon="38.74796">
        <ele>2386.02197265625</ele>
      </trkpt>
      <trkpt lat="9.0184438" lon="38.7479877">
        <ele>2386.386962890625</ele>
      </trkpt>
      <trkpt lat="9.0184163" lon="38.7480153">
        <ele>2386.229248046875</ele>
      </trkpt>
      <trkpt lat="9.0184547" lon="38.7480216">
        <ele>2386.43505859375</ele>
      </trkpt>
      <trkpt lat="9.0184931" lon="38.7480278">
        <ele>2386.47021484375</ele>
      </trkpt>
      <trkpt lat="9.0185314" lon="38.7480341">
        <ele>2386.30126953125</ele>
      </trkpt>
      <trkpt lat="9.0185698" lon="38.7480403">
        <ele>2386.50927734375</ele>
      </trkpt>
      <trkpt lat="9.0186082" lon="38.7480466">
        <ele>2386.653076171875</ele>
      </trkpt>
      <trkpt lat="9.0186465" lon="38.7480528">
        <ele>2386.34033203125</ele>
      </trkpt>
      <trkpt lat="9.0186849" lon="38.7480591">
        <ele>2386.0302734375</ele>
      </trkpt>
      <trkpt lat="9.0187233" lon="38.7480653">
        <ele>2385.93994140625</ele>
      </trkpt>
      <trkpt lat="9.0187617" lon="38.7480716">
        <ele>2386.23193359375</ele>
      </trkpt>
      <trkpt lat="9.0188" lon="38.7480778">
        <ele>2386.32958984375</ele>
      </trkpt>
      <trkpt lat="9.0188384" lon="38.7480841">
        <ele>2386.588134765625</ele>
      </trkpt>
      <trkpt lat="9.0188109" lon="38.7480564">
        <ele>2386.683837890625</ele>
      </trkpt>
      <trkpt lat="9.0187834" lon="38.7480288">
        <ele>2386.355712890625</ele>
      </trkpt>
      <trkpt lat="9.0187559" lon="38.7480011">
        <ele>2386.276123046875</ele>
      </trkpt>
      <trkpt lat="9.0187285" lon="38.7479735">
        <ele>2386.514404296875</ele>
      </trkpt>
      <trkpt lat="9.018701" lon="38.7479458">
        <ele>2386.587646484375</ele>
      </trkpt>
      <trkpt lat="9.0186735" lon="38.7479182">
        <ele>2386.434326171875</ele>
      </trkpt>
      <trkpt lat="9.018646" lon="38.7478905">
        <ele>2386.433349609375</ele>
      </trkpt>
      <trkpt lat="9.0186185" lon="38.7478629">
        <ele>2386.779052734375</ele>
      </trkpt>
      <trkpt lat="9.018591" lon="38.7478352">
        <ele>2387.02685546875</ele>
      </trkpt>
      <trkpt lat="9.0185635" lon="38.7478076">
        <ele>2386.78125</ele>
      </trkpt>
      <trkpt lat="9.0185361" lon="38.7477799">
        <ele>2386.778564453125</ele>
      </trkpt>
      <trkpt lat="9.0185086" lon="38.7477523">
        <ele>2386.745849609375</ele>
      </trkpt>
      <trkpt lat="9.0184811" lon="38.7477246">
        <ele>2386.767822265625</ele>
      </trkpt>
      <trkpt lat="9.0184536" lon="38.747697">
        <ele>2387.111083984375</ele>
      </trkpt>
      <trkpt lat="9.0184261" lon="38.7477246">
        <ele>2387.408203125</ele>
      </trkpt>
      <trkpt lat="9.0183986" lon="38.7477523">
        <ele>2387.787841796875</ele>
      </trkpt>
      <trkpt lat="9.0183711" lon="38.7477799">
        <ele>2387.720947265625</ele>
      </trkpt>
      <trkpt lat="9.0183437" lon="38.7478076">
        <ele>2387.677734375</ele>
      </trkpt>
      <trkpt lat="9.0183162" lon="38.7478352">
        <ele>2387.818603515625</ele>
      </trkpt>
      <trkpt lat="9.0182887" lon="38.7478629">
        <ele>2387.680908203125</ele>
      </trkpt>
      <trkpt lat="9.0182612" lon="38.7478905">
        <ele>2387.990966796875</ele>
      </trkpt>
      <trkpt lat="9.0182337" lon="38.7479182">
        <ele>2388.21630859375</ele>
      </trkpt>
      <trkpt lat="9.0182062" lon="38.7479458">
        <ele>2388.311279296875</ele>
      </trkpt>
      <trkpt lat="9.0182124" lon="38.7479072">
        <ele>2387.943359375</ele>
      </trkpt>
      <trkpt lat="9.0182187" lon="38.7478686">
        <ele>2387.60986328125</ele>
      </trkpt>
      <trkpt lat="9.0182249" lon="38.74783">
        <ele>2387.28515625</ele>
      </trkpt>
      <trkpt lat="9.0182311" lon="38.7477914">
        <ele>2387.387451171875</ele>
      </trkpt>
      <trkpt lat="9.0182373" lon="38.7477528">
        <ele>2387.648681640625</ele>
      </trkpt>
      <trkpt lat="9.0182435" lon="38.7477142">
        <ele>2387.626708984375</ele>
      </trkpt>
      <trkpt lat="9.0182497" lon="38.7476757">
        <ele>2387.7763671875</ele>
      </trkpt>
      <trkpt lat="9.0182559" lon="38.7476371">
        <ele>2387.470703125</ele>
      </trkpt>
      <trkpt lat="9.0182622" lon="38.7475985">
        <ele>2387.16943359375</ele>
      </trkpt>
      <trkpt lat="9.0183005" lon="38.7476047">
        <ele>2387.287353515625</ele>
      </trkpt>
      <trkpt lat="9.0183389" lon="38.747611">
        <ele>2386.920654296875</ele>
      </trkpt>
      <trkpt lat="9.0183773" lon="38.7476172">
        <ele>2386.808349609375</ele>
      </trkpt>
      <trkpt lat="9.0184156" lon="38.7476235">
        <ele>2386.72265625</ele>
      </trkpt>
      <trkpt lat="9.018454" lon="38.7476297">
        <ele>2386.48828125</ele>
      </trkpt>
      <trkpt lat="9.0184924" lon="38.747636">
        <ele>2386.536865234375</ele>
      </trkpt>
      <trkpt lat="9.0185308" lon="38.7476422">
        <ele>2386.317626953125</ele>
      </trkpt>
      <trkpt lat="9.0185691" lon="38.7476485">
        <ele>2386.683349609375</ele>
      </trkpt>
      <trkpt lat="9.0186075" lon="38.7476547">
        <ele>2386.48681640625</ele>
      </trkpt>
      <trkpt lat="9.0186459" lon="38.747661">
        <ele>2386.485107421875</ele>
      </trkpt>
      <trkpt lat="9.0186842" lon="38.7476672">
        <ele>2386.389892578125</ele>
      </trkpt>
      <trkpt lat="9.0187226" lon="38.7476735">
        <ele>2386.5107421875</ele>
      </trkpt>
      <trkpt lat="9.018761" lon="38.7476797">
        <ele>2386.541259765625</ele>
      </trkpt>
      <trkpt lat="9.0187672" lon="38.7477183">
        <ele>2386.52783203125</ele>
      </trkpt>
      <trkpt lat="9.0187734" lon="38.7477569">
        <ele>2386.39501953125</ele>
      </trkpt>
      <trkpt lat="9.0187796" lon="38.7477955">
        <ele>2386.721923828125</ele>
      </trkpt>
      <trkpt lat="9.0187858" lon="38.7478341">
        <ele>2387.064208984375</ele>
      </trkpt>
      <trkpt lat="9.018792" lon="38.7478727">
        <ele>2386.8203125</ele>
      </trkpt>
      <trkpt lat="9.0187983" lon="38.7479113">
        <ele>2387.056884765625</ele>
      </trkpt>
      <trkpt lat="9.0188045" lon="38.7479499">
        <ele>2386.83154296875</ele>
      </trkpt>
      <trkpt lat="9.0188107" lon="38.7479885">
        <ele>2386.489501953125</ele>
      </trkpt>
      <trkpt lat="9.0188169" lon="38.7480271">
        <ele>2386.554931640625</ele>
      </trkpt>
      <trkpt lat="9.0188231" lon="38.7480657">
        <ele>2386.326416015625</ele>
      </trkpt>
      <trkpt lat="9.0187956" lon="38.7480381">
        <ele>2386.513916015625</ele>
      </trkpt>
      <trkpt lat="9.0187682" lon="38.7480104">
        <ele>2386.404296875</ele>
      </trkpt>
    </trkseg>
  </trk>
</gpx>
