<?xml version="1.0" encoding="UTF-8"?>
<gpx version="1.1" creator="plain route" xmlns="http://www.topografix.com/GPX/1/1">
  <trk>
    <name>Plain Route Area 3 0.57 kmh</name>
    <trkseg>
      <trkpt lat="9.018557" lon="38.747873">
        <ele>2401.7001953125</ele>
      </trkpt>
      <trkpt lat="9.01855" lon="38.7478719">
        <ele>2402.093017578125</ele>
      </trkpt>
      <trkpt lat="9.018543" lon="38.7478707">
        <ele>2401.71923828125</ele>
      </trkpt>
      <trkpt lat="9.018536" lon="38.7478696">
        <ele>2401.751220703125</ele>
      </trkpt>
      <trkpt lat="9.018529" lon="38.7478684">
        <ele>2401.5400390625</ele>
      </trkpt>
      <trkpt lat="9.018522" lon="38.7478673">
        <ele>2401.396484375</ele>
      </trkpt>
      <trkpt lat="9.018515" lon="38.7478662">
        <ele>2401.71533203125</ele>
      </trkpt>
      <trkpt lat="9.018508" lon="38.747865">
        <ele>2401.859619140625</ele>
      </trkpt>
      <trkpt lat="9.018501" lon="38.7478639">
        <ele>2401.8974609375</ele>
      </trkpt>
      <trkpt lat="9.0184939" lon="38.7478627">
        <ele>2402.244873046875</ele>
      </trkpt>
      <trkpt lat="9.0184869" lon="38.7478616">
        <ele>2401.98193359375</ele>
      </trkpt>
      <trkpt lat="9.0184799" lon="38.7478604">
        <ele>2402.117431640625</ele>
      </trkpt>
      <trkpt lat="9.0184729" lon="38.7478593">
        <ele>2401.848876953125</ele>
      </trkpt>
      <trkpt lat="9.0184659" lon="38.7478582">
        <ele>2401.723388671875</ele>
      </trkpt>
      <trkpt lat="9.0184589" lon="38.747857">
        <ele>2401.773193359375</ele>
      </trkpt>
      <trkpt lat="9.0184639" lon="38.747852">
        <ele>2402.072998046875</ele>
      </trkpt>
      <trkpt lat="9.018469" lon="38.7478469">
        <ele>2402.0546875</ele>
      </trkpt>
      <trkpt lat="9.018474" lon="38.7478419">
        <ele>2402.283935546875</ele>
      </trkpt>
      <trkpt lat="9.018479" lon="38.7478368">
        <ele>2402.447509765625</ele>
      </trkpt>
      <trkpt lat="9.018484" lon="38.7478318">
        <ele>2402.5947265625</ele>
      </trkpt>
      <trkpt lat="9.018489" lon="38.7478267">
        <ele>2402.692626953125</ele>
      </trkpt>
      <trkpt lat="9.018494" lon="38.7478217">
        <ele>2402.4072265625</ele>
      </trkpt>
      <trkpt lat="9.0184991" lon="38.7478166">
        <ele>2402.057861328125</ele>
      </trkpt>
      <trkpt lat="9.0185002" lon="38.7478237">
        <ele>2401.74560546875</ele>
      </trkpt>
      <trkpt lat="9.0185013" lon="38.7478307">
        <ele>2401.90478515625</ele>
      </trkpt>
      <trkpt lat="9.0185025" lon="38.7478378">
        <ele>2401.87451171875</ele>
      </trkpt>
      <trkpt lat="9.0185036" lon="38.7478448">
        <ele>2401.89990234375</ele>
      </trkpt>
      <trkpt lat="9.0185047" lon="38.7478519">
        <ele>2402.2265625</ele>
      </trkpt>
      <trkpt lat="9.0185059" lon="38.7478589">
        <ele>2402.099365234375</ele>
      </trkpt>
      <trkpt lat="9.018507" lon="38.747866">
        <ele>2402.0185546875</ele>
      </trkpt>
      <trkpt lat="9.0185081" lon="38.747873">
        <ele>2402.245849609375</ele>
      </trkpt>
      <trkpt lat="9.0185093" lon="38.7478801">
        <ele>2402.255126953125</ele>
      </trkpt>
      <trkpt lat="9.0185104" lon="38.7478871">
        <ele>2402.452392578125</ele>
      </trkpt>
      <trkpt lat="9.0185115" lon="38.7478942">
        <ele>2402.687744140625</ele>
      </trkpt>
      <trkpt lat="9.0185045" lon="38.7478953">
        <ele>2402.531005859375</ele>
      </trkpt>
      <trkpt lat="9.0184975" lon="38.7478964">
        <ele>2402.718505859375</ele>
      </trkpt>
      <trkpt lat="9.0184905" lon="38.7478976">
        <ele>2402.7158203125</ele>
      </trkpt>
      <trkpt lat="9.0184835" lon="38.7478987">
        <ele>2402.445068359375</ele>
      </trkpt>
      <trkpt lat="9.0184765" lon="38.7478999">
        <ele>2402.15869140625</ele>
      </trkpt>
      <trkpt lat="9.0184695" lon="38.747901">
        <ele>2402.269775390625</ele>
      </trkpt>
      <trkpt lat="9.0184706" lon="38.7479081">
        <ele>2402.646484375</ele>
      </trkpt>
      <trkpt lat="9.0184718" lon="38.7479151">
        <ele>2402.43017578125</ele>
      </trkpt>
      <trkpt lat="9.0184729" lon="38.7479221">
        <ele>2402.2294921875</ele>
      </trkpt>
      <trkpt lat="9.018474" lon="38.7479292">
        <ele>2402.3642578125</ele>
      </trkpt>
      <trkpt lat="9.0184752" lon="38.7479362">
        <ele>2402.072509765625</ele>
      </trkpt>
      <trkpt lat="9.0184763" lon="38.7479433">
        <ele>2401.898193359375</ele>
      </trkpt>
      <trkpt lat="9.0184775" lon="38.7479503">
        <ele>2401.76025390625</ele>
      </trkpt>
      <trkpt lat="9.0184786" lon="38.7479574">
        <ele>2402.04931640625</ele>
      </trkpt>
      <trkpt lat="9.0184797" lon="38.7479644">
        <ele>2402.380126953125</ele>
      </trkpt>
      <trkpt lat="9.0184809" lon="38.7479715">
        <ele>2402.116943359375</ele>
      </trkpt>
      <trkpt lat="9.018482" lon="38.7479785">
        <ele>2401.973876953125</ele>
      </trkpt>
      <trkpt lat="9.0184809" lon="38.7479715">
        <ele>2401.79345703125</ele>
      </trkpt>
      <trkpt lat="9.0184797" lon="38.7479644">
        <ele>2401.771484375</ele>
      </trkpt>
      <trkpt lat="9.0184786" lon="38.7479574">
        <ele>2401.886962890625</ele>
      </trkpt>
      <trkpt lat="9.0184775" lon="38.7479503">
        <ele>2402.04541015625</ele>
      </trkpt>
      <trkpt lat="9.0184763" lon="38.7479433">
        <ele>2401.90185546875</ele>
      </trkpt>
      <trkpt lat="9.0184752" lon="38.7479362">
        <ele>2401.882080078125</ele>
      </trkpt>
      <trkpt lat="9.018474" lon="38.7479292">
        <ele>2402.047119140625</ele>
      </trkpt>
      <trkpt lat="9.0184729" lon="38.7479221">
        <ele>2402.0458984375</ele>
      </trkpt>
      <trkpt lat="9.0184718" lon="38.7479151">
        <ele>2401.93603515625</ele>
      </trkpt>
      <trkpt lat="9.0184706" lon="38.7479081">
        <ele>2401.88427734375</ele>
      </trkpt>
      <trkpt lat="9.0184776" lon="38.7479092">
        <ele>2401.83056640625</ele>
      </trkpt>
      <trkpt lat="9.0184847" lon="38.7479103">
        <ele>2401.659912109375</ele>
      </trkpt>
      <trkpt lat="9.0184917" lon="38.7479115">
        <ele>2401.3544921875</ele>
      </trkpt>
      <trkpt lat="9.0184987" lon="38.7479126">
        <ele>2401.371826171875</ele>
      </trkpt>
      <trkpt lat="9.0185057" lon="38.7479138">
        <ele>2401.630859375</ele>
      </trkpt>
      <trkpt lat="9.0185127" lon="38.7479149">
        <ele>2401.351318359375</ele>
      </trkpt>
      <trkpt lat="9.0185197" lon="38.747916">
        <ele>2401.668212890625</ele>
      </trkpt>
      <trkpt lat="9.0185267" lon="38.7479172">
        <ele>2401.5576171875</ele>
      </trkpt>
      <trkpt lat="9.0185337" lon="38.7479183">
        <ele>2401.4365234375</ele>
      </trkpt>
      <trkpt lat="9.0185407" lon="38.7479195">
        <ele>2401.18359375</ele>
      </trkpt>
      <trkpt lat="9.0185477" lon="38.7479206">
        <ele>2401.27783203125</ele>
      </trkpt>
      <trkpt lat="9.0185547" lon="38.7479218">
        <ele>2401.55126953125</ele>
      </trkpt>
      <trkpt lat="9.0185617" lon="38.7479229">
        <ele>2401.534912109375</ele>
      </trkpt>
      <trkpt lat="9.0185687" lon="38.747924">
        <ele>2401.5498046875</ele>
      </trkpt>
      <trkpt lat="9.0185757" lon="38.7479252">
        <ele>2401.7451171875</ele>
      </trkpt>
      <trkpt lat="9.0185827" lon="38.7479263">
        <ele>2401.58984375</ele>
      </trkpt>
      <trkpt lat="9.0185897" lon="38.7479275">
        <ele>2401.251953125</ele>
      </trkpt>
      <trkpt lat="9.0185968" lon="38.7479286">
        <ele>2400.993896484375</ele>
      </trkpt>
      <trkpt lat="9.0186038" lon="38.7479297">
        <ele>2400.94287109375</ele>
      </trkpt>
      <trkpt lat="9.0186108" lon="38.7479309">
        <ele>2400.913818359375</ele>
      </trkpt>
      <trkpt lat="9.0186178" lon="38.747932">
        <ele>2400.76513671875</ele>
      </trkpt>
      <trkpt lat="9.0186248" lon="38.7479332">
        <ele>2400.90283203125</ele>
      </trkpt>
      <trkpt lat="9.0186318" lon="38.7479343">
        <ele>2401.124755859375</ele>
      </trkpt>
      <trkpt lat="9.0186329" lon="38.7479273">
        <ele>2401.31982421875</ele>
      </trkpt>
      <trkpt lat="9.0186341" lon="38.7479202">
        <ele>2401.299560546875</ele>
      </trkpt>
      <trkpt lat="9.0186352" lon="38.7479132">
        <ele>2400.984619140625</ele>
      </trkpt>
      <trkpt lat="9.0186363" lon="38.7479061">
        <ele>2401.065185546875</ele>
      </trkpt>
      <trkpt lat="9.0186375" lon="38.7478991">
        <ele>2401.42822265625</ele>
      </trkpt>
      <trkpt lat="9.0186386" lon="38.747892">
        <ele>2401.754150390625</ele>
      </trkpt>
      <trkpt lat="9.0186397" lon="38.747885">
        <ele>2401.881103515625</ele>
      </trkpt>
      <trkpt lat="9.0186409" lon="38.7478779">
        <ele>2402.19287109375</ele>
      </trkpt>
      <trkpt lat="9.018642" lon="38.7478709">
        <ele>2402.478515625</ele>
      </trkpt>
      <trkpt lat="9.0186431" lon="38.7478638">
        <ele>2402.41259765625</ele>
      </trkpt>
      <trkpt lat="9.0186443" lon="38.7478568">
        <ele>2402.216552734375</ele>
      </trkpt>
      <trkpt lat="9.0186373" lon="38.7478579">
        <ele>2402.410888671875</ele>
      </trkpt>
      <trkpt lat="9.0186303" lon="38.7478591">
        <ele>2402.162109375</ele>
      </trkpt>
      <trkpt lat="9.0186232" lon="38.7478602">
        <ele>2402.357666015625</ele>
      </trkpt>
      <trkpt lat="9.0186162" lon="38.7478613">
        <ele>2402.19775390625</ele>
      </trkpt>
      <trkpt lat="9.0186092" lon="38.7478625">
        <ele>2401.88330078125</ele>
      </trkpt>
      <trkpt lat="9.0186022" lon="38.7478636">
        <ele>2401.6728515625</ele>
      </trkpt>
      <trkpt lat="9.0185952" lon="38.7478648">
        <ele>2401.33203125</ele>
      </trkpt>
      <trkpt lat="9.0185882" lon="38.7478659">
        <ele>2401.7001953125</ele>
      </trkpt>
      <trkpt lat="9.0185832" lon="38.747871">
        <ele>2401.560302734375</ele>
      </trkpt>
      <trkpt lat="9.0185782" lon="38.747876">
        <ele>2401.7978515625</ele>
      </trkpt>
      <trkpt lat="9.0185732" lon="38.7478811">
        <ele>2402.076416015625</ele>
      </trkpt>
      <trkpt lat="9.0185681" lon="38.7478861">
        <ele>2402.322998046875</ele>
      </trkpt>
      <trkpt lat="9.0185631" lon="38.7478912">
        <ele>2402.182373046875</ele>
      </trkpt>
      <trkpt lat="9.0185581" lon="38.7478962">
        <ele>2401.813232421875</ele>
      </trkpt>
      <trkpt lat="9.0185511" lon="38.7478951">
        <ele>2401.642822265625</ele>
      </trkpt>
      <trkpt lat="9.0185441" lon="38.7478939">
        <ele>2401.547607421875</ele>
      </trkpt>
      <trkpt lat="9.0185371" lon="38.7478928">
        <ele>2401.248046875</ele>
      </trkpt>
      <trkpt lat="9.0185301" lon="38.7478916">
        <ele>2401.037841796875</ele>
      </trkpt>
      <trkpt lat="9.0185231" lon="38.7478905">
        <ele>2400.83349609375</ele>
      </trkpt>
      <trkpt lat="9.0185161" lon="38.7478894">
        <ele>2400.5205078125</ele>
      </trkpt>
      <trkpt lat="9.0185091" lon="38.7478882">
        <ele>2400.443359375</ele>
      </trkpt>
      <trkpt lat="9.0185021" lon="38.7478871">
        <ele>2400.517333984375</ele>
      </trkpt>
      <trkpt lat="9.018495" lon="38.7478859">
        <ele>2400.341064453125</ele>
      </trkpt>
      <trkpt lat="9.018488" lon="38.7478848">
        <ele>2400.421630859375</ele>
      </trkpt>
      <trkpt lat="9.018481" lon="38.7478836">
        <ele>2400.7841796875</ele>
      </trkpt>
      <trkpt lat="9.018474" lon="38.7478825">
        <ele>2400.808349609375</ele>
      </trkpt>
      <trkpt lat="9.018467" lon="38.7478814">
        <ele>2400.989990234375</ele>
      </trkpt>
      <trkpt lat="9.01846" lon="38.7478802">
        <ele>2401.225341796875</ele>
      </trkpt>
      <trkpt lat="9.018467" lon="38.7478814">
        <ele>2401.56103515625</ele>
      </trkpt>
      <trkpt lat="9.018474" lon="38.7478825">
        <ele>2401.25244140625</ele>
      </trkpt>
      <trkpt lat="9.018481" lon="38.7478836">
        <ele>2401.330078125</ele>
      </trkpt>
      <trkpt lat="9.018488" lon="38.7478848">
        <ele>2400.987060546875</ele>
      </trkpt>
      <trkpt lat="9.018495" lon="38.7478859">
        <ele>2401.03759765625</ele>
      </trkpt>
      <trkpt lat="9.0185021" lon="38.7478871">
        <ele>2401.207763671875</ele>
      </trkpt>
      <trkpt lat="9.0185091" lon="38.7478882">
        <ele>2401.44677734375</ele>
      </trkpt>
      <trkpt lat="9.0185161" lon="38.7478894">
        <ele>2401.659423828125</ele>
      </trkpt>
      <trkpt lat="9.0185231" lon="38.7478905">
        <ele>2401.3251953125</ele>
      </trkpt>
      <trkpt lat="9.0185301" lon="38.7478916">
        <ele>2401.717041015625</ele>
      </trkpt>
      <trkpt lat="9.0185231" lon="38.7478905">
        <ele>2401.945068359375</ele>
      </trkpt>
      <trkpt lat="9.0185161" lon="38.7478894">
        <ele>2402.150146484375</ele>
      </trkpt>
      <trkpt lat="9.0185091" lon="38.7478882">
        <ele>2401.946533203125</ele>
      </trkpt>
      <trkpt lat="9.0185021" lon="38.7478871">
        <ele>2401.7802734375</ele>
      </trkpt>
      <trkpt lat="9.018495" lon="38.7478859">
        <ele>2402.07666015625</ele>
      </trkpt>
      <trkpt lat="9.018488" lon="38.7478848">
        <ele>2401.70458984375</ele>
      </trkpt>
      <trkpt lat="9.018481" lon="38.7478836">
        <ele>2401.538330078125</ele>
      </trkpt>
      <trkpt lat="9.018474" lon="38.7478825">
        <ele>2401.180908203125</ele>
      </trkpt>
      <trkpt lat="9.018479" lon="38.7478775">
        <ele>2401.412841796875</ele>
      </trkpt>
      <trkpt lat="9.0184841" lon="38.7478724">
        <ele>2401.537353515625</ele>
      </trkpt>
      <trkpt lat="9.0184891" lon="38.7478674">
        <ele>2401.438232421875</ele>
      </trkpt>
      <trkpt lat="9.0184941" lon="38.7478623">
        <ele>2401.4580078125</ele>
      </trkpt>
      <trkpt lat="9.0184991" lon="38.7478573">
        <ele>2401.767333984375</ele>
      </trkpt>
      <trkpt lat="9.0185041" lon="38.7478522">
        <ele>2402.067138671875</ele>
      </trkpt>
      <trkpt lat="9.0185092" lon="38.7478472">
        <ele>2401.835205078125</ele>
      </trkpt>
      <trkpt lat="9.0185142" lon="38.7478421">
        <ele>2402.016845703125</ele>
      </trkpt>
      <trkpt lat="9.018513" lon="38.7478492">
        <ele>2401.722412109375</ele>
      </trkpt>
      <trkpt lat="9.0185119" lon="38.7478562">
        <ele>2401.334716796875</ele>
      </trkpt>
      <trkpt lat="9.0185108" lon="38.7478633">
        <ele>2401.293701171875</ele>
      </trkpt>
      <trkpt lat="9.0185096" lon="38.7478703">
        <ele>2401.48486328125</ele>
      </trkpt>
      <trkpt lat="9.0185085" lon="38.7478774">
        <ele>2401.1767578125</ele>
      </trkpt>
      <trkpt lat="9.0185074" lon="38.7478844">
        <ele>2401.375244140625</ele>
      </trkpt>
      <trkpt lat="9.0185062" lon="38.7478915">
        <ele>2401.125</ele>
      </trkpt>
      <trkpt lat="9.0185051" lon="38.7478985">
        <ele>2400.99658203125</ele>
      </trkpt>
      <trkpt lat="9.018504" lon="38.7479055">
        <ele>2400.978271484375</ele>
      </trkpt>
      <trkpt lat="9.0185028" lon="38.7479126">
        <ele>2401.04443359375</ele>
      </trkpt>
      <trkpt lat="9.0185017" lon="38.7479196">
        <ele>2400.752197265625</ele>
      </trkpt>
      <trkpt lat="9.0185067" lon="38.7479146">
        <ele>2400.5712890625</ele>
      </trkpt>
      <trkpt lat="9.0185117" lon="38.7479095">
        <ele>2400.629638671875</ele>
      </trkpt>
      <trkpt lat="9.0185168" lon="38.7479045">
        <ele>2400.39404296875</ele>
      </trkpt>
      <trkpt lat="9.0185218" lon="38.7478995">
        <ele>2399.99853515625</ele>
      </trkpt>
      <trkpt lat="9.0185268" lon="38.7478944">
        <ele>2399.6201171875</ele>
      </trkpt>
      <trkpt lat="9.0185318" lon="38.7478894">
        <ele>2399.94140625</ele>
      </trkpt>
      <trkpt lat="9.0185368" lon="38.7478843">
        <ele>2399.8154296875</ele>
      </trkpt>
      <trkpt lat="9.0185357" lon="38.7478773">
        <ele>2399.49365234375</ele>
      </trkpt>
      <trkpt lat="9.0185346" lon="38.7478702">
        <ele>2399.266845703125</ele>
      </trkpt>
      <trkpt lat="9.0185334" lon="38.7478632">
        <ele>2399.390625</ele>
      </trkpt>
      <trkpt lat="9.0185323" lon="38.7478561">
        <ele>2399.2568359375</ele>
      </trkpt>
      <trkpt lat="9.0185312" lon="38.7478491">
        <ele>2399.23681640625</ele>
      </trkpt>
      <trkpt lat="9.01853" lon="38.747842">
        <ele>2399.2578125</ele>
      </trkpt>
      <trkpt lat="9.0185289" lon="38.747835">
        <ele>2399.33056640625</ele>
      </trkpt>
      <trkpt lat="9.0185278" lon="38.7478279">
        <ele>2399.376708984375</ele>
      </trkpt>
      <trkpt lat="9.0185289" lon="38.7478209">
        <ele>2399.248046875</ele>
      </trkpt>
      <trkpt lat="9.01853" lon="38.7478138">
        <ele>2399.37158203125</ele>
      </trkpt>
      <trkpt lat="9.0185312" lon="38.7478068">
        <ele>2399.302001953125</ele>
      </trkpt>
      <trkpt lat="9.0185323" lon="38.7477997">
        <ele>2399.203369140625</ele>
      </trkpt>
      <trkpt lat="9.0185334" lon="38.7477927">
        <ele>2399.54931640625</ele>
      </trkpt>
      <trkpt lat="9.0185346" lon="38.7477856">
        <ele>2399.747314453125</ele>
      </trkpt>
      <trkpt lat="9.0185357" lon="38.7477786">
        <ele>2400.063232421875</ele>
      </trkpt>
      <trkpt lat="9.0185368" lon="38.7477715">
        <ele>2400.302001953125</ele>
      </trkpt>
      <trkpt lat="9.018538" lon="38.7477645">
        <ele>2400.06298828125</ele>
      </trkpt>
      <trkpt lat="9.0185391" lon="38.7477574">
        <ele>2400.35595703125</ele>
      </trkpt>
      <trkpt lat="9.0185461" lon="38.7477586">
        <ele>2400.375</ele>
      </trkpt>
      <trkpt lat="9.0185531" lon="38.7477597">
        <ele>2400.589599609375</ele>
      </trkpt>
      <trkpt lat="9.0185601" lon="38.7477609">
        <ele>2400.71533203125</ele>
      </trkpt>
      <trkpt lat="9.0185671" lon="38.747762">
        <ele>2400.9501953125</ele>
      </trkpt>
      <trkpt lat="9.0185741" lon="38.7477632">
        <ele>2400.927001953125</ele>
      </trkpt>
      <trkpt lat="9.0185811" lon="38.7477643">
        <ele>2400.563720703125</ele>
      </trkpt>
      <trkpt lat="9.0185761" lon="38.7477693">
        <ele>2400.411376953125</ele>
      </trkpt>
      <trkpt lat="9.0185711" lon="38.7477744">
        <ele>2400.7509765625</ele>
      </trkpt>
      <trkpt lat="9.0185661" lon="38.7477794">
        <ele>2400.47900390625</ele>
      </trkpt>
      <trkpt lat="9.0185611" lon="38.7477845">
        <ele>2400.6640625</ele>
      </trkpt>
      <trkpt lat="9.018556" lon="38.7477895">
        <ele>2400.799072265625</ele>
      </trkpt>
      <trkpt lat="9.018551" lon="38.7477946">
        <ele>2400.7529296875</ele>
      </trkpt>
      <trkpt lat="9.018546" lon="38.7477996">
        <ele>2401.063720703125</ele>
      </trkpt>
      <trkpt lat="9.018541" lon="38.7478047">
        <ele>2400.999267578125</ele>
      </trkpt>
      <trkpt lat="9.018536" lon="38.7478097">
        <ele>2400.91015625</ele>
      </trkpt>
      <trkpt lat="9.0185309" lon="38.7478148">
        <ele>2400.765869140625</ele>
      </trkpt>
      <trkpt lat="9.0185259" lon="38.7478198">
        <ele>2400.780029296875</ele>
      </trkpt>
      <trkpt lat="9.0185209" lon="38.7478249">
        <ele>2401.038818359375</ele>
      </trkpt>
      <trkpt lat="9.0185159" lon="38.7478299">
        <ele>2400.950439453125</ele>
      </trkpt>
      <trkpt lat="9.0185109" lon="38.747835">
        <ele>2401.212158203125</ele>
      </trkpt>
      <trkpt lat="9.0185039" lon="38.7478338">
        <ele>2401.104736328125</ele>
      </trkpt>
      <trkpt lat="9.0184969" lon="38.7478327">
        <ele>2401.018798828125</ele>
      </trkpt>
      <trkpt lat="9.0184899" lon="38.7478315">
        <ele>2401.28564453125</ele>
      </trkpt>
      <trkpt lat="9.0184828" lon="38.7478304">
        <ele>2401.203369140625</ele>
      </trkpt>
      <trkpt lat="9.0184758" lon="38.7478293">
        <ele>2401.117431640625</ele>
      </trkpt>
      <trkpt lat="9.0184688" lon="38.7478281">
        <ele>2401.4599609375</ele>
      </trkpt>
      <trkpt lat="9.0184618" lon="38.747827">
        <ele>2401.630615234375</ele>
      </trkpt>
      <trkpt lat="9.0184548" lon="38.7478258">
        <ele>2401.59326171875</ele>
      </trkpt>
      <trkpt lat="9.0184478" lon="38.7478247">
        <ele>2401.807373046875</ele>
      </trkpt>
      <trkpt lat="9.0184408" lon="38.7478236">
        <ele>2401.683837890625</ele>
      </trkpt>
      <trkpt lat="9.0184338" lon="38.7478224">
        <ele>2401.452392578125</ele>
      </trkpt>
      <trkpt lat="9.0184268" lon="38.7478213">
        <ele>2401.834228515625</ele>
      </trkpt>
      <trkpt lat="9.0184198" lon="38.7478201">
        <ele>2401.8115234375</ele>
      </trkpt>
      <trkpt lat="9.0184209" lon="38.7478272">
        <ele>2401.735595703125</ele>
      </trkpt>
      <trkpt lat="9.0184221" lon="38.7478342">
        <ele>2401.83740234375</ele>
      </trkpt>
      <trkpt lat="9.0184232" lon="38.7478413">
        <ele>2401.937744140625</ele>
      </trkpt>
      <trkpt lat="9.0184243" lon="38.7478483">
        <ele>2402.136962890625</ele>
      </trkpt>
      <trkpt lat="9.0184255" lon="38.7478554">
        <ele>2402.31591796875</ele>
      </trkpt>
      <trkpt lat="9.0184266" lon="38.7478624">
        <ele>2402.177001953125</ele>
      </trkpt>
      <trkpt lat="9.0184277" lon="38.7478695">
        <ele>2402.07861328125</ele>
      </trkpt>
      <trkpt lat="9.0184289" lon="38.7478765">
        <ele>2402.3798828125</ele>
      </trkpt>
      <trkpt lat="9.01843" lon="38.7478836">
        <ele>2402.598388671875</ele>
      </trkpt>
      <trkpt lat="9.0184311" lon="38.7478906">
        <ele>2402.48583984375</ele>
      </trkpt>
      <trkpt lat="9.0184323" lon="38.7478977">
        <ele>2402.568359375</ele>
      </trkpt>
      <trkpt lat="9.0184334" lon="38.7479047">
        <ele>2402.716796875</ele>
      </trkpt>
      <trkpt lat="9.0184323" lon="38.7479118">
        <ele>2402.73583984375</ele>
      </trkpt>
      <trkpt lat="9.0184311" lon="38.7479188">
        <ele>2402.96728515625</ele>
      </trkpt>
      <trkpt lat="9.01843" lon="38.7479258">
        <ele>2403.192626953125</ele>
      </trkpt>
      <trkpt lat="9.0184289" lon="38.7479329">
        <ele>2403.071533203125</ele>
      </trkpt>
      <trkpt lat="9.0184277" lon="38.7479399">
        <ele>2403.02783203125</ele>
      </trkpt>
      <trkpt lat="9.0184266" lon="38.747947">
        <ele>2403.320068359375</ele>
      </trkpt>
      <trkpt lat="9.0184255" lon="38.747954">
        <ele>2403.4033203125</ele>
      </trkpt>
      <trkpt lat="9.0184243" lon="38.7479611">
        <ele>2403.296630859375</ele>
      </trkpt>
      <trkpt lat="9.0184232" lon="38.7479681">
        <ele>2403.5712890625</ele>
      </trkpt>
      <trkpt lat="9.0184221" lon="38.7479752">
        <ele>2403.71044921875</ele>
      </trkpt>
      <trkpt lat="9.0184209" lon="38.7479822">
        <ele>2403.31103515625</ele>
      </trkpt>
      <trkpt lat="9.0184221" lon="38.7479893">
        <ele>2403.165283203125</ele>
      </trkpt>
      <trkpt lat="9.0184232" lon="38.7479963">
        <ele>2403.443359375</ele>
      </trkpt>
      <trkpt lat="9.0184243" lon="38.7480034">
        <ele>2403.50830078125</ele>
      </trkpt>
      <trkpt lat="9.0184255" lon="38.7480104">
        <ele>2403.70751953125</ele>
      </trkpt>
      <trkpt lat="9.0184266" lon="38.7480175">
        <ele>2403.786865234375</ele>
      </trkpt>
      <trkpt lat="9.0184277" lon="38.7480245">
        <ele>2403.99658203125</ele>
      </trkpt>
      <trkpt lat="9.0184289" lon="38.7480316">
        <ele>2403.725830078125</ele>
      </trkpt>
      <trkpt lat="9.01843" lon="38.7480386">
        <ele>2403.671875</ele>
      </trkpt>
      <trkpt lat="9.018437" lon="38.7480398">
        <ele>2403.629638671875</ele>
      </trkpt>
      <trkpt lat="9.018444" lon="38.7480409">
        <ele>2403.605224609375</ele>
      </trkpt>
      <trkpt lat="9.018451" lon="38.748042">
        <ele>2403.875732421875</ele>
      </trkpt>
      <trkpt lat="9.018458" lon="38.7480432">
        <ele>2403.49951171875</ele>
      </trkpt>
      <trkpt lat="9.018465" lon="38.7480443">
        <ele>2403.568359375</ele>
      </trkpt>
      <trkpt lat="9.018472" lon="38.7480455">
        <ele>2403.6640625</ele>
      </trkpt>
      <trkpt lat="9.0184732" lon="38.7480525">
        <ele>2403.37939453125</ele>
      </trkpt>
      <trkpt lat="9.0184743" lon="38.7480596">
        <ele>2403.532958984375</ele>
      </trkpt>
      <trkpt lat="9.0184754" lon="38.7480666">
        <ele>2403.140869140625</ele>
      </trkpt>
      <trkpt lat="9.0184766" lon="38.7480737">
        <ele>2403.263671875</ele>
      </trkpt>
      <trkpt lat="9.0184777" lon="38.7480807">
        <ele>2403.22265625</ele>
      </trkpt>
      <trkpt lat="9.0184789" lon="38.7480877">
        <ele>2403.486572265625</ele>
      </trkpt>
      <trkpt lat="9.01848" lon="38.7480948">
        <ele>2403.27734375</ele>
      </trkpt>
      <trkpt lat="9.0184811" lon="38.7481018">
        <ele>2402.9375</ele>
      </trkpt>
      <trkpt lat="9.0184823" lon="38.7481089">
        <ele>2403.06103515625</ele>
      </trkpt>
      <trkpt lat="9.0184834" lon="38.7481159">
        <ele>2403.017822265625</ele>
      </trkpt>
      <trkpt lat="9.0184823" lon="38.748123">
        <ele>2403.0244140625</ele>
      </trkpt>
      <trkpt lat="9.0184811" lon="38.74813">
        <ele>2402.84130859375</ele>
      </trkpt>
      <trkpt lat="9.01848" lon="38.7481371">
        <ele>2402.482666015625</ele>
      </trkpt>
      <trkpt lat="9.0184789" lon="38.7481441">
        <ele>2402.66943359375</ele>
      </trkpt>
      <trkpt lat="9.0184777" lon="38.7481512">
        <ele>2402.302978515625</ele>
      </trkpt>
      <trkpt lat="9.0184766" lon="38.7481582">
        <ele>2401.955810546875</ele>
      </trkpt>
      <trkpt lat="9.0184754" lon="38.7481653">
        <ele>2401.67529296875</ele>
      </trkpt>
      <trkpt lat="9.0184743" lon="38.7481723">
        <ele>2401.594970703125</ele>
      </trkpt>
      <trkpt lat="9.0184732" lon="38.7481794">
        <ele>2401.574951171875</ele>
      </trkpt>
      <trkpt lat="9.018472" lon="38.7481723">
        <ele>2401.883544921875</ele>
      </trkpt>
      <trkpt lat="9.0184709" lon="38.7481653">
        <ele>2401.685302734375</ele>
      </trkpt>
      <trkpt lat="9.0184698" lon="38.7481582">
        <ele>2401.683349609375</ele>
      </trkpt>
      <trkpt lat="9.0184686" lon="38.7481512">
        <ele>2401.410888671875</ele>
      </trkpt>
      <trkpt lat="9.0184675" lon="38.7481441">
        <ele>2401.11669921875</ele>
      </trkpt>
      <trkpt lat="9.0184664" lon="38.7481371">
        <ele>2401.39111328125</ele>
      </trkpt>
      <trkpt lat="9.0184652" lon="38.74813">
        <ele>2401.405517578125</ele>
      </trkpt>
      <trkpt lat="9.0184641" lon="38.748123">
        <ele>2401.499267578125</ele>
      </trkpt>
      <trkpt lat="9.018463" lon="38.7481159">
        <ele>2401.115478515625</ele>
      </trkpt>
      <trkpt lat="9.0184618" lon="38.7481089">
        <ele>2401.44970703125</ele>
      </trkpt>
      <trkpt lat="9.0184607" lon="38.7481018">
        <ele>2401.385498046875</ele>
      </trkpt>
      <trkpt lat="9.0184596" lon="38.7480948">
        <ele>2401.467529296875</ele>
      </trkpt>
      <trkpt lat="9.0184584" lon="38.7480877">
        <ele>2401.419189453125</ele>
      </trkpt>
      <trkpt lat="9.0184573" lon="38.7480807">
        <ele>2401.17626953125</ele>
      </trkpt>
      <trkpt lat="9.0184562" lon="38.7480737">
        <ele>2401.43603515625</ele>
      </trkpt>
      <trkpt lat="9.018455" lon="38.7480666">
        <ele>2401.7001953125</ele>
      </trkpt>
      <trkpt lat="9.0184539" lon="38.7480596">
        <ele>2401.452392578125</ele>
      </trkpt>
      <trkpt lat="9.0184528" lon="38.7480525">
        <ele>2401.556396484375</ele>
      </trkpt>
      <trkpt lat="9.0184516" lon="38.7480455">
        <ele>2401.853515625</ele>
      </trkpt>
      <trkpt lat="9.0184505" lon="38.7480384">
        <ele>2401.7822265625</ele>
      </trkpt>
      <trkpt lat="9.0184516" lon="38.7480455">
        <ele>2401.846435546875</ele>
      </trkpt>
      <trkpt lat="9.0184528" lon="38.7480525">
        <ele>2401.984130859375</ele>
      </trkpt>
      <trkpt lat="9.0184539" lon="38.7480596">
        <ele>2402.265380859375</ele>
      </trkpt>
      <trkpt lat="9.018455" lon="38.7480666">
        <ele>2402.025390625</ele>
      </trkpt>
      <trkpt lat="9.0184562" lon="38.7480737">
        <ele>2402.11083984375</ele>
      </trkpt>
      <trkpt lat="9.0184573" lon="38.7480807">
        <ele>2402.102783203125</ele>
      </trkpt>
      <trkpt lat="9.0184584" lon="38.7480877">
        <ele>2401.935791015625</ele>
      </trkpt>
      <trkpt lat="9.0184596" lon="38.7480948">
        <ele>2401.927490234375</ele>
      </trkpt>
      <trkpt lat="9.0184607" lon="38.7481018">
        <ele>2401.760009765625</ele>
      </trkpt>
      <trkpt lat="9.0184618" lon="38.7481089">
        <ele>2401.5478515625</ele>
      </trkpt>
      <trkpt lat="9.018463" lon="38.7481159">
        <ele>2401.149169921875</ele>
      </trkpt>
      <trkpt lat="9.0184641" lon="38.748123">
        <ele>2401.118408203125</ele>
      </trkpt>
      <trkpt lat="9.0184652" lon="38.74813">
        <ele>2401.24951171875</ele>
      </trkpt>
      <trkpt lat="9.0184664" lon="38.7481371">
        <ele>2400.896728515625</ele>
      </trkpt>
      <trkpt lat="9.0184675" lon="38.7481441">
        <ele>2400.731201171875</ele>
      </trkpt>
      <trkpt lat="9.0184745" lon="38.748143">
        <ele>2400.938720703125</ele>
      </trkpt>
      <trkpt lat="9.0184815" lon="38.7481418">
        <ele>2400.93896484375</ele>
      </trkpt>
      <trkpt lat="9.0184885" lon="38.7481407">
        <ele>2400.98046875</ele>
      </trkpt>
      <trkpt lat="9.0184955" lon="38.7481396">
        <ele>2401.185546875</ele>
      </trkpt>
      <trkpt lat="9.0185025" lon="38.7481384">
        <ele>2400.82275390625</ele>
      </trkpt>
      <trkpt lat="9.0185095" lon="38.7481373">
        <ele>2400.583984375</ele>
      </trkpt>
      <trkpt lat="9.0185165" lon="38.7481361">
        <ele>2400.60205078125</ele>
      </trkpt>
      <trkpt lat="9.0185236" lon="38.748135">
        <ele>2400.787109375</ele>
      </trkpt>
      <trkpt lat="9.0185306" lon="38.7481339">
        <ele>2401.174560546875</ele>
      </trkpt>
      <trkpt lat="9.0185376" lon="38.7481327">
        <ele>2400.917724609375</ele>
      </trkpt>
      <trkpt lat="9.0185446" lon="38.7481316">
        <ele>2401.208740234375</ele>
      </trkpt>
      <trkpt lat="9.0185516" lon="38.7481304">
        <ele>2401.3310546875</ele>
      </trkpt>
      <trkpt lat="9.0185466" lon="38.7481254">
        <ele>2401.607177734375</ele>
      </trkpt>
      <trkpt lat="9.0185415" lon="38.7481203">
        <ele>2401.6552734375</ele>
      </trkpt>
      <trkpt lat="9.0185365" lon="38.7481153">
        <ele>2402.010986328125</ele>
      </trkpt>
      <trkpt lat="9.0185315" lon="38.7481102">
        <ele>2401.8583984375</ele>
      </trkpt>
      <trkpt lat="9.0185265" lon="38.7481052">
        <ele>2401.476806640625</ele>
      </trkpt>
      <trkpt lat="9.0185215" lon="38.7481001">
        <ele>2401.105712890625</ele>
      </trkpt>
      <trkpt lat="9.0185164" lon="38.7480951">
        <ele>2400.767333984375</ele>
      </trkpt>
      <trkpt lat="9.0185114" lon="38.74809">
        <ele>2401.137451171875</ele>
      </trkpt>
      <trkpt lat="9.0185064" lon="38.748085">
        <ele>2401.338623046875</ele>
      </trkpt>
      <trkpt lat="9.0185014" lon="38.7480799">
        <ele>2401.4697265625</ele>
      </trkpt>
      <trkpt lat="9.0184964" lon="38.7480749">
        <ele>2401.3203125</ele>
      </trkpt>
      <trkpt lat="9.0184914" lon="38.7480698">
        <ele>2401.49365234375</ele>
      </trkpt>
      <trkpt lat="9.0184984" lon="38.7480687">
        <ele>2401.756103515625</ele>
      </trkpt>
      <trkpt lat="9.0185054" lon="38.7480676">
        <ele>2402.05810546875</ele>
      </trkpt>
      <trkpt lat="9.0185124" lon="38.7480664">
        <ele>2401.861083984375</ele>
      </trkpt>
      <trkpt lat="9.0185194" lon="38.7480653">
        <ele>2402.068115234375</ele>
      </trkpt>
      <trkpt lat="9.0185264" lon="38.7480641">
        <ele>2401.68310546875</ele>
      </trkpt>
      <trkpt lat="9.0185334" lon="38.748063">
        <ele>2401.39794921875</ele>
      </trkpt>
      <trkpt lat="9.0185404" lon="38.7480619">
        <ele>2401.521728515625</ele>
      </trkpt>
      <trkpt lat="9.0185474" lon="38.7480607">
        <ele>2401.89892578125</ele>
      </trkpt>
      <trkpt lat="9.0185544" lon="38.7480596">
        <ele>2402.271484375</ele>
      </trkpt>
      <trkpt lat="9.0185614" lon="38.7480584">
        <ele>2402.666015625</ele>
      </trkpt>
      <trkpt lat="9.0185684" lon="38.7480573">
        <ele>2402.92919921875</ele>
      </trkpt>
      <trkpt lat="9.0185696" lon="38.7480643">
        <ele>2403.009033203125</ele>
      </trkpt>
      <trkpt lat="9.0185707" lon="38.7480714">
        <ele>2403.184326171875</ele>
      </trkpt>
      <trkpt lat="9.0185718" lon="38.7480784">
        <ele>2403.2041015625</ele>
      </trkpt>
      <trkpt lat="9.018573" lon="38.7480855">
        <ele>2402.93896484375</ele>
      </trkpt>
      <trkpt lat="9.0185741" lon="38.7480925">
        <ele>2402.991943359375</ele>
      </trkpt>
      <trkpt lat="9.0185752" lon="38.7480996">
        <ele>2402.66552734375</ele>
      </trkpt>
      <trkpt lat="9.0185764" lon="38.7481066">
        <ele>2402.75634765625</ele>
      </trkpt>
      <trkpt lat="9.0185775" lon="38.7481137">
        <ele>2402.485107421875</ele>
      </trkpt>
      <trkpt lat="9.0185786" lon="38.7481207">
        <ele>2402.18603515625</ele>
      </trkpt>
      <trkpt lat="9.0185798" lon="38.7481278">
        <ele>2402.5244140625</ele>
      </trkpt>
      <trkpt lat="9.0185809" lon="38.7481348">
        <ele>2402.797607421875</ele>
      </trkpt>
      <trkpt lat="9.018582" lon="38.7481419">
        <ele>2403.0732421875</ele>
      </trkpt>
      <trkpt lat="9.018589" lon="38.7481407">
        <ele>2403.445556640625</ele>
      </trkpt>
      <trkpt lat="9.0185961" lon="38.7481396">
        <ele>2403.41064453125</ele>
      </trkpt>
      <trkpt lat="9.0186031" lon="38.7481384">
        <ele>2403.3828125</ele>
      </trkpt>
      <trkpt lat="9.0186101" lon="38.7481373">
        <ele>2403.235107421875</ele>
      </trkpt>
      <trkpt lat="9.0186171" lon="38.7481362">
        <ele>2403.217529296875</ele>
      </trkpt>
      <trkpt lat="9.0186241" lon="38.748135">
        <ele>2403.406982421875</ele>
      </trkpt>
      <trkpt lat="9.0186311" lon="38.7481339">
        <ele>2403.77294921875</ele>
      </trkpt>
      <trkpt lat="9.0186381" lon="38.7481327">
        <ele>2403.818603515625</ele>
      </trkpt>
      <trkpt lat="9.0186451" lon="38.7481339">
        <ele>2403.595947265625</ele>
      </trkpt>
      <trkpt lat="9.0186521" lon="38.748135">
        <ele>2403.31640625</ele>
      </trkpt>
      <trkpt lat="9.0186591" lon="38.7481362">
        <ele>2403.358154296875</ele>
      </trkpt>
      <trkpt lat="9.0186661" lon="38.7481373">
        <ele>2403.428955078125</ele>
      </trkpt>
      <trkpt lat="9.0186731" lon="38.7481384">
        <ele>2403.07861328125</ele>
      </trkpt>
      <trkpt lat="9.0186801" lon="38.7481396">
        <ele>2403.426513671875</ele>
      </trkpt>
      <trkpt lat="9.0186871" lon="38.7481407">
        <ele>2403.542724609375</ele>
      </trkpt>
      <trkpt lat="9.0186941" lon="38.7481419">
        <ele>2403.862060546875</ele>
      </trkpt>
      <trkpt lat="9.0187011" lon="38.748143">
        <ele>2403.626708984375</ele>
      </trkpt>
      <trkpt lat="9.0187082" lon="38.7481441">
        <ele>2403.8046875</ele>
      </trkpt>
      <trkpt lat="9.0187152" lon="38.7481453">
        <ele>2404.122314453125</ele>
      </trkpt>
      <trkpt lat="9.0187222" lon="38.7481464">
        <ele>2403.773681640625</ele>
      </trkpt>
      <trkpt lat="9.018721" lon="38.7481394">
        <ele>2403.704833984375</ele>
      </trkpt>
      <trkpt lat="9.0187199" lon="38.7481323">
        <ele>2403.609375</ele>
      </trkpt>
      <trkpt lat="9.0187188" lon="38.7481253">
        <ele>2403.7548828125</ele>
      </trkpt>
      <trkpt lat="9.0187176" lon="38.7481182">
        <ele>2403.669921875</ele>
      </trkpt>
      <trkpt lat="9.0187165" lon="38.7481112">
        <ele>2403.349609375</ele>
      </trkpt>
      <trkpt lat="9.0187154" lon="38.7481041">
        <ele>2403.215087890625</ele>
      </trkpt>
      <trkpt lat="9.0187142" lon="38.7480971">
        <ele>2402.83447265625</ele>
      </trkpt>
      <trkpt lat="9.0187131" lon="38.74809">
        <ele>2402.53759765625</ele>
      </trkpt>
      <trkpt lat="9.018712" lon="38.748083">
        <ele>2402.705078125</ele>
      </trkpt>
      <trkpt lat="9.018719" lon="38.7480841">
        <ele>2402.778564453125</ele>
      </trkpt>
      <trkpt lat="9.018726" lon="38.7480853">
        <ele>2402.464599609375</ele>
      </trkpt>
      <trkpt lat="9.018733" lon="38.7480864">
        <ele>2402.259033203125</ele>
      </trkpt>
      <trkpt lat="9.01874" lon="38.7480876">
        <ele>2401.9609375</ele>
      </trkpt>
      <trkpt lat="9.018747" lon="38.7480887">
        <ele>2401.749755859375</ele>
      </trkpt>
      <trkpt lat="9.018754" lon="38.7480899">
        <ele>2401.990966796875</ele>
      </trkpt>
      <trkpt lat="9.018761" lon="38.748091">
        <ele>2402.165771484375</ele>
      </trkpt>
      <trkpt lat="9.018768" lon="38.7480921">
        <ele>2402.473388671875</ele>
      </trkpt>
      <trkpt lat="9.018775" lon="38.7480933">
        <ele>2402.728759765625</ele>
      </trkpt>
      <trkpt lat="9.018782" lon="38.7480944">
        <ele>2402.7841796875</ele>
      </trkpt>
      <trkpt lat="9.018789" lon="38.7480956">
        <ele>2402.663818359375</ele>
      </trkpt>
      <trkpt lat="9.018784" lon="38.7480905">
        <ele>2402.804443359375</ele>
      </trkpt>
      <trkpt lat="9.018779" lon="38.7480855">
        <ele>2402.575927734375</ele>
      </trkpt>
      <trkpt lat="9.018774" lon="38.7480804">
        <ele>2402.45166015625</ele>
      </trkpt>
      <trkpt lat="9.0187689" lon="38.7480754">
        <ele>2402.590576171875</ele>
      </trkpt>
      <trkpt lat="9.0187639" lon="38.7480703">
        <ele>2402.649169921875</ele>
      </trkpt>
      <trkpt lat="9.0187589" lon="38.7480653">
        <ele>2402.70068359375</ele>
      </trkpt>
      <trkpt lat="9.0187659" lon="38.7480664">
        <ele>2402.486572265625</ele>
      </trkpt>
      <trkpt lat="9.0187729" lon="38.7480676">
        <ele>2402.13671875</ele>
      </trkpt>
      <trkpt lat="9.0187799" lon="38.7480687">
        <ele>2401.9970703125</ele>
      </trkpt>
      <trkpt lat="9.0187869" lon="38.7480698">
        <ele>2401.818603515625</ele>
      </trkpt>
      <trkpt lat="9.0187939" lon="38.748071">
        <ele>2402.074462890625</ele>
      </trkpt>
      <trkpt lat="9.0188009" lon="38.7480721">
        <ele>2402.442626953125</ele>
      </trkpt>
      <trkpt lat="9.018808" lon="38.7480733">
        <ele>2402.689697265625</ele>
      </trkpt>
      <trkpt lat="9.018815" lon="38.7480744">
        <ele>2402.42431640625</ele>
      </trkpt>
      <trkpt lat="9.018822" lon="38.7480755">
        <ele>2402.10986328125</ele>
      </trkpt>
      <trkpt lat="9.018829" lon="38.7480767">
        <ele>2401.86572265625</ele>
      </trkpt>
      <trkpt lat="9.018836" lon="38.7480778">
        <ele>2401.632080078125</ele>
      </trkpt>
      <trkpt lat="9.018843" lon="38.748079">
        <ele>2401.8603515625</ele>
      </trkpt>
      <trkpt lat="9.01885" lon="38.7480801">
        <ele>2401.668701171875</ele>
      </trkpt>
      <trkpt lat="9.018855" lon="38.7480852">
        <ele>2402.055908203125</ele>
      </trkpt>
      <trkpt lat="9.01886" lon="38.7480902">
        <ele>2402.15283203125</ele>
      </trkpt>
      <trkpt lat="9.018865" lon="38.7480953">
        <ele>2401.9697265625</ele>
      </trkpt>
      <trkpt lat="9.0188701" lon="38.7481003">
        <ele>2402.32861328125</ele>
      </trkpt>
      <trkpt lat="9.0188751" lon="38.7481053">
        <ele>2402.378662109375</ele>
      </trkpt>
      <trkpt lat="9.0188801" lon="38.7481104">
        <ele>2402.107666015625</ele>
      </trkpt>
      <trkpt lat="9.018879" lon="38.7481033">
        <ele>2402.330810546875</ele>
      </trkpt>
      <trkpt lat="9.0188778" lon="38.7480963">
        <ele>2402.542724609375</ele>
      </trkpt>
      <trkpt lat="9.0188767" lon="38.7480893">
        <ele>2402.755126953125</ele>
      </trkpt>
      <trkpt lat="9.0188756" lon="38.7480822">
        <ele>2402.568115234375</ele>
      </trkpt>
      <trkpt lat="9.0188744" lon="38.7480752">
        <ele>2402.3046875</ele>
      </trkpt>
      <trkpt lat="9.0188733" lon="38.7480681">
        <ele>2401.96044921875</ele>
      </trkpt>
      <trkpt lat="9.0188722" lon="38.7480752">
        <ele>2401.665771484375</ele>
      </trkpt>
      <trkpt lat="9.018871" lon="38.7480822">
        <ele>2401.420654296875</ele>
      </trkpt>
      <trkpt lat="9.0188699" lon="38.7480893">
        <ele>2401.785400390625</ele>
      </trkpt>
      <trkpt lat="9.0188688" lon="38.7480963">
        <ele>2402.093505859375</ele>
      </trkpt>
      <trkpt lat="9.0188676" lon="38.7481033">
        <ele>2402.443359375</ele>
      </trkpt>
      <trkpt lat="9.0188665" lon="38.7481104">
        <ele>2402.3515625</ele>
      </trkpt>
      <trkpt lat="9.0188654" lon="38.7481174">
        <ele>2402.516357421875</ele>
      </trkpt>
      <trkpt lat="9.0188642" lon="38.7481245">
        <ele>2402.1591796875</ele>
      </trkpt>
      <trkpt lat="9.0188631" lon="38.7481315">
        <ele>2402.46044921875</ele>
      </trkpt>
      <trkpt lat="9.0188619" lon="38.7481386">
        <ele>2402.18017578125</ele>
      </trkpt>
      <trkpt lat="9.0188608" lon="38.7481456">
        <ele>2401.824951171875</ele>
      </trkpt>
      <trkpt lat="9.0188597" lon="38.7481527">
        <ele>2401.966796875</ele>
      </trkpt>
      <trkpt lat="9.0188585" lon="38.7481597">
        <ele>2401.7822265625</ele>
      </trkpt>
      <trkpt lat="9.0188574" lon="38.7481668">
        <ele>2401.821044921875</ele>
      </trkpt>
      <trkpt lat="9.0188504" lon="38.7481656">
        <ele>2401.89892578125</ele>
      </trkpt>
      <trkpt lat="9.0188434" lon="38.7481645">
        <ele>2402.184326171875</ele>
      </trkpt>
      <trkpt lat="9.0188364" lon="38.7481634">
        <ele>2402.499267578125</ele>
      </trkpt>
      <trkpt lat="9.0188294" lon="38.7481622">
        <ele>2402.254150390625</ele>
      </trkpt>
      <trkpt lat="9.0188224" lon="38.7481611">
        <ele>2402.30322265625</ele>
      </trkpt>
      <trkpt lat="9.0188154" lon="38.7481599">
        <ele>2402.254150390625</ele>
      </trkpt>
      <trkpt lat="9.0188084" lon="38.7481588">
        <ele>2402.1484375</ele>
      </trkpt>
      <trkpt lat="9.0188014" lon="38.7481576">
        <ele>2402.244140625</ele>
      </trkpt>
      <trkpt lat="9.0187944" lon="38.7481565">
        <ele>2402.123291015625</ele>
      </trkpt>
      <trkpt lat="9.0187873" lon="38.7481554">
        <ele>2402.321044921875</ele>
      </trkpt>
      <trkpt lat="9.0187803" lon="38.7481542">
        <ele>2401.946044921875</ele>
      </trkpt>
      <trkpt lat="9.0187733" lon="38.7481531">
        <ele>2401.682373046875</ele>
      </trkpt>
      <trkpt lat="9.0187663" lon="38.7481519">
        <ele>2402.079345703125</ele>
      </trkpt>
      <trkpt lat="9.0187593" lon="38.7481508">
        <ele>2402.07666015625</ele>
      </trkpt>
      <trkpt lat="9.0187523" lon="38.7481497">
        <ele>2401.781494140625</ele>
      </trkpt>
      <trkpt lat="9.0187453" lon="38.7481485">
        <ele>2401.90380859375</ele>
      </trkpt>
      <trkpt lat="9.0187383" lon="38.7481474">
        <ele>2401.550537109375</ele>
      </trkpt>
      <trkpt lat="9.0187313" lon="38.7481462">
        <ele>2401.417724609375</ele>
      </trkpt>
      <trkpt lat="9.0187243" lon="38.7481451">
        <ele>2401.771240234375</ele>
      </trkpt>
      <trkpt lat="9.0187173" lon="38.7481439">
        <ele>2401.475341796875</ele>
      </trkpt>
      <trkpt lat="9.0187103" lon="38.7481428">
        <ele>2401.149169921875</ele>
      </trkpt>
      <trkpt lat="9.0187033" lon="38.7481417">
        <ele>2401.5185546875</ele>
      </trkpt>
      <trkpt lat="9.0186963" lon="38.7481405">
        <ele>2401.3212890625</ele>
      </trkpt>
      <trkpt lat="9.0186951" lon="38.7481335">
        <ele>2401.03515625</ele>
      </trkpt>
      <trkpt lat="9.018694" lon="38.7481264">
        <ele>2401.03125</ele>
      </trkpt>
      <trkpt lat="9.0186929" lon="38.7481194">
        <ele>2401.228515625</ele>
      </trkpt>
      <trkpt lat="9.0186917" lon="38.7481123">
        <ele>2401.134033203125</ele>
      </trkpt>
      <trkpt lat="9.0186906" lon="38.7481053">
        <ele>2400.7978515625</ele>
      </trkpt>
      <trkpt lat="9.0186895" lon="38.7480982">
        <ele>2400.4326171875</ele>
      </trkpt>
      <trkpt lat="9.0186883" lon="38.7480912">
        <ele>2400.300537109375</ele>
      </trkpt>
      <trkpt lat="9.0186872" lon="38.7480841">
        <ele>2400.30029296875</ele>
      </trkpt>
      <trkpt lat="9.0186861" lon="38.7480771">
        <ele>2400.47705078125</ele>
      </trkpt>
      <trkpt lat="9.0186849" lon="38.74807">
        <ele>2400.12060546875</ele>
      </trkpt>
      <trkpt lat="9.0186779" lon="38.7480712">
        <ele>2400.136474609375</ele>
      </trkpt>
      <trkpt lat="9.0186709" lon="38.7480723">
        <ele>2399.7373046875</ele>
      </trkpt>
      <trkpt lat="9.0186639" lon="38.7480735">
        <ele>2399.688720703125</ele>
      </trkpt>
      <trkpt lat="9.0186569" lon="38.7480746">
        <ele>2399.3486328125</ele>
      </trkpt>
      <trkpt lat="9.0186499" lon="38.7480758">
        <ele>2399.2548828125</ele>
      </trkpt>
      <trkpt lat="9.0186429" lon="38.7480769">
        <ele>2399.358642578125</ele>
      </trkpt>
      <trkpt lat="9.0186479" lon="38.7480718">
        <ele>2399.43798828125</ele>
      </trkpt>
      <trkpt lat="9.0186529" lon="38.7480668">
        <ele>2399.268798828125</ele>
      </trkpt>
      <trkpt lat="9.0186579" lon="38.7480618">
        <ele>2399.51953125</ele>
      </trkpt>
      <trkpt lat="9.018663" lon="38.7480567">
        <ele>2399.62255859375</ele>
      </trkpt>
      <trkpt lat="9.018668" lon="38.7480517">
        <ele>2399.481689453125</ele>
      </trkpt>
      <trkpt lat="9.018673" lon="38.7480466">
        <ele>2399.793701171875</ele>
      </trkpt>
      <trkpt lat="9.018678" lon="38.7480416">
        <ele>2400.144287109375</ele>
      </trkpt>
      <trkpt lat="9.018683" lon="38.7480365">
        <ele>2400.23193359375</ele>
      </trkpt>
      <trkpt lat="9.018676" lon="38.7480377">
        <ele>2400.0419921875</ele>
      </trkpt>
      <trkpt lat="9.018669" lon="38.7480388">
        <ele>2399.769287109375</ele>
      </trkpt>
      <trkpt lat="9.018662" lon="38.7480399">
        <ele>2399.40283203125</ele>
      </trkpt>
      <trkpt lat="9.018655" lon="38.7480411">
        <ele>2399.409912109375</ele>
      </trkpt>
      <trkpt lat="9.018648" lon="38.7480422">
        <ele>2399.29736328125</ele>
      </trkpt>
      <trkpt lat="9.018641" lon="38.7480434">
        <ele>2399.54736328125</ele>
      </trkpt>
      <trkpt lat="9.018634" lon="38.7480445">
        <ele>2399.861572265625</ele>
      </trkpt>
      <trkpt lat="9.018627" lon="38.7480456">
        <ele>2399.78076171875</ele>
      </trkpt>
      <trkpt lat="9.01862" lon="38.7480468">
        <ele>2399.964599609375</ele>
      </trkpt>
      <trkpt lat="9.018613" lon="38.7480479">
        <ele>2399.6455078125</ele>
      </trkpt>
      <trkpt lat="9.0186141" lon="38.7480409">
        <ele>2399.7705078125</ele>
      </trkpt>
      <trkpt lat="9.0186152" lon="38.7480338">
        <ele>2400.003662109375</ele>
      </trkpt>
    </trkseg>
  </trk>
</gpx>
