<?xml version="1.0" encoding="UTF-8"?>
<gpx version="1.1" creator="plain route" xmlns="http://www.topografix.com/GPX/1/1">
  <trk>
    <name>Plain Route 5 kmh</name>
    <trkseg>
      <trkpt lat="9.018599" lon="38.747807">
        <ele>2394.900146484375</ele>
      </trkpt>
      <trkpt lat="9.018661" lon="38.747817">
        <ele>2395.13037109375</ele>
      </trkpt>
      <trkpt lat="9.018723" lon="38.747807">
        <ele>2395.470947265625</ele>
      </trkpt>
      <trkpt lat="9.018785" lon="38.747797">
        <ele>2395.703125</ele>
      </trkpt>
      <trkpt lat="9.018847" lon="38.747787">
        <ele>2395.6376953125</ele>
      </trkpt>
      <trkpt lat="9.018909" lon="38.747777">
        <ele>2395.595458984375</ele>
      </trkpt>
      <trkpt lat="9.018971" lon="38.747767">
        <ele>2395.902587890625</ele>
      </trkpt>
      <trkpt lat="9.018983" lon="38.747829">
        <ele>2395.607666015625</ele>
      </trkpt>
      <trkpt lat="9.018971" lon="38.747891">
        <ele>2395.859619140625</ele>
      </trkpt>
      <trkpt lat="9.018959" lon="38.747953">
        <ele>2396.133544921875</ele>
      </trkpt>
      <trkpt lat="9.018913" lon="38.747996">
        <ele>2396.46044921875</ele>
      </trkpt>
      <trkpt lat="9.018851" lon="38.747986">
        <ele>2396.511474609375</ele>
      </trkpt>
      <trkpt lat="9.018789" lon="38.747976">
        <ele>2396.63916015625</ele>
      </trkpt>
      <trkpt lat="9.018727" lon="38.747966">
        <ele>2396.871826171875</ele>
      </trkpt>
      <trkpt lat="9.018665" lon="38.747956">
        <ele>2397.14208984375</ele>
      </trkpt>
      <trkpt lat="9.018603" lon="38.747946">
        <ele>2397.458984375</ele>
      </trkpt>
      <trkpt lat="9.018541" lon="38.747936">
        <ele>2397.350830078125</ele>
      </trkpt>
      <trkpt lat="9.018479" lon="38.747926">
        <ele>2397.08154296875</ele>
      </trkpt>
      <trkpt lat="9.018417" lon="38.747916">
        <ele>2397.43115234375</ele>
      </trkpt>
      <trkpt lat="9.018355" lon="38.747906">
        <ele>2397.7021484375</ele>
      </trkpt>
      <trkpt lat="9.018293" lon="38.747896">
        <ele>2397.40771484375</ele>
      </trkpt>
      <trkpt lat="9.018231" lon="38.747886">
        <ele>2397.790771484375</ele>
      </trkpt>
      <trkpt lat="9.018169" lon="38.747876">
        <ele>2397.845703125</ele>
      </trkpt>
      <trkpt lat="9.018157" lon="38.747814">
        <ele>2397.463623046875</ele>
      </trkpt>
      <trkpt lat="9.018219" lon="38.747804">
        <ele>2397.220703125</ele>
      </trkpt>
      <trkpt lat="9.018281" lon="38.747794">
        <ele>2397.455078125</ele>
      </trkpt>
      <trkpt lat="9.018343" lon="38.747784">
        <ele>2397.832275390625</ele>
      </trkpt>
      <trkpt lat="9.018405" lon="38.747774">
        <ele>2397.900146484375</ele>
      </trkpt>
      <trkpt lat="9.018467" lon="38.747764">
        <ele>2397.866943359375</ele>
      </trkpt>
      <trkpt lat="9.018529" lon="38.747754">
        <ele>2397.765380859375</ele>
      </trkpt>
      <trkpt lat="9.018591" lon="38.747744">
        <ele>2397.900146484375</ele>
      </trkpt>
      <trkpt lat="9.018653" lon="38.747734">
        <ele>2397.900146484375</ele>
      </trkpt>
      <trkpt lat="9.018715" lon="38.747724">
        <ele>2397.900146484375</ele>
      </trkpt>
      <trkpt lat="9.018777" lon="38.747714">
        <ele>2397.590576171875</ele>
      </trkpt>
      <trkpt lat="9.018839" lon="38.747704">
        <ele>2397.900146484375</ele>
      </trkpt>
      <trkpt lat="9.018901" lon="38.747694">
        <ele>2397.900146484375</ele>
      </trkpt>
      <trkpt lat="9.018963" lon="38.747684">
        <ele>2397.900146484375</ele>
      </trkpt>
      <trkpt lat="9.018951" lon="38.747746">
        <ele>2397.900146484375</ele>
      </trkpt>
      <trkpt lat="9.018939" lon="38.747808">
        <ele>2397.900146484375</ele>
      </trkpt>
      <trkpt lat="9.018877" lon="38.747798">
        <ele>2397.900146484375</ele>
      </trkpt>
      <trkpt lat="9.018815" lon="38.747788">
        <ele>2397.785400390625</ele>
      </trkpt>
      <trkpt lat="9.018753" lon="38.747778">
        <ele>2397.890625</ele>
      </trkpt>
      <trkpt lat="9.018691" lon="38.747768">
        <ele>2397.900146484375</ele>
      </trkpt>
      <trkpt lat="9.018629" lon="38.747758">
        <ele>2397.900146484375</ele>
      </trkpt>
      <trkpt lat="9.018567" lon="38.747748">
        <ele>2397.6513671875</ele>
      </trkpt>
      <trkpt lat="9.018505" lon="38.747738">
        <ele>2397.43798828125</ele>
      </trkpt>
      <trkpt lat="9.018443" lon="38.747728">
        <ele>2397.51611328125</ele>
      </trkpt>
      <trkpt lat="9.018381" lon="38.747718">
        <ele>2397.843505859375</ele>
      </trkpt>
      <trkpt lat="9.018319" lon="38.747708">
        <ele>2397.900146484375</ele>
      </trkpt>
      <trkpt lat="9.018257" lon="38.747698">
        <ele>2397.900146484375</ele>
      </trkpt>
      <trkpt lat="9.018195" lon="38.747688">
        <ele>2397.81982421875</ele>
      </trkpt>
      <trkpt lat="9.018207" lon="38.747626">
        <ele>2397.861572265625</ele>
      </trkpt>
      <trkpt lat="9.018269" lon="38.747616">
        <ele>2397.7958984375</ele>
      </trkpt>
      <trkpt lat="9.018331" lon="38.747606">
        <ele>2397.846435546875</ele>
      </trkpt>
      <trkpt lat="9.018393" lon="38.747596">
        <ele>2397.818359375</ele>
      </trkpt>
      <trkpt lat="9.018455" lon="38.747586">
        <ele>2397.900146484375</ele>
      </trkpt>
      <trkpt lat="9.018517" lon="38.747576">
        <ele>2397.52783203125</ele>
      </trkpt>
      <trkpt lat="9.018579" lon="38.747566">
        <ele>2397.418701171875</ele>
      </trkpt>
      <trkpt lat="9.018641" lon="38.747556">
        <ele>2397.524169921875</ele>
      </trkpt>
      <trkpt lat="9.018703" lon="38.747546">
        <ele>2397.15283203125</ele>
      </trkpt>
      <trkpt lat="9.018765" lon="38.747536">
        <ele>2397.493408203125</ele>
      </trkpt>
      <trkpt lat="9.018827" lon="38.747526">
        <ele>2397.811279296875</ele>
      </trkpt>
      <trkpt lat="9.018889" lon="38.747516">
        <ele>2397.552001953125</ele>
      </trkpt>
      <trkpt lat="9.018951" lon="38.747526">
        <ele>2397.89501953125</ele>
      </trkpt>
      <trkpt lat="9.018939" lon="38.747588">
        <ele>2397.623291015625</ele>
      </trkpt>
      <trkpt lat="9.018893" lon="38.747631">
        <ele>2397.49755859375</ele>
      </trkpt>
      <trkpt lat="9.018831" lon="38.747621">
        <ele>2397.50537109375</ele>
      </trkpt>
      <trkpt lat="9.018769" lon="38.747611">
        <ele>2397.869140625</ele>
      </trkpt>
      <trkpt lat="9.018707" lon="38.747601">
        <ele>2397.900146484375</ele>
      </trkpt>
      <trkpt lat="9.018645" lon="38.747591">
        <ele>2397.6787109375</ele>
      </trkpt>
      <trkpt lat="9.018583" lon="38.747581">
        <ele>2397.82373046875</ele>
      </trkpt>
      <trkpt lat="9.018521" lon="38.747571">
        <ele>2397.757080078125</ele>
      </trkpt>
      <trkpt lat="9.018459" lon="38.747561">
        <ele>2397.900146484375</ele>
      </trkpt>
      <trkpt lat="9.018397" lon="38.747551">
        <ele>2397.63232421875</ele>
      </trkpt>
      <trkpt lat="9.018335" lon="38.747541">
        <ele>2397.772216796875</ele>
      </trkpt>
      <trkpt lat="9.018273" lon="38.747531">
        <ele>2397.701904296875</ele>
      </trkpt>
      <trkpt lat="9.018227" lon="38.747574">
        <ele>2397.638671875</ele>
      </trkpt>
      <trkpt lat="9.018215" lon="38.747636">
        <ele>2397.788818359375</ele>
      </trkpt>
      <trkpt lat="9.018203" lon="38.747698">
        <ele>2397.857421875</ele>
      </trkpt>
      <trkpt lat="9.018157" lon="38.747741">
        <ele>2397.900146484375</ele>
      </trkpt>
      <trkpt lat="9.018169" lon="38.747803">
        <ele>2397.900146484375</ele>
      </trkpt>
      <trkpt lat="9.018157" lon="38.747865">
        <ele>2397.900146484375</ele>
      </trkpt>
      <trkpt lat="9.018219" lon="38.747855">
        <ele>2397.505859375</ele>
      </trkpt>
      <trkpt lat="9.018281" lon="38.747845">
        <ele>2397.81494140625</ele>
      </trkpt>
      <trkpt lat="9.018343" lon="38.747835">
        <ele>2397.613525390625</ele>
      </trkpt>
      <trkpt lat="9.018405" lon="38.747825">
        <ele>2397.680419921875</ele>
      </trkpt>
      <trkpt lat="9.018467" lon="38.747815">
        <ele>2397.5673828125</ele>
      </trkpt>
      <trkpt lat="9.018529" lon="38.747805">
        <ele>2397.228515625</ele>
      </trkpt>
      <trkpt lat="9.018591" lon="38.747795">
        <ele>2397.31298828125</ele>
      </trkpt>
      <trkpt lat="9.018653" lon="38.747785">
        <ele>2397.32275390625</ele>
      </trkpt>
      <trkpt lat="9.018715" lon="38.747775">
        <ele>2397.341552734375</ele>
      </trkpt>
      <trkpt lat="9.018777" lon="38.747765">
        <ele>2397.679443359375</ele>
      </trkpt>
      <trkpt lat="9.018839" lon="38.747755">
        <ele>2397.900146484375</ele>
      </trkpt>
      <trkpt lat="9.018901" lon="38.747745">
        <ele>2397.6552734375</ele>
      </trkpt>
      <trkpt lat="9.018963" lon="38.747735">
        <ele>2397.82080078125</ele>
      </trkpt>
      <trkpt lat="9.018975" lon="38.747797">
        <ele>2397.880859375</ele>
      </trkpt>
      <trkpt lat="9.018987" lon="38.747859">
        <ele>2397.560302734375</ele>
      </trkpt>
      <trkpt lat="9.018975" lon="38.747921">
        <ele>2397.874755859375</ele>
      </trkpt>
      <trkpt lat="9.018963" lon="38.747983">
        <ele>2397.68603515625</ele>
      </trkpt>
      <trkpt lat="9.018901" lon="38.747973">
        <ele>2397.78515625</ele>
      </trkpt>
      <trkpt lat="9.018839" lon="38.747963">
        <ele>2397.7705078125</ele>
      </trkpt>
      <trkpt lat="9.018777" lon="38.747953">
        <ele>2397.83837890625</ele>
      </trkpt>
      <trkpt lat="9.018715" lon="38.747943">
        <ele>2397.900146484375</ele>
      </trkpt>
      <trkpt lat="9.018653" lon="38.747933">
        <ele>2397.900146484375</ele>
      </trkpt>
      <trkpt lat="9.018591" lon="38.747923">
        <ele>2397.765380859375</ele>
      </trkpt>
      <trkpt lat="9.018529" lon="38.747913">
        <ele>2397.8134765625</ele>
      </trkpt>
      <trkpt lat="9.018467" lon="38.747903">
        <ele>2397.900146484375</ele>
      </trkpt>
      <trkpt lat="9.018405" lon="38.747893">
        <ele>2397.787109375</ele>
      </trkpt>
      <trkpt lat="9.018343" lon="38.747883">
        <ele>2397.900146484375</ele>
      </trkpt>
      <trkpt lat="9.018281" lon="38.747873">
        <ele>2397.900146484375</ele>
      </trkpt>
      <trkpt lat="9.018219" lon="38.747863">
        <ele>2397.729736328125</ele>
      </trkpt>
      <trkpt lat="9.018157" lon="38.747853">
        <ele>2397.40576171875</ele>
      </trkpt>
      <trkpt lat="9.018169" lon="38.747791">
        <ele>2397.760009765625</ele>
      </trkpt>
      <trkpt lat="9.018231" lon="38.747781">
        <ele>2397.900146484375</ele>
      </trkpt>
      <trkpt lat="9.018293" lon="38.747771">
        <ele>2397.900146484375</ele>
      </trkpt>
      <trkpt lat="9.018355" lon="38.747761">
        <ele>2397.900146484375</ele>
      </trkpt>
      <trkpt lat="9.018417" lon="38.747751">
        <ele>2397.723388671875</ele>
      </trkpt>
      <trkpt lat="9.018479" lon="38.747741">
        <ele>2397.78466796875</ele>
      </trkpt>
      <trkpt lat="9.018541" lon="38.747731">
        <ele>2397.900146484375</ele>
      </trkpt>
      <trkpt lat="9.018603" lon="38.747721">
        <ele>2397.870849609375</ele>
      </trkpt>
      <trkpt lat="9.018665" lon="38.747711">
        <ele>2397.900146484375</ele>
      </trkpt>
      <trkpt lat="9.018727" lon="38.747701">
        <ele>2397.900146484375</ele>
      </trkpt>
      <trkpt lat="9.018789" lon="38.747691">
        <ele>2397.550537109375</ele>
      </trkpt>
      <trkpt lat="9.018851" lon="38.747681">
        <ele>2397.24853515625</ele>
      </trkpt>
      <trkpt lat="9.018913" lon="38.747671">
        <ele>2397.12158203125</ele>
      </trkpt>
      <trkpt lat="9.018975" lon="38.747661">
        <ele>2397.350341796875</ele>
      </trkpt>
      <trkpt lat="9.018987" lon="38.747723">
        <ele>2397.103759765625</ele>
      </trkpt>
      <trkpt lat="9.018925" lon="38.747713">
        <ele>2397.307861328125</ele>
      </trkpt>
      <trkpt lat="9.018863" lon="38.747703">
        <ele>2397.0009765625</ele>
      </trkpt>
      <trkpt lat="9.018801" lon="38.747693">
        <ele>2397.3232421875</ele>
      </trkpt>
      <trkpt lat="9.018739" lon="38.747683">
        <ele>2397.008544921875</ele>
      </trkpt>
      <trkpt lat="9.018677" lon="38.747673">
        <ele>2396.65869140625</ele>
      </trkpt>
      <trkpt lat="9.018615" lon="38.747663">
        <ele>2397.046630859375</ele>
      </trkpt>
      <trkpt lat="9.018553" lon="38.747653">
        <ele>2396.709716796875</ele>
      </trkpt>
      <trkpt lat="9.018491" lon="38.747643">
        <ele>2396.477294921875</ele>
      </trkpt>
      <trkpt lat="9.018429" lon="38.747633">
        <ele>2396.109375</ele>
      </trkpt>
      <trkpt lat="9.018367" lon="38.747623">
        <ele>2395.949951171875</ele>
      </trkpt>
      <trkpt lat="9.018305" lon="38.747613">
        <ele>2396.312744140625</ele>
      </trkpt>
      <trkpt lat="9.018243" lon="38.747603">
        <ele>2396.29443359375</ele>
      </trkpt>
      <trkpt lat="9.018231" lon="38.747665">
        <ele>2396.659912109375</ele>
      </trkpt>
      <trkpt lat="9.018219" lon="38.747727">
        <ele>2396.53125</ele>
      </trkpt>
      <trkpt lat="9.018157" lon="38.747717">
        <ele>2396.2568359375</ele>
      </trkpt>
      <trkpt lat="9.018169" lon="38.747779">
        <ele>2396.224609375</ele>
      </trkpt>
      <trkpt lat="9.018231" lon="38.747769">
        <ele>2396.166748046875</ele>
      </trkpt>
      <trkpt lat="9.018293" lon="38.747759">
        <ele>2395.838134765625</ele>
      </trkpt>
      <trkpt lat="9.018355" lon="38.747749">
        <ele>2395.505126953125</ele>
      </trkpt>
      <trkpt lat="9.018417" lon="38.747739">
        <ele>2395.228515625</ele>
      </trkpt>
      <trkpt lat="9.018479" lon="38.747729">
        <ele>2395.510986328125</ele>
      </trkpt>
      <trkpt lat="9.018541" lon="38.747719">
        <ele>2395.29296875</ele>
      </trkpt>
      <trkpt lat="9.018603" lon="38.747709">
        <ele>2395.2509765625</ele>
      </trkpt>
      <trkpt lat="9.018665" lon="38.747699">
        <ele>2395.335205078125</ele>
      </trkpt>
      <trkpt lat="9.018727" lon="38.747689">
        <ele>2395.61083984375</ele>
      </trkpt>
      <trkpt lat="9.018789" lon="38.747679">
        <ele>2395.796142578125</ele>
      </trkpt>
      <trkpt lat="9.018851" lon="38.747669">
        <ele>2396.1787109375</ele>
      </trkpt>
      <trkpt lat="9.018913" lon="38.747659">
        <ele>2395.910888671875</ele>
      </trkpt>
      <trkpt lat="9.018975" lon="38.747649">
        <ele>2396.170166015625</ele>
      </trkpt>
      <trkpt lat="9.018963" lon="38.747587">
        <ele>2396.086181640625</ele>
      </trkpt>
      <trkpt lat="9.018901" lon="38.747577">
        <ele>2396.348388671875</ele>
      </trkpt>
      <trkpt lat="9.018839" lon="38.747567">
        <ele>2396.296142578125</ele>
      </trkpt>
      <trkpt lat="9.018777" lon="38.747557">
        <ele>2396.41259765625</ele>
      </trkpt>
      <trkpt lat="9.018715" lon="38.747547">
        <ele>2396.01806640625</ele>
      </trkpt>
      <trkpt lat="9.018653" lon="38.747537">
        <ele>2396.20849609375</ele>
      </trkpt>
      <trkpt lat="9.018591" lon="38.747527">
        <ele>2396.4794921875</ele>
      </trkpt>
      <trkpt lat="9.018529" lon="38.747517">
        <ele>2396.799560546875</ele>
      </trkpt>
      <trkpt lat="9.018467" lon="38.747507">
        <ele>2396.95068359375</ele>
      </trkpt>
      <trkpt lat="9.018405" lon="38.747497">
        <ele>2397.331787109375</ele>
      </trkpt>
      <trkpt lat="9.018343" lon="38.747487">
        <ele>2397.436767578125</ele>
      </trkpt>
      <trkpt lat="9.018281" lon="38.747497">
        <ele>2397.6953125</ele>
      </trkpt>
      <trkpt lat="9.018343" lon="38.747507">
        <ele>2397.900146484375</ele>
      </trkpt>
      <trkpt lat="9.018405" lon="38.747497">
        <ele>2397.900146484375</ele>
      </trkpt>
      <trkpt lat="9.018467" lon="38.747487">
        <ele>2397.826171875</ele>
      </trkpt>
      <trkpt lat="9.018529" lon="38.747477">
        <ele>2397.7900390625</ele>
      </trkpt>
      <trkpt lat="9.018591" lon="38.747467">
        <ele>2397.723876953125</ele>
      </trkpt>
      <trkpt lat="9.018653" lon="38.747457">
        <ele>2397.335205078125</ele>
      </trkpt>
      <trkpt lat="9.018715" lon="38.747447">
        <ele>2397.087158203125</ele>
      </trkpt>
      <trkpt lat="9.018777" lon="38.747437">
        <ele>2397.37158203125</ele>
      </trkpt>
      <trkpt lat="9.018839" lon="38.747427">
        <ele>2397.26953125</ele>
      </trkpt>
      <trkpt lat="9.018777" lon="38.747417">
        <ele>2397.463134765625</ele>
      </trkpt>
      <trkpt lat="9.018715" lon="38.747407">
        <ele>2397.237548828125</ele>
      </trkpt>
      <trkpt lat="9.018653" lon="38.747397">
        <ele>2396.987548828125</ele>
      </trkpt>
      <trkpt lat="9.018591" lon="38.747387">
        <ele>2397.318603515625</ele>
      </trkpt>
      <trkpt lat="9.018529" lon="38.747377">
        <ele>2397.19482421875</ele>
      </trkpt>
      <trkpt lat="9.018467" lon="38.747387">
        <ele>2396.875</ele>
      </trkpt>
      <trkpt lat="9.018405" lon="38.747397">
        <ele>2396.5419921875</ele>
      </trkpt>
      <trkpt lat="9.018393" lon="38.747459">
        <ele>2396.536865234375</ele>
      </trkpt>
      <trkpt lat="9.018455" lon="38.747469">
        <ele>2396.19873046875</ele>
      </trkpt>
      <trkpt lat="9.018517" lon="38.747459">
        <ele>2396.1162109375</ele>
      </trkpt>
      <trkpt lat="9.018579" lon="38.747449">
        <ele>2396.27197265625</ele>
      </trkpt>
      <trkpt lat="9.018641" lon="38.747439">
        <ele>2395.907958984375</ele>
      </trkpt>
      <trkpt lat="9.018703" lon="38.747429">
        <ele>2395.747314453125</ele>
      </trkpt>
      <trkpt lat="9.018765" lon="38.747419">
        <ele>2395.86474609375</ele>
      </trkpt>
      <trkpt lat="9.018827" lon="38.747429">
        <ele>2396.130859375</ele>
      </trkpt>
      <trkpt lat="9.018873" lon="38.747472">
        <ele>2395.921142578125</ele>
      </trkpt>
      <trkpt lat="9.018885" lon="38.747534">
        <ele>2396.260986328125</ele>
      </trkpt>
      <trkpt lat="9.018947" lon="38.747524">
        <ele>2395.951904296875</ele>
      </trkpt>
      <trkpt lat="9.018935" lon="38.747586">
        <ele>2395.80908203125</ele>
      </trkpt>
      <trkpt lat="9.018873" lon="38.747596">
        <ele>2395.896484375</ele>
      </trkpt>
      <trkpt lat="9.018811" lon="38.747586">
        <ele>2395.657470703125</ele>
      </trkpt>
      <trkpt lat="9.018749" lon="38.747576">
        <ele>2395.75048828125</ele>
      </trkpt>
      <trkpt lat="9.018687" lon="38.747566">
        <ele>2395.516357421875</ele>
      </trkpt>
      <trkpt lat="9.018625" lon="38.747556">
        <ele>2395.27587890625</ele>
      </trkpt>
      <trkpt lat="9.018563" lon="38.747546">
        <ele>2395.634521484375</ele>
      </trkpt>
      <trkpt lat="9.018501" lon="38.747536">
        <ele>2395.2431640625</ele>
      </trkpt>
      <trkpt lat="9.018439" lon="38.747526">
        <ele>2394.964111328125</ele>
      </trkpt>
      <trkpt lat="9.018377" lon="38.747516">
        <ele>2395.172119140625</ele>
      </trkpt>
      <trkpt lat="9.018315" lon="38.747506">
        <ele>2395.55419921875</ele>
      </trkpt>
      <trkpt lat="9.018327" lon="38.747444">
        <ele>2395.66943359375</ele>
      </trkpt>
      <trkpt lat="9.018389" lon="38.747434">
        <ele>2395.476318359375</ele>
      </trkpt>
      <trkpt lat="9.018451" lon="38.747424">
        <ele>2395.503173828125</ele>
      </trkpt>
      <trkpt lat="9.018513" lon="38.747414">
        <ele>2395.67822265625</ele>
      </trkpt>
      <trkpt lat="9.018575" lon="38.747404">
        <ele>2395.455810546875</ele>
      </trkpt>
      <trkpt lat="9.018637" lon="38.747394">
        <ele>2395.591552734375</ele>
      </trkpt>
      <trkpt lat="9.018699" lon="38.747384">
        <ele>2395.283447265625</ele>
      </trkpt>
      <trkpt lat="9.018761" lon="38.747394">
        <ele>2395.652587890625</ele>
      </trkpt>
      <trkpt lat="9.018749" lon="38.747456">
        <ele>2395.294677734375</ele>
      </trkpt>
      <trkpt lat="9.018687" lon="38.747446">
        <ele>2394.938232421875</ele>
      </trkpt>
      <trkpt lat="9.018625" lon="38.747436">
        <ele>2394.688232421875</ele>
      </trkpt>
      <trkpt lat="9.018563" lon="38.747426">
        <ele>2394.513916015625</ele>
      </trkpt>
      <trkpt lat="9.018501" lon="38.747416">
        <ele>2394.223876953125</ele>
      </trkpt>
      <trkpt lat="9.018439" lon="38.747406">
        <ele>2394.59033203125</ele>
      </trkpt>
      <trkpt lat="9.018377" lon="38.747416">
        <ele>2394.904296875</ele>
      </trkpt>
      <trkpt lat="9.018365" lon="38.747478">
        <ele>2394.811279296875</ele>
      </trkpt>
      <trkpt lat="9.018319" lon="38.747521">
        <ele>2395.16015625</ele>
      </trkpt>
      <trkpt lat="9.018307" lon="38.747583">
        <ele>2395.39501953125</ele>
      </trkpt>
      <trkpt lat="9.018295" lon="38.747645">
        <ele>2395.028564453125</ele>
      </trkpt>
      <trkpt lat="9.018283" lon="38.747707">
        <ele>2395.18603515625</ele>
      </trkpt>
      <trkpt lat="9.018271" lon="38.747769">
        <ele>2395.263916015625</ele>
      </trkpt>
      <trkpt lat="9.018209" lon="38.747759">
        <ele>2395.446044921875</ele>
      </trkpt>
      <trkpt lat="9.018163" lon="38.747716">
        <ele>2395.590087890625</ele>
      </trkpt>
      <trkpt lat="9.018175" lon="38.747654">
        <ele>2395.48583984375</ele>
      </trkpt>
      <trkpt lat="9.018237" lon="38.747644">
        <ele>2395.836181640625</ele>
      </trkpt>
      <trkpt lat="9.018299" lon="38.747634">
        <ele>2396.101806640625</ele>
      </trkpt>
      <trkpt lat="9.018361" lon="38.747624">
        <ele>2395.707275390625</ele>
      </trkpt>
      <trkpt lat="9.018423" lon="38.747614">
        <ele>2395.3408203125</ele>
      </trkpt>
      <trkpt lat="9.018485" lon="38.747604">
        <ele>2395.09375</ele>
      </trkpt>
      <trkpt lat="9.018547" lon="38.747594">
        <ele>2394.72216796875</ele>
      </trkpt>
      <trkpt lat="9.018609" lon="38.747584">
        <ele>2395.080078125</ele>
      </trkpt>
      <trkpt lat="9.018671" lon="38.747574">
        <ele>2395.45458984375</ele>
      </trkpt>
      <trkpt lat="9.018733" lon="38.747564">
        <ele>2395.52099609375</ele>
      </trkpt>
      <trkpt lat="9.018795" lon="38.747554">
        <ele>2395.56689453125</ele>
      </trkpt>
      <trkpt lat="9.018857" lon="38.747544">
        <ele>2395.39208984375</ele>
      </trkpt>
      <trkpt lat="9.018919" lon="38.747534">
        <ele>2395.30126953125</ele>
      </trkpt>
      <trkpt lat="9.018931" lon="38.747596">
        <ele>2395.61474609375</ele>
      </trkpt>
      <trkpt lat="9.018869" lon="38.747586">
        <ele>2395.7177734375</ele>
      </trkpt>
      <trkpt lat="9.018807" lon="38.747576">
        <ele>2395.59619140625</ele>
      </trkpt>
      <trkpt lat="9.018745" lon="38.747566">
        <ele>2395.418701171875</ele>
      </trkpt>
      <trkpt lat="9.018683" lon="38.747556">
        <ele>2395.26416015625</ele>
      </trkpt>
      <trkpt lat="9.018621" lon="38.747546">
        <ele>2395.48046875</ele>
      </trkpt>
      <trkpt lat="9.018559" lon="38.747536">
        <ele>2395.567626953125</ele>
      </trkpt>
      <trkpt lat="9.018497" lon="38.747526">
        <ele>2395.34619140625</ele>
      </trkpt>
      <trkpt lat="9.018435" lon="38.747516">
        <ele>2395.731689453125</ele>
      </trkpt>
      <trkpt lat="9.018373" lon="38.747506">
        <ele>2395.45166015625</ele>
      </trkpt>
      <trkpt lat="9.018311" lon="38.747496">
        <ele>2395.165283203125</ele>
      </trkpt>
      <trkpt lat="9.018299" lon="38.747558">
        <ele>2395.4775390625</ele>
      </trkpt>
      <trkpt lat="9.018345" lon="38.747601">
        <ele>2395.79443359375</ele>
      </trkpt>
      <trkpt lat="9.018407" lon="38.747591">
        <ele>2396.151123046875</ele>
      </trkpt>
      <trkpt lat="9.018469" lon="38.747581">
        <ele>2396.18115234375</ele>
      </trkpt>
      <trkpt lat="9.018531" lon="38.747571">
        <ele>2395.899169921875</ele>
      </trkpt>
      <trkpt lat="9.018593" lon="38.747561">
        <ele>2396.22412109375</ele>
      </trkpt>
      <trkpt lat="9.018655" lon="38.747551">
        <ele>2396.608642578125</ele>
      </trkpt>
      <trkpt lat="9.018717" lon="38.747541">
        <ele>2396.6220703125</ele>
      </trkpt>
      <trkpt lat="9.018779" lon="38.747531">
        <ele>2397.01318359375</ele>
      </trkpt>
      <trkpt lat="9.018841" lon="38.747521">
        <ele>2396.97216796875</ele>
      </trkpt>
      <trkpt lat="9.018903" lon="38.747511">
        <ele>2397.293701171875</ele>
      </trkpt>
      <trkpt lat="9.018857" lon="38.747468">
        <ele>2397.302490234375</ele>
      </trkpt>
      <trkpt lat="9.018811" lon="38.747425">
        <ele>2396.973876953125</ele>
      </trkpt>
      <trkpt lat="9.018749" lon="38.747415">
        <ele>2397.040771484375</ele>
      </trkpt>
      <trkpt lat="9.018687" lon="38.747405">
        <ele>2397.282470703125</ele>
      </trkpt>
      <trkpt lat="9.018625" lon="38.747395">
        <ele>2397.328369140625</ele>
      </trkpt>
      <trkpt lat="9.018563" lon="38.747385">
        <ele>2396.954833984375</ele>
      </trkpt>
      <trkpt lat="9.018501" lon="38.747375">
        <ele>2396.763427734375</ele>
      </trkpt>
      <trkpt lat="9.018439" lon="38.747385">
        <ele>2396.59033203125</ele>
      </trkpt>
      <trkpt lat="9.018427" lon="38.747447">
        <ele>2396.54150390625</ele>
      </trkpt>
      <trkpt lat="9.018365" lon="38.747437">
        <ele>2396.14990234375</ele>
      </trkpt>
      <trkpt lat="9.018427" lon="38.747427">
        <ele>2395.904541015625</ele>
      </trkpt>
      <trkpt lat="9.018489" lon="38.747417">
        <ele>2395.992431640625</ele>
      </trkpt>
      <trkpt lat="9.018551" lon="38.747407">
        <ele>2396.19091796875</ele>
      </trkpt>
      <trkpt lat="9.018613" lon="38.747397">
        <ele>2395.9052734375</ele>
      </trkpt>
      <trkpt lat="9.018675" lon="38.747387">
        <ele>2396.10986328125</ele>
      </trkpt>
      <trkpt lat="9.018737" lon="38.747377">
        <ele>2395.8984375</ele>
      </trkpt>
      <trkpt lat="9.018725" lon="38.747439">
        <ele>2395.699951171875</ele>
      </trkpt>
      <trkpt lat="9.018663" lon="38.747449">
        <ele>2395.9814453125</ele>
      </trkpt>
      <trkpt lat="9.018601" lon="38.747439">
        <ele>2396.006591796875</ele>
      </trkpt>
      <trkpt lat="9.018539" lon="38.747429">
        <ele>2395.975830078125</ele>
      </trkpt>
      <trkpt lat="9.018477" lon="38.747419">
        <ele>2395.860107421875</ele>
      </trkpt>
      <trkpt lat="9.018415" lon="38.747409">
        <ele>2396.0185546875</ele>
      </trkpt>
      <trkpt lat="9.018403" lon="38.747471">
        <ele>2396.241943359375</ele>
      </trkpt>
      <trkpt lat="9.018391" lon="38.747533">
        <ele>2396.502685546875</ele>
      </trkpt>
      <trkpt lat="9.018379" lon="38.747595">
        <ele>2396.56005859375</ele>
      </trkpt>
      <trkpt lat="9.018367" lon="38.747657">
        <ele>2396.627197265625</ele>
      </trkpt>
      <trkpt lat="9.018355" lon="38.747719">
        <ele>2396.634765625</ele>
      </trkpt>
      <trkpt lat="9.018417" lon="38.747729">
        <ele>2396.740234375</ele>
      </trkpt>
      <trkpt lat="9.018479" lon="38.747719">
        <ele>2396.40283203125</ele>
      </trkpt>
      <trkpt lat="9.018541" lon="38.747709">
        <ele>2396.125244140625</ele>
      </trkpt>
      <trkpt lat="9.018603" lon="38.747699">
        <ele>2396.22900390625</ele>
      </trkpt>
      <trkpt lat="9.018665" lon="38.747689">
        <ele>2395.891357421875</ele>
      </trkpt>
      <trkpt lat="9.018727" lon="38.747679">
        <ele>2396.234375</ele>
      </trkpt>
      <trkpt lat="9.018789" lon="38.747669">
        <ele>2396.001953125</ele>
      </trkpt>
      <trkpt lat="9.018851" lon="38.747659">
        <ele>2395.94482421875</ele>
      </trkpt>
      <trkpt lat="9.018913" lon="38.747649">
        <ele>2395.94140625</ele>
      </trkpt>
      <trkpt lat="9.018975" lon="38.747639">
        <ele>2395.960693359375</ele>
      </trkpt>
      <trkpt lat="9.018963" lon="38.747577">
        <ele>2396.12646484375</ele>
      </trkpt>
      <trkpt lat="9.018901" lon="38.747567">
        <ele>2395.873779296875</ele>
      </trkpt>
      <trkpt lat="9.018839" lon="38.747557">
        <ele>2396.0693359375</ele>
      </trkpt>
      <trkpt lat="9.018777" lon="38.747547">
        <ele>2395.815185546875</ele>
      </trkpt>
      <trkpt lat="9.018715" lon="38.747537">
        <ele>2395.45556640625</ele>
      </trkpt>
      <trkpt lat="9.018653" lon="38.747527">
        <ele>2395.663330078125</ele>
      </trkpt>
      <trkpt lat="9.018591" lon="38.747517">
        <ele>2395.399658203125</ele>
      </trkpt>
      <trkpt lat="9.018529" lon="38.747507">
        <ele>2395.613525390625</ele>
      </trkpt>
      <trkpt lat="9.018467" lon="38.747497">
        <ele>2395.2587890625</ele>
      </trkpt>
      <trkpt lat="9.018405" lon="38.747487">
        <ele>2395.114013671875</ele>
      </trkpt>
      <trkpt lat="9.018343" lon="38.747477">
        <ele>2395.02587890625</ele>
      </trkpt>
      <trkpt lat="9.018281" lon="38.747487">
        <ele>2394.97998046875</ele>
      </trkpt>
      <trkpt lat="9.018269" lon="38.747549">
        <ele>2395.3056640625</ele>
      </trkpt>
      <trkpt lat="9.018257" lon="38.747611">
        <ele>2395.04248046875</ele>
      </trkpt>
      <trkpt lat="9.018245" lon="38.747673">
        <ele>2395.166015625</ele>
      </trkpt>
      <trkpt lat="9.018183" lon="38.747663">
        <ele>2395.064697265625</ele>
      </trkpt>
      <trkpt lat="9.018171" lon="38.747725">
        <ele>2395.187255859375</ele>
      </trkpt>
      <trkpt lat="9.018233" lon="38.747735">
        <ele>2395.07861328125</ele>
      </trkpt>
      <trkpt lat="9.018295" lon="38.747725">
        <ele>2395.195556640625</ele>
      </trkpt>
      <trkpt lat="9.018357" lon="38.747715">
        <ele>2395.427978515625</ele>
      </trkpt>
      <trkpt lat="9.018419" lon="38.747705">
        <ele>2395.761962890625</ele>
      </trkpt>
      <trkpt lat="9.018481" lon="38.747695">
        <ele>2395.702392578125</ele>
      </trkpt>
      <trkpt lat="9.018543" lon="38.747685">
        <ele>2395.956298828125</ele>
      </trkpt>
      <trkpt lat="9.018605" lon="38.747675">
        <ele>2396.124755859375</ele>
      </trkpt>
      <trkpt lat="9.018667" lon="38.747665">
        <ele>2396.01025390625</ele>
      </trkpt>
      <trkpt lat="9.018729" lon="38.747655">
        <ele>2396.36572265625</ele>
      </trkpt>
      <trkpt lat="9.018791" lon="38.747645">
        <ele>2396.7001953125</ele>
      </trkpt>
      <trkpt lat="9.018853" lon="38.747635">
        <ele>2396.927490234375</ele>
      </trkpt>
      <trkpt lat="9.018915" lon="38.747625">
        <ele>2396.931640625</ele>
      </trkpt>
      <trkpt lat="9.018977" lon="38.747615">
        <ele>2396.7060546875</ele>
      </trkpt>
      <trkpt lat="9.018965" lon="38.747677">
        <ele>2396.338134765625</ele>
      </trkpt>
      <trkpt lat="9.018953" lon="38.747739">
        <ele>2396.143798828125</ele>
      </trkpt>
      <trkpt lat="9.018891" lon="38.747749">
        <ele>2396.0322265625</ele>
      </trkpt>
      <trkpt lat="9.018829" lon="38.747739">
        <ele>2396.0146484375</ele>
      </trkpt>
      <trkpt lat="9.018767" lon="38.747729">
        <ele>2396.3115234375</ele>
      </trkpt>
      <trkpt lat="9.018705" lon="38.747719">
        <ele>2396.43798828125</ele>
      </trkpt>
      <trkpt lat="9.018643" lon="38.747709">
        <ele>2396.574462890625</ele>
      </trkpt>
      <trkpt lat="9.018581" lon="38.747699">
        <ele>2396.5341796875</ele>
      </trkpt>
      <trkpt lat="9.018519" lon="38.747689">
        <ele>2396.169677734375</ele>
      </trkpt>
      <trkpt lat="9.018457" lon="38.747679">
        <ele>2395.802490234375</ele>
      </trkpt>
      <trkpt lat="9.018395" lon="38.747669">
        <ele>2395.67578125</ele>
      </trkpt>
      <trkpt lat="9.018333" lon="38.747659">
        <ele>2395.75537109375</ele>
      </trkpt>
      <trkpt lat="9.018271" lon="38.747649">
        <ele>2395.93994140625</ele>
      </trkpt>
      <trkpt lat="9.018209" lon="38.747639">
        <ele>2395.79833984375</ele>
      </trkpt>
      <trkpt lat="9.018197" lon="38.747701">
        <ele>2395.86279296875</ele>
      </trkpt>
      <trkpt lat="9.018185" lon="38.747763">
        <ele>2395.529296875</ele>
      </trkpt>
      <trkpt lat="9.018173" lon="38.747825">
        <ele>2395.36767578125</ele>
      </trkpt>
      <trkpt lat="9.018161" lon="38.747887">
        <ele>2395.29052734375</ele>
      </trkpt>
      <trkpt lat="9.018173" lon="38.747949">
        <ele>2395.13037109375</ele>
      </trkpt>
      <trkpt lat="9.018235" lon="38.747939">
        <ele>2395.11279296875</ele>
      </trkpt>
      <trkpt lat="9.018297" lon="38.747929">
        <ele>2395.092041015625</ele>
      </trkpt>
      <trkpt lat="9.018359" lon="38.747919">
        <ele>2395.307373046875</ele>
      </trkpt>
      <trkpt lat="9.018421" lon="38.747909">
        <ele>2395.62451171875</ele>
      </trkpt>
      <trkpt lat="9.018483" lon="38.747899">
        <ele>2395.398193359375</ele>
      </trkpt>
      <trkpt lat="9.018545" lon="38.747889">
        <ele>2395.56298828125</ele>
      </trkpt>
      <trkpt lat="9.018607" lon="38.747879">
        <ele>2395.301025390625</ele>
      </trkpt>
      <trkpt lat="9.018669" lon="38.747869">
        <ele>2395.591064453125</ele>
      </trkpt>
      <trkpt lat="9.018731" lon="38.747859">
        <ele>2395.237548828125</ele>
      </trkpt>
      <trkpt lat="9.018793" lon="38.747849">
        <ele>2395.25927734375</ele>
      </trkpt>
      <trkpt lat="9.018855" lon="38.747839">
        <ele>2395.37060546875</ele>
      </trkpt>
      <trkpt lat="9.018917" lon="38.747829">
        <ele>2395.477783203125</ele>
      </trkpt>
      <trkpt lat="9.018979" lon="38.747819">
        <ele>2395.437255859375</ele>
      </trkpt>
      <trkpt lat="9.018967" lon="38.747757">
        <ele>2395.248046875</ele>
      </trkpt>
      <trkpt lat="9.018955" lon="38.747695">
        <ele>2395.02685546875</ele>
      </trkpt>
      <trkpt lat="9.018943" lon="38.747633">
        <ele>2394.927001953125</ele>
      </trkpt>
      <trkpt lat="9.018931" lon="38.747571">
        <ele>2394.958251953125</ele>
      </trkpt>
      <trkpt lat="9.018919" lon="38.747509">
        <ele>2395.158203125</ele>
      </trkpt>
      <trkpt lat="9.018857" lon="38.747499">
        <ele>2395.23876953125</ele>
      </trkpt>
      <trkpt lat="9.018795" lon="38.747489">
        <ele>2394.85595703125</ele>
      </trkpt>
      <trkpt lat="9.018733" lon="38.747479">
        <ele>2394.6201171875</ele>
      </trkpt>
      <trkpt lat="9.018671" lon="38.747469">
        <ele>2394.79052734375</ele>
      </trkpt>
      <trkpt lat="9.018609" lon="38.747459">
        <ele>2394.562255859375</ele>
      </trkpt>
      <trkpt lat="9.018547" lon="38.747449">
        <ele>2394.86279296875</ele>
      </trkpt>
      <trkpt lat="9.018485" lon="38.747439">
        <ele>2394.487548828125</ele>
      </trkpt>
      <trkpt lat="9.018423" lon="38.747429">
        <ele>2394.285888671875</ele>
      </trkpt>
      <trkpt lat="9.018361" lon="38.747439">
        <ele>2394.484375</ele>
      </trkpt>
      <trkpt lat="9.018315" lon="38.747482">
        <ele>2394.097412109375</ele>
      </trkpt>
      <trkpt lat="9.018303" lon="38.747544">
        <ele>2393.8017578125</ele>
      </trkpt>
      <trkpt lat="9.018241" lon="38.747534">
        <ele>2394.20068359375</ele>
      </trkpt>
      <trkpt lat="9.018229" lon="38.747596">
        <ele>2393.826416015625</ele>
      </trkpt>
      <trkpt lat="9.018217" lon="38.747658">
        <ele>2393.624755859375</ele>
      </trkpt>
      <trkpt lat="9.018279" lon="38.747648">
        <ele>2393.4755859375</ele>
      </trkpt>
      <trkpt lat="9.018341" lon="38.747638">
        <ele>2393.142578125</ele>
      </trkpt>
      <trkpt lat="9.018403" lon="38.747628">
        <ele>2393.148681640625</ele>
      </trkpt>
      <trkpt lat="9.018465" lon="38.747618">
        <ele>2393.103759765625</ele>
      </trkpt>
      <trkpt lat="9.018527" lon="38.747608">
        <ele>2393.35986328125</ele>
      </trkpt>
      <trkpt lat="9.018589" lon="38.747598">
        <ele>2393.609375</ele>
      </trkpt>
      <trkpt lat="9.018651" lon="38.747588">
        <ele>2393.96826171875</ele>
      </trkpt>
      <trkpt lat="9.018713" lon="38.747578">
        <ele>2394.121337890625</ele>
      </trkpt>
      <trkpt lat="9.018775" lon="38.747568">
        <ele>2394.434814453125</ele>
      </trkpt>
      <trkpt lat="9.018837" lon="38.747558">
        <ele>2394.303466796875</ele>
      </trkpt>
      <trkpt lat="9.018899" lon="38.747548">
        <ele>2394.602294921875</ele>
      </trkpt>
      <trkpt lat="9.018961" lon="38.747538">
        <ele>2394.98046875</ele>
      </trkpt>
      <trkpt lat="9.018915" lon="38.747581">
        <ele>2394.96630859375</ele>
      </trkpt>
      <trkpt lat="9.018903" lon="38.747643">
        <ele>2395.331787109375</ele>
      </trkpt>
      <trkpt lat="9.018891" lon="38.747705">
        <ele>2395.0751953125</ele>
      </trkpt>
      <trkpt lat="9.018829" lon="38.747715">
        <ele>2394.88916015625</ele>
      </trkpt>
      <trkpt lat="9.018767" lon="38.747725">
        <ele>2394.57958984375</ele>
      </trkpt>
      <trkpt lat="9.018705" lon="38.747735">
        <ele>2394.7548828125</ele>
      </trkpt>
      <trkpt lat="9.018643" lon="38.747725">
        <ele>2394.5078125</ele>
      </trkpt>
      <trkpt lat="9.018581" lon="38.747715">
        <ele>2394.62548828125</ele>
      </trkpt>
      <trkpt lat="9.018519" lon="38.747705">
        <ele>2394.983154296875</ele>
      </trkpt>
      <trkpt lat="9.018457" lon="38.747695">
        <ele>2394.79150390625</ele>
      </trkpt>
      <trkpt lat="9.018395" lon="38.747685">
        <ele>2394.597412109375</ele>
      </trkpt>
      <trkpt lat="9.018333" lon="38.747675">
        <ele>2394.5634765625</ele>
      </trkpt>
      <trkpt lat="9.018271" lon="38.747665">
        <ele>2394.885498046875</ele>
      </trkpt>
      <trkpt lat="9.018209" lon="38.747655">
        <ele>2394.60498046875</ele>
      </trkpt>
      <trkpt lat="9.018163" lon="38.747698">
        <ele>2394.45947265625</ele>
      </trkpt>
      <trkpt lat="9.018209" lon="38.747741">
        <ele>2394.520263671875</ele>
      </trkpt>
      <trkpt lat="9.018197" lon="38.747803">
        <ele>2394.418212890625</ele>
      </trkpt>
      <trkpt lat="9.018185" lon="38.747865">
        <ele>2394.383544921875</ele>
      </trkpt>
      <trkpt lat="9.018173" lon="38.747927">
        <ele>2394.117919921875</ele>
      </trkpt>
      <trkpt lat="9.018235" lon="38.747917">
        <ele>2394.15576171875</ele>
      </trkpt>
      <trkpt lat="9.018297" lon="38.747907">
        <ele>2394.51220703125</ele>
      </trkpt>
      <trkpt lat="9.018359" lon="38.747897">
        <ele>2394.692138671875</ele>
      </trkpt>
      <trkpt lat="9.018421" lon="38.747887">
        <ele>2394.47314453125</ele>
      </trkpt>
      <trkpt lat="9.018483" lon="38.747877">
        <ele>2394.290283203125</ele>
      </trkpt>
      <trkpt lat="9.018545" lon="38.747867">
        <ele>2394.579833984375</ele>
      </trkpt>
      <trkpt lat="9.018607" lon="38.747857">
        <ele>2394.691162109375</ele>
      </trkpt>
      <trkpt lat="9.018669" lon="38.747847">
        <ele>2394.988525390625</ele>
      </trkpt>
      <trkpt lat="9.018731" lon="38.747837">
        <ele>2395.25439453125</ele>
      </trkpt>
      <trkpt lat="9.018793" lon="38.747827">
        <ele>2395.00927734375</ele>
      </trkpt>
      <trkpt lat="9.018855" lon="38.747817">
        <ele>2394.6435546875</ele>
      </trkpt>
      <trkpt lat="9.018917" lon="38.747807">
        <ele>2394.826171875</ele>
      </trkpt>
      <trkpt lat="9.018979" lon="38.747797">
        <ele>2394.841064453125</ele>
      </trkpt>
      <trkpt lat="9.018967" lon="38.747735">
        <ele>2394.707275390625</ele>
      </trkpt>
      <trkpt lat="9.018905" lon="38.747725">
        <ele>2394.873291015625</ele>
      </trkpt>
      <trkpt lat="9.018843" lon="38.747715">
        <ele>2394.928466796875</ele>
      </trkpt>
      <trkpt lat="9.018781" lon="38.747705">
        <ele>2395.236083984375</ele>
      </trkpt>
      <trkpt lat="9.018719" lon="38.747695">
        <ele>2395.62646484375</ele>
      </trkpt>
      <trkpt lat="9.018657" lon="38.747685">
        <ele>2395.235107421875</ele>
      </trkpt>
      <trkpt lat="9.018595" lon="38.747675">
        <ele>2395.629638671875</ele>
      </trkpt>
      <trkpt lat="9.018533" lon="38.747665">
        <ele>2395.919189453125</ele>
      </trkpt>
      <trkpt lat="9.018471" lon="38.747655">
        <ele>2395.939697265625</ele>
      </trkpt>
      <trkpt lat="9.018409" lon="38.747645">
        <ele>2395.811279296875</ele>
      </trkpt>
      <trkpt lat="9.018347" lon="38.747635">
        <ele>2396.0048828125</ele>
      </trkpt>
      <trkpt lat="9.018285" lon="38.747625">
        <ele>2395.85791015625</ele>
      </trkpt>
      <trkpt lat="9.018223" lon="38.747615">
        <ele>2395.622314453125</ele>
      </trkpt>
      <trkpt lat="9.018177" lon="38.747658">
        <ele>2395.4140625</ele>
      </trkpt>
      <trkpt lat="9.018239" lon="38.747668">
        <ele>2395.242431640625</ele>
      </trkpt>
      <trkpt lat="9.018301" lon="38.747678">
        <ele>2395.365478515625</ele>
      </trkpt>
      <trkpt lat="9.018363" lon="38.747668">
        <ele>2394.969482421875</ele>
      </trkpt>
      <trkpt lat="9.018425" lon="38.747658">
        <ele>2395.361572265625</ele>
      </trkpt>
      <trkpt lat="9.018487" lon="38.747648">
        <ele>2395.058837890625</ele>
      </trkpt>
      <trkpt lat="9.018549" lon="38.747638">
        <ele>2395.116455078125</ele>
      </trkpt>
      <trkpt lat="9.018611" lon="38.747628">
        <ele>2395.046142578125</ele>
      </trkpt>
      <trkpt lat="9.018673" lon="38.747618">
        <ele>2394.965576171875</ele>
      </trkpt>
      <trkpt lat="9.018735" lon="38.747608">
        <ele>2394.75048828125</ele>
      </trkpt>
      <trkpt lat="9.018797" lon="38.747598">
        <ele>2394.951171875</ele>
      </trkpt>
      <trkpt lat="9.018859" lon="38.747588">
        <ele>2395.24853515625</ele>
      </trkpt>
      <trkpt lat="9.018921" lon="38.747578">
        <ele>2395.5615234375</ele>
      </trkpt>
      <trkpt lat="9.018983" lon="38.747568">
        <ele>2395.646484375</ele>
      </trkpt>
      <trkpt lat="9.018937" lon="38.747611">
        <ele>2395.525146484375</ele>
      </trkpt>
      <trkpt lat="9.018875" lon="38.747601">
        <ele>2395.7548828125</ele>
      </trkpt>
      <trkpt lat="9.018813" lon="38.747591">
        <ele>2395.513427734375</ele>
      </trkpt>
      <trkpt lat="9.018751" lon="38.747581">
        <ele>2395.177490234375</ele>
      </trkpt>
      <trkpt lat="9.018689" lon="38.747571">
        <ele>2395.160400390625</ele>
      </trkpt>
      <trkpt lat="9.018627" lon="38.747561">
        <ele>2394.91943359375</ele>
      </trkpt>
      <trkpt lat="9.018565" lon="38.747551">
        <ele>2394.86083984375</ele>
      </trkpt>
      <trkpt lat="9.018503" lon="38.747541">
        <ele>2394.647216796875</ele>
      </trkpt>
      <trkpt lat="9.018441" lon="38.747531">
        <ele>2394.395263671875</ele>
      </trkpt>
      <trkpt lat="9.018379" lon="38.747521">
        <ele>2394.14404296875</ele>
      </trkpt>
      <trkpt lat="9.018317" lon="38.747511">
        <ele>2394.22607421875</ele>
      </trkpt>
      <trkpt lat="9.018255" lon="38.747521">
        <ele>2394.472412109375</ele>
      </trkpt>
      <trkpt lat="9.018243" lon="38.747583">
        <ele>2394.433349609375</ele>
      </trkpt>
      <trkpt lat="9.018231" lon="38.747645">
        <ele>2394.197265625</ele>
      </trkpt>
      <trkpt lat="9.018219" lon="38.747707">
        <ele>2394.43603515625</ele>
      </trkpt>
      <trkpt lat="9.018281" lon="38.747717">
        <ele>2394.138916015625</ele>
      </trkpt>
      <trkpt lat="9.018343" lon="38.747707">
        <ele>2394.477294921875</ele>
      </trkpt>
      <trkpt lat="9.018405" lon="38.747697">
        <ele>2394.269775390625</ele>
      </trkpt>
      <trkpt lat="9.018467" lon="38.747687">
        <ele>2394.302734375</ele>
      </trkpt>
      <trkpt lat="9.018529" lon="38.747677">
        <ele>2394.177978515625</ele>
      </trkpt>
      <trkpt lat="9.018591" lon="38.747667">
        <ele>2393.875732421875</ele>
      </trkpt>
      <trkpt lat="9.018653" lon="38.747657">
        <ele>2393.886474609375</ele>
      </trkpt>
      <trkpt lat="9.018715" lon="38.747647">
        <ele>2393.793701171875</ele>
      </trkpt>
      <trkpt lat="9.018777" lon="38.747637">
        <ele>2393.56787109375</ele>
      </trkpt>
      <trkpt lat="9.018839" lon="38.747627">
        <ele>2393.418701171875</ele>
      </trkpt>
      <trkpt lat="9.018901" lon="38.747617">
        <ele>2393.58251953125</ele>
      </trkpt>
      <trkpt lat="9.018963" lon="38.747607">
        <ele>2393.690673828125</ele>
      </trkpt>
      <trkpt lat="9.018951" lon="38.747545">
        <ele>2393.71484375</ele>
      </trkpt>
      <trkpt lat="9.018905" lon="38.747502">
        <ele>2393.93896484375</ele>
      </trkpt>
      <trkpt lat="9.018843" lon="38.747492">
        <ele>2394.32373046875</ele>
      </trkpt>
      <trkpt lat="9.018781" lon="38.747482">
        <ele>2394.690185546875</ele>
      </trkpt>
      <trkpt lat="9.018719" lon="38.747472">
        <ele>2394.536376953125</ele>
      </trkpt>
      <trkpt lat="9.018657" lon="38.747462">
        <ele>2394.325927734375</ele>
      </trkpt>
      <trkpt lat="9.018595" lon="38.747452">
        <ele>2394.607421875</ele>
      </trkpt>
      <trkpt lat="9.018533" lon="38.747442">
        <ele>2394.9990234375</ele>
      </trkpt>
      <trkpt lat="9.018471" lon="38.747432">
        <ele>2394.6513671875</ele>
      </trkpt>
      <trkpt lat="9.018409" lon="38.747422">
        <ele>2394.489013671875</ele>
      </trkpt>
      <trkpt lat="9.018347" lon="38.747432">
        <ele>2394.771728515625</ele>
      </trkpt>
      <trkpt lat="9.018335" lon="38.747494">
        <ele>2394.902099609375</ele>
      </trkpt>
      <trkpt lat="9.018273" lon="38.747504">
        <ele>2394.57080078125</ele>
      </trkpt>
      <trkpt lat="9.018261" lon="38.747566">
        <ele>2394.454345703125</ele>
      </trkpt>
      <trkpt lat="9.018249" lon="38.747628">
        <ele>2394.16552734375</ele>
      </trkpt>
      <trkpt lat="9.018311" lon="38.747638">
        <ele>2393.7724609375</ele>
      </trkpt>
      <trkpt lat="9.018373" lon="38.747628">
        <ele>2393.871337890625</ele>
      </trkpt>
      <trkpt lat="9.018435" lon="38.747618">
        <ele>2393.92822265625</ele>
      </trkpt>
      <trkpt lat="9.018497" lon="38.747608">
        <ele>2393.947265625</ele>
      </trkpt>
      <trkpt lat="9.018559" lon="38.747598">
        <ele>2393.900634765625</ele>
      </trkpt>
    </trkseg>
  </trk>
</gpx>
